name_zh,name_en,region,address,state,old,a,b,c,d,e,f,g,h,latitude,longitude,UID,no_img
大圣堂,Ampang Thai Sin Thong,安邦,"2A, Jalan 16, Kampung Baru Ampang, 68000 Ampang, Selangor",雪兰莪,FALSE,FALSE,FALSE,TRUE,FALSE,FALSE,FALSE,FALSE,FALSE,3.1388956,101.7593671,,
南天宫九皇爷,Ampang Nan Tian Gong Kau Ong Yah Temple,安邦,"Jalan Merdeka (Kampung Baru Ampang), 68000 Ampang, Selangor.",雪兰莪,FALSE,FALSE,FALSE,TRUE,FALSE,FALSE,FALSE,FALSE,FALSE,3.1395722,101.7644836,,
金英庙,Kam Ying Temple,八打灵,"31, Jalan SS 9A/15, Sungai Way, 47300 Petaling Jaya, Selangor",雪兰莪,FALSE,FALSE,FALSE,TRUE,FALSE,FALSE,FALSE,FALSE,FALSE,3.0868716,101.6216042,,
阮梁圣佛宫,Yuen Leong Sing Fatt Temple,八打灵,"149, PJU 1/34, Kampung Cempaka, 47301 Petaling Jaya, Selangor.",雪兰莪,FALSE,FALSE,FALSE,TRUE,FALSE,FALSE,FALSE,FALSE,FALSE,3.1169731,101.5977977,,
桃园圣宫,Tho Guan Sen Temple,八打灵,"289, Jalan SS 9A/2, Sungai Way, 47300 Petaling Jaya, Selangor.",雪兰莪,FALSE,FALSE,FALSE,TRUE,FALSE,FALSE,FALSE,FALSE,FALSE,3.0885021,101.6172012,,
威灵宫,Wee Leng Keng,八打灵,"MP 51， No. 97E, Kampung Matang Pagar, 47000 Sungai Buloh, Selangor.",雪兰莪,FALSE,FALSE,FALSE,TRUE,FALSE,FALSE,FALSE,FALSE,FALSE,3.2452177,101.5657002,,
玄天上帝宫,Hean Tian Siong Teh Kiong,八打灵,"S130, Kampung Cempaka, 47300 Petaling Jaya, Selangor.",雪兰莪,FALSE,FALSE,FALSE,TRUE,FALSE,FALSE,FALSE,FALSE,FALSE,3.11795,101.5978039,,
斗母宫,Tow Boo Keong,八打靈縣,"174, Jalan 17/47, Seksyen 17, 46400 Petaling Jaya, Selangor",雪兰莪,FALSE,FALSE,FALSE,TRUE,FALSE,FALSE,FALSE,FALSE,FALSE,3.1240551,101.6292195,,
开封府龙图宫,Leng Toh Temple,八打靈縣,"3, Jalan 1/8, 46000 Petaling Jaya, Selangor",雪兰莪,FALSE,FALSE,FALSE,TRUE,FALSE,FALSE,FALSE,FALSE,FALSE,3.0842426,101.6510277,,
阮梁圣公佛,Petaling Jaya Yeong Leong Beow,八打靈縣,"122, Jalan 17A/1, Seksyen 17, 46400 Petaling Jaya, Selangor",雪兰莪,FALSE,FALSE,FALSE,TRUE,FALSE,FALSE,FALSE,FALSE,FALSE,3.1299101,101.6321792,,
山云宫,Sun Hoon Keong,八打靈縣,"47, Jalan 1/2, 46000 Petaling Jaya, Selangor",雪兰莪,FALSE,FALSE,FALSE,TRUE,FALSE,FALSE,FALSE,FALSE,FALSE,3.0816951,101.6379577,,
五雷仙师坛,Wu Lei Xian Shi Temple,八打靈縣,"16, Jalan 1/6, 46000 Petaling Jaya, Selangor",雪兰莪,FALSE,FALSE,FALSE,TRUE,FALSE,FALSE,FALSE,FALSE,FALSE,3.0837684,101.6522502,,
玉皇庙,Yu Huang Temple,八打靈縣,"40, Jalan Railway 1/2, Seksyen 1, 46000 Petaling Jaya, Selangor",雪兰莪,FALSE,FALSE,FALSE,TRUE,FALSE,FALSE,FALSE,FALSE,FALSE,3.0824505,101.6483519,,
白鹤仙法师公古庙,Pek Hoh Siang Huat Sze Kong,巴生,"122A, Bagan Teochew, Pulau Ketam, Selangor.",雪兰莪,FALSE,FALSE,FALSE,TRUE,FALSE,FALSE,FALSE,FALSE,FALSE,3.0195539,101.2452358,,
白虎宫,Bai Hu Gong,巴生,"Sungai Seberang, Pulau Ketam, Port Klang, Selangor.",雪兰莪,FALSE,FALSE,FALSE,TRUE,FALSE,FALSE,FALSE,FALSE,FALSE,2.99874,101.39157,,
班达马兰东南宫,Tong Lam Gong,巴生,"H 259, Jalan Bakar Arang, Pandamaran, Port Klang, Selangor.",雪兰莪,FALSE,FALSE,FALSE,TRUE,TRUE,FALSE,FALSE,FALSE,FALSE,3.0012632,101.4145761,,
班达马兰二区天和宫,Tian He Gong,巴生,"577, Jalan Lai, Pandamaran New Village, Klang, Selangor.",雪兰莪,FALSE,FALSE,FALSE,TRUE,TRUE,FALSE,FALSE,FALSE,FALSE,3.006503,101.4101232,,
班达马兰观西宫,Kuan Seh Keong,巴生,"146, Jalan Chan Ah Chu, Pandamaran, Pelabuhan Klang, Selangor.",雪兰莪,FALSE,FALSE,FALSE,TRUE,TRUE,FALSE,FALSE,FALSE,FALSE,3.009891,101.4177569,,
班达马兰后尾芭清林寺,Qing Lin Si,巴生,"Jalan Banting, Pandamaran, 42000 Pelabuhan Klang, Selangor",雪兰莪,FALSE,FALSE,FALSE,TRUE,TRUE,FALSE,FALSE,FALSE,FALSE,2.9972512,101.4202791,,
班达马兰梨山圣母宫,Lai Suan Siah Boh Temple,巴生,"565, Jalan Dengkil, Kampung Baru, Pandamaran, Pelabuhan Klang, Selangor.",雪兰莪,FALSE,FALSE,FALSE,TRUE,TRUE,FALSE,FALSE,FALSE,FALSE,3.0069762,101.4093122,,
班达马兰灵宝宫,Ling Bao Gong,巴生,"11652, Jalan Banting, Pandamaran, 42000 Pelabuhan Klang, Selangor",雪兰莪,FALSE,FALSE,FALSE,TRUE,TRUE,FALSE,FALSE,FALSE,FALSE,2.9923914,101.4204023,,
班达马兰善童坛,Sin Thong Tuah,巴生,"33, Lorong Mesra 1 off Jalan Kim Chuan, Kawasan 5, Taman Chi Liung Pandamaran, Pelabuhan Klang, Selangor. ",雪兰莪,FALSE,FALSE,FALSE,TRUE,FALSE,FALSE,FALSE,FALSE,FALSE,3.015584,101.4243428,,
班达马兰万津路妈祖庙,Mah Chor Temple,巴生,"Jalan Banting, Tokong Cina, Kunci Air, Pandamaran, 42000 Pelabuhan Klang, Selangor.",雪兰莪,FALSE,FALSE,FALSE,TRUE,TRUE,FALSE,FALSE,FALSE,FALSE,2.9403192,101.4720829,,
班达马兰咸水芭宝圣宫,Poh Seng Keng,巴生,"41, Jalan Bukit Arang, Pandamaran, Port Klang, Selangor.",雪兰莪,FALSE,FALSE,FALSE,TRUE,TRUE,FALSE,FALSE,FALSE,FALSE,2.9848922,101.7912117,,
班达马兰咸水芭莲安宫,Lian Ann Kong,巴生,"Leboh Raja Lumu, Kawasan 12, 42000 Port Klang, Selangor",雪兰莪,FALSE,FALSE,FALSE,TRUE,TRUE,FALSE,FALSE,FALSE,FALSE,2.9999994,101.4059547,,
班达马兰一区关顺宫,Guan Shun Gong,巴生,"Lot 8452, Jalan Sekinchan, 42000 Pelabuhan Klang, Selangor",雪兰莪,FALSE,FALSE,FALSE,TRUE,TRUE,FALSE,FALSE,FALSE,FALSE,3.0046881,101.4102057,,
班达马兰一区尾张公坛,Tiew Kong Tuah,巴生,"TBG1010, Jalan Papan, Pandamaran, 42000 Pelabuhan Klang, Selangor.",雪兰莪,FALSE,FALSE,FALSE,TRUE,TRUE,FALSE,FALSE,FALSE,FALSE,3.0069777,101.4164369,,
班达马兰玉皇庙,Giok Hong Temple,巴生,"11652, Jalan Pendamar, Kampung Baru, Pandamaran, 42000 Pelabuhan Klang, Selangor.",雪兰莪,FALSE,FALSE,FALSE,TRUE,TRUE,FALSE,FALSE,FALSE,FALSE,3.0119688,101.4165474,,
班达马兰再也二路尾关庆宫,Kwan Kheng Keng,巴生,"Jalan Sijangkang, Pandamaran Jaya, 42000 Port Klang, Selangor",雪兰莪,FALSE,FALSE,FALSE,TRUE,FALSE,FALSE,FALSE,FALSE,FALSE,3.00322,101.42583,,
船头拿督公新宫,,巴生,"Jalan Harper, Klang, Selangor.",雪兰莪,FALSE,FALSE,FALSE,TRUE,TRUE,FALSE,FALSE,FALSE,FALSE,3.0533893,101.4430529,,
达摩祖师庙,,巴生,"Jalan Tok Muda, Pulau Ketam, Selangor",雪兰莪,FALSE,FALSE,FALSE,FALSE,FALSE,FALSE,TRUE,FALSE,FALSE,3.019284,101.2451801,,
福进宫,Hock Chin Kong,巴生,"5310, Jalan Kopi, Pandamaran, 42000 Port Klang, Selangor",雪兰莪,FALSE,FALSE,FALSE,TRUE,TRUE,FALSE,FALSE,FALSE,FALSE,3.0134086,101.4231791,,
福龙宫,Hock Leng Keng,巴生,"Rumah Berhala Hock Leng Keng, Pulau Ketam, Selangor.",雪兰莪,FALSE,FALSE,FALSE,TRUE,FALSE,FALSE,FALSE,FALSE,FALSE,3.0334114,101.2467116,,
港口班达马兰师公坛,,巴生,"201, Lorong Polis, Kawasan 12, 42000 Pelabuhan Klang, Selangor",雪兰莪,FALSE,FALSE,FALSE,TRUE,FALSE,FALSE,FALSE,FALSE,FALSE,3.0100014,101.4134243,,
关庆宫,,巴生,"Jalan Sijangkang, Pandamaran Jaya, Port Klang, Selangor.",雪兰莪,FALSE,FALSE,FALSE,FALSE,TRUE,FALSE,FALSE,FALSE,FALSE,3.0108692,101.4208187,,
观合宫,,巴生,"Kawasan 12, 42000 Port Klang, Selangor",雪兰莪,FALSE,FALSE,FALSE,TRUE,TRUE,FALSE,FALSE,FALSE,FALSE,3.00212,101.4116051,,
观灵宫,,巴生,"NO.11652, Jln Banting Pandamaran, Kawasan 12, 42000 Klang, Selangor",雪兰莪,FALSE,FALSE,FALSE,TRUE,TRUE,FALSE,FALSE,FALSE,FALSE,2.9923914,101.4204023,,
观南宫,Guan Nan Gong,巴生,"H316, Jalan Batu Arang, Pandamaran, 42000 Pelabuhan Klang, Selangor",雪兰莪,FALSE,FALSE,FALSE,TRUE,TRUE,FALSE,FALSE,FALSE,FALSE,3.0012632,101.4145761,,
观天宫,Kuan Tien Keng,巴生,"Jalan Kemanis, Kawasan Tiga, Pandamaran N/V, 42000 Port Klang, Selangor.",雪兰莪,FALSE,FALSE,FALSE,TRUE,FALSE,FALSE,FALSE,FALSE,FALSE,3.0126326,101.4180338,,
广福宫,,巴生,"Jln Banting Pandamaran, Port Klang, Selangor",雪兰莪,FALSE,FALSE,FALSE,TRUE,TRUE,FALSE,FALSE,FALSE,FALSE,2.9972512,101.4202791,,
济仙洞关帝宫,Chee Sian Tong,巴生,"731, Jalan Timur, Pulau Ketam, Selangor.",雪兰莪,FALSE,FALSE,FALSE,TRUE,FALSE,FALSE,FALSE,FALSE,FALSE,3.1033168,101.6480692,,
莲花清人寺,Buddha Lotus,巴生,"1488, Jalan Mesra, Pandamaran, 42000 Port Klang, Selangor",雪兰莪,FALSE,FALSE,FALSE,TRUE,TRUE,FALSE,FALSE,FALSE,FALSE,3.0123549,101.4241133,,
联福庙、联福宫,Lian Fu Miao,巴生,"Jalan Banting Pandamaran, 42000 Port Klang, Selangor",雪兰莪,FALSE,FALSE,FALSE,TRUE,FALSE,FALSE,FALSE,FALSE,FALSE,2.9972512,101.4202791,,
拿督娘娘宫,Dato Neo-Neo Temple,巴生,"390, Sungai Dalam, Pulau Ketam, Selangor.",雪兰莪,FALSE,FALSE,FALSE,TRUE,FALSE,FALSE,FALSE,FALSE,FALSE,3.0334114,101.2467116,,
南海观音亭,Nan Hai Guan Yin Ting,巴生,"Bagan Teochew, Pulau Ketam, Selangor.",雪兰莪,FALSE,FALSE,FALSE,TRUE,FALSE,FALSE,FALSE,FALSE,FALSE,3.0195539,101.2452358,,
南天宫,Nan Thian Keng,巴生,"C/O 661, Jalan Tokong, Pulau Ketam, Selangor.",雪兰莪,FALSE,FALSE,FALSE,TRUE,FALSE,FALSE,FALSE,FALSE,FALSE,3.0334114,101.2467116,,
泗灵宫,See Leng Keng,巴生,"317, Lorong Amarasegara, Pandamaran, 42000 Pelabuhan Klang, Selangor",雪兰莪,FALSE,FALSE,FALSE,TRUE,TRUE,FALSE,FALSE,FALSE,FALSE,3.007494,101.4140916,,
孙福宫,Sam Tai Chu Temple ,巴生,"Jalan Cengal, Kawasan 12, 42000 Pelabuhan Klang, Selangor",雪兰莪,FALSE,FALSE,FALSE,TRUE,TRUE,FALSE,FALSE,FALSE,FALSE,3.0049172,101.4140508,,
太上老君仙法师公古庙,Xian Fa Shi Gong,巴生,"290, Sungai Seberang, Pulau Ketam, 42940 Port Klang, Selangor.",雪兰莪,FALSE,FALSE,FALSE,TRUE,FALSE,FALSE,FALSE,FALSE,FALSE,3.0334114,101.2467116,,
天恩道堂（真空教）,,巴生,"51A, Jalan Raya Timur, Kawasan 1, 41000 Klang, Selangor",雪兰莪,FALSE,FALSE,FALSE,TRUE,TRUE,FALSE,FALSE,FALSE,FALSE,3.0397009,101.4525561,,
靔宝宫,,巴生,"Jalan Sijangkang, Pandamaran Jaya, 42000 Port Klang, Selangor",雪兰莪,FALSE,FALSE,FALSE,TRUE,TRUE,FALSE,FALSE,FALSE,FALSE,3.00322,101.42583,,
靔寿宫,Thian Siew Keng,巴生,"Jalan Sijangkang, Pandamaran Jaya, 42000 Port Klang, Selangor.",雪兰莪,FALSE,FALSE,FALSE,TRUE,FALSE,FALSE,FALSE,FALSE,FALSE,3.00322,101.42583,,
协天宫,Hiap Tian Kiong,巴生,"Lot H811A, Pulau Ketam, Port Klang, Selangor.",雪兰莪,FALSE,FALSE,FALSE,TRUE,FALSE,FALSE,FALSE,FALSE,FALSE,3.0119296,101.3207828,,
阴应宫,Yin Ying Kong,巴生,"Lot H-150, Sungai Dalam, Pulau Ketam, Selangor.",雪兰莪,FALSE,FALSE,FALSE,TRUE,FALSE,FALSE,FALSE,FALSE,FALSE,3.0334114,101.2467116,,
昭应祠,Chow Eng Chee,巴生,"Jalan Bagan Hailam, Kawasan Perindustrian Selat Klang Utara, 42000 Pelabuhan Klang, Selangor",雪兰莪,FALSE,FALSE,FALSE,FALSE,FALSE,FALSE,TRUE,FALSE,FALSE,3.0049996,101.3860505,,
昭应庙天后宫,Chiau Eng Bio Thiam Houh Kong,巴生,"29K, Main Street, 42940 Pulau Ketam, Selangor.",雪兰莪,FALSE,FALSE,FALSE,TRUE,FALSE,FALSE,FALSE,FALSE,FALSE,3.0119296,101.3207828,,
吧生莲花清人寺佛祖慈善院,Klang Buddha Lotus Ci Shan Yuan,巴生县,"91, Lot No. 7884, Jalan Kemanis, Pandamaran, 42000 Port Klang, Selangor",雪兰莪,FALSE,FALSE,FALSE,TRUE,FALSE,FALSE,FALSE,FALSE,FALSE,3.0061576,101.4091408,,
法灵宫,,巴生县,"No.17, Jalan Aur Kawasan 4, Taman Aur, 42000 Port Klang",雪兰莪,FALSE,FALSE,FALSE,FALSE,TRUE,FALSE,FALSE,FALSE,FALSE,3.005177,101.396595,,
法门寺,,巴生县,"22, Jalan Jasmin 3, Bandar Botanik, 41200 Klang, Selangor",雪兰莪,FALSE,FALSE,FALSE,FALSE,TRUE,FALSE,FALSE,FALSE,FALSE,2.9871457,101.4430506,,
福成宫,,巴生县,"Pelabuhan Selatan, 42000 Port Klang, Selangor",雪兰莪,FALSE,FALSE,FALSE,FALSE,TRUE,FALSE,FALSE,FALSE,FALSE,2.996201,101.3969869,,
福德正神宫,,巴生县,"Jalan Sungai Putus, Kampung Batu Belah, 41050 Klang, Selangor",雪兰莪,FALSE,FALSE,FALSE,FALSE,TRUE,FALSE,FALSE,FALSE,FALSE,3.0698271,101.4375974,,
观宝宫,,巴生县,"1903，jalan young , Pandamaran,42000 pelabuhan klang 42000 Port Klang, Selangor",雪兰莪,FALSE,FALSE,FALSE,FALSE,TRUE,FALSE,FALSE,FALSE,FALSE,3.0082701,101.420874,,
观世庙,,巴生县,"Jalan Young, Kampung Sijangkang, 42000 Pelabuhan Klang, Selangor",雪兰莪,FALSE,FALSE,FALSE,FALSE,TRUE,FALSE,FALSE,FALSE,FALSE,3.0091596,101.4208727,,
合莲坛,,巴生县,"Car Park space under High Pressure Cable, Taman Eng Ann, 41050 Klang, Selangor",雪兰莪,FALSE,FALSE,FALSE,FALSE,TRUE,FALSE,FALSE,FALSE,FALSE,3.0576901,101.4570102,,
吉胆过港区協天宫,Pulau Ketam Hiap Tian Kiong,巴生县,"Lot H811A, Pulau Ketam, 42940 Port Klang, Selangor.",雪兰莪,FALSE,FALSE,FALSE,TRUE,FALSE,FALSE,FALSE,FALSE,FALSE,3.0334114,101.2467116,,
莲花宫,,巴生县,"26, Jalan Bendahara 38, Taman Sri Indah, 41200 Klang, Selangor",雪兰莪,FALSE,FALSE,FALSE,FALSE,TRUE,FALSE,FALSE,FALSE,FALSE,3.0109517,101.4763712,,
莲忠宫,,巴生县,"No. 28, Jalan Bungor, Kawasan 13, 42000 Pelabuhan Klang, Selangor",雪兰莪,FALSE,FALSE,FALSE,FALSE,TRUE,FALSE,FALSE,FALSE,FALSE,2.9851487,101.4379325,,
南天门孫福宮,,巴生县,"Jalan Cengal, Kawasan 12, 42000 Pelabuhan Klang, Selangor",雪兰莪,FALSE,FALSE,FALSE,FALSE,TRUE,FALSE,FALSE,FALSE,FALSE,3.0049172,101.4140508,,
普光兰若,,巴生县,"20, Lorong Kulur, Kampung Raja Uda, 42000 Pelabuhan Klang, Selangor",雪兰莪,FALSE,FALSE,FALSE,FALSE,TRUE,FALSE,FALSE,FALSE,FALSE,3.0047894,101.4014097,,
师公坛,,巴生县,"201, Lorong Polis, Kawasan 12, 42000 Pelabuhan Klang, Selangor",雪兰莪,FALSE,FALSE,FALSE,FALSE,TRUE,FALSE,FALSE,FALSE,FALSE,3.0100014,101.4134243,,
天赐宫,,巴生县,"Jl. Hort, Kampung Raja Uda, 42000 Pelabuhan Klang, Selangor",雪兰莪,FALSE,FALSE,FALSE,FALSE,TRUE,FALSE,FALSE,FALSE,FALSE,3.0082554,101.4025644,,
靝寿宫,,巴生县,"Jalan Sijangkang, Pandamaran Jaya, Port Klang, Selangor.",雪兰莪,FALSE,FALSE,FALSE,FALSE,TRUE,FALSE,FALSE,FALSE,FALSE,3.0108692,101.4208187,,
珠兴祠,Persatuan Pengurusan Tokong Dewa Choo Hin Sze Pelabuhan Klang Selangor,巴生县,"21, Jalan Melaka, Kawasan 13, 42000 Pelabuhan Klang, Selangor",雪兰莪,FALSE,FALSE,FALSE,FALSE,TRUE,FALSE,FALSE,FALSE,FALSE,3.0028683,101.401367,,
紫云福德祠,Sze Hoon Hock Teck Qi,巴生县,"TBG 961, Jalan Emas 41000 Klang, Selangor, Malaysia",雪兰莪,FALSE,FALSE,FALSE,FALSE,TRUE,FALSE,FALSE,FALSE,FALSE,3.045983,101.440121,,
八宝宫,Put Poh King,巴生縣,"39, Jalan Jelutong KU8, Pekan Meru Satu, Klang, Selangor.",雪兰莪,FALSE,FALSE,FALSE,TRUE,FALSE,FALSE,FALSE,FALSE,FALSE,3.135949,101.4412193,,
巴生港口清凉亭,Qin Liang Temple,巴生縣,"Kampung Kastam, 42000 Port Klang, Selangor",雪兰莪,FALSE,TRUE,FALSE,TRUE,TRUE,FALSE,FALSE,FALSE,FALSE,3.0114599,101.4062378,,
巴生港口天福宫,Tian Hock Kung,巴生縣,"Lot 3115 & 3116, Jalan Siakap, Jln Tepi Sungai, Taman Teluk Pulai, 41100 Klang, Selangor",雪兰莪,FALSE,TRUE,FALSE,TRUE,FALSE,FALSE,FALSE,FALSE,FALSE,3.0502602,101.4275294,,
巴生港口天缘道堂（真空教）,Tiam Yam Toh Teng,巴生縣,"No.24,Jalan Cox, Di-Jalan Solok Baru, 41400 Klang, Selangor Darul Ehsan.",雪兰莪,FALSE,FALSE,FALSE,TRUE,TRUE,FALSE,FALSE,FALSE,FALSE,3.0462005,101.4508627,,
巴生加埔路二支協天宫,Klang Siah Tian Kong,巴生縣,"Lot 208, B-13, Batu Belah, 41050 Klang, Selangor.",雪兰莪,FALSE,FALSE,FALSE,TRUE,FALSE,FALSE,FALSE,FALSE,FALSE,3.0821569,101.4332002,,
巴生加埔路九支天灵宫,Klang Tian Leng Gong,巴生縣,"Lot 344, Jalan Kapar, Batu 9 1/4, Kampung Perepat, 42200 Kapar, Selangor.",雪兰莪,FALSE,FALSE,FALSE,TRUE,FALSE,FALSE,FALSE,FALSE,FALSE,3.1004393,101.368729,,
巴生加埔十一支兴化府,Klang Heng Hua Foo,巴生縣,"N0 32, Lorong Kiyai Sujak 20D, Taman Sri Wangi, 42200 Kapar, Selangor.",雪兰莪,FALSE,FALSE,FALSE,TRUE,FALSE,FALSE,FALSE,FALSE,FALSE,3.134417,101.3642953,,
巴生峇都勿拉南阳宫,Nan Yoong Keong Klang,巴生縣,"15, Lot 219, Kampung Batu Belah, 41050 Klang, Selangor.",雪兰莪,FALSE,FALSE,FALSE,TRUE,FALSE,FALSE,FALSE,FALSE,FALSE,3.0744202,101.4353344,,
白音宫,Bai Yin Gong,巴生縣,"35, Lorong Batu Nilam 6D, Bandar Bukit Tinggi, 42100 Klang, Selangor.",雪兰莪,FALSE,FALSE,FALSE,TRUE,FALSE,FALSE,FALSE,FALSE,FALSE,3.0053925,101.4375746,,
船头哪督,Chuan Tou Dato,巴生縣,"Jalan Harper, 41400 Klang, Selangor",雪兰莪,FALSE,FALSE,FALSE,TRUE,FALSE,FALSE,FALSE,FALSE,FALSE,3.0532459,101.4421938,,
二支南山洞威灵宫,Nan Shan Dong Wei Ling Gong,巴生縣,"37, Lorong Mersing, Jalan Kapar, 41400 Klang, Selangor",雪兰莪,FALSE,FALSE,FALSE,TRUE,FALSE,FALSE,FALSE,FALSE,FALSE,3.0684522,101.4339704,,
凤山寺,Hong Sun Si,巴生縣,"Lot 35544, Lorong Sentosa 3, Taman Chi Liung, Pandamaran, 42000 Pelabuhan Klang, Selangor",雪兰莪,FALSE,TRUE,FALSE,TRUE,FALSE,FALSE,FALSE,FALSE,FALSE,3.0137707,101.4276375,,
佛喃码万灵宫、万灵宫,Wan Ling Keng,巴生縣,"Lot 295 Jalan Kem, 42000 Pelabuhan Klang, Selangor",雪兰莪,FALSE,FALSE,FALSE,TRUE,TRUE,FALSE,FALSE,FALSE,FALSE,2.9913695,101.4028783,,
福德坛,Fu De Tan,巴生縣,"Lot 11094, Batu 3 1/2, (Kedai 3) Kampung Jawa, 41000 Klang, Selangor.",雪兰莪,FALSE,FALSE,FALSE,TRUE,FALSE,FALSE,FALSE,FALSE,FALSE,3.0498225,101.455149,,
高阳苑中南庙,Zhong Nan Miao,巴生縣,"7, Lorong Dato Yusof Shahbudin 45A, Taman Mewah Jaya, 41200 Klang, Selangor.",雪兰莪,FALSE,FALSE,FALSE,TRUE,FALSE,FALSE,FALSE,FALSE,FALSE,3.0085149,101.4693323,,
汉寿亭侯关帝庙,Hon Sao Teng Hau Guan Di Temple,巴生縣,"21, Jalan 41, Kawasan 17, Off Jalan Meru, 41050 Klang, Selangor.",雪兰莪,FALSE,FALSE,FALSE,TRUE,FALSE,FALSE,FALSE,FALSE,FALSE,3.017155,101.4463563,,
河边路石山哪督爷公,Shi Shan Dato Temple,巴生縣,"32A, Lintang Sungai 4 Off Jalan Tepi Sungai, 41100 Klang, Selangor",雪兰莪,FALSE,FALSE,FALSE,TRUE,FALSE,FALSE,FALSE,FALSE,FALSE,3.0518907,101.4361037,,
河边路靔灵宫,Tian Leng Keng,巴生縣,"54A, Lorong Sungai 10 off Tepi Sungai, 41100 Klang, Selangor",雪兰莪,FALSE,FALSE,FALSE,TRUE,FALSE,FALSE,FALSE,FALSE,FALSE,3.0515905,101.431689,,
河边路同心宫,Tong Xin Keng,巴生縣,"54A, Lorong Sungai 10 off Tepi Sungai, 41100 Klang, Selangor",雪兰莪,FALSE,FALSE,FALSE,TRUE,FALSE,FALSE,FALSE,FALSE,FALSE,3.0515905,101.431689,,
河天宫,Hoh Thian Kiong,巴生縣,"Lot 3281, Batu 5 1/2, Jalan Kapar, 42100 Klang, Selangor.",雪兰莪,FALSE,FALSE,FALSE,TRUE,FALSE,FALSE,FALSE,FALSE,FALSE,3.0671819,101.4207975,,
加埔路八支聚宝堂,Chi Poh Tong,巴生縣,"262, Batu 8, Jalan Keratapi Lama, 42200 Kapar, Selangor",雪兰莪,FALSE,FALSE,FALSE,TRUE,FALSE,FALSE,FALSE,FALSE,FALSE,3.103877,101.3659135,,
加埔路二支半大伯公坛,Da Bo Gong Tang,巴生縣,"14, Jalan Labis 105, Kawasan 19, Off Jalan Kapar, Batu 2 1/2, 41400 Klang, Selangor.",雪兰莪,FALSE,FALSE,FALSE,TRUE,FALSE,FALSE,FALSE,FALSE,FALSE,3.0678698,101.4365364,,
加埔路十二支三福宫,Sam Hock Temple,巴生縣,"60, Batu 12, Jalan Kapar, 42200 Kapar, Selangor.",雪兰莪,FALSE,FALSE,FALSE,TRUE,FALSE,FALSE,FALSE,FALSE,FALSE,3.133016,101.3760168,,
加埔路十四支天顺宫,Thian Soon Keng,巴生縣,"Batu 14, Jalan Kapar, 42200 Kapar, Klang, Selangor",雪兰莪,FALSE,FALSE,FALSE,TRUE,FALSE,FALSE,FALSE,FALSE,FALSE,3.1329455,101.3760082,,
加埔路十支茅山法祖,Maoshan Fazo Temple,巴生縣,"282, Batu 10, Jalan Keratapi Lama, 42200 Kapar, Selangor",雪兰莪,FALSE,FALSE,FALSE,TRUE,FALSE,FALSE,FALSE,FALSE,FALSE,3.1413725,101.3571768,,
加埔路一支川童宫,Chung Tong Keng,巴生縣,"Batu 1 1/4, Jalan Kapar, 41400 Klang, Selangor.",雪兰莪,FALSE,FALSE,FALSE,TRUE,FALSE,FALSE,FALSE,FALSE,FALSE,3.0673779,101.4260961,,
崑崙坛,Kun Lun Than,巴生縣,"95, Jalan Sungai Nibong 4, Rantau Panjang, 41200 Klang, Selangor.",雪兰莪,FALSE,FALSE,FALSE,TRUE,FALSE,FALSE,FALSE,FALSE,FALSE,3.0653049,101.4141432,,
莲亭寺,Lean Teng Sze,巴生縣,"75, Lintang Sungai Keramat 7E, Taman Klang Utama, 41150 Selangor.",雪兰莪,FALSE,FALSE,FALSE,TRUE,FALSE,FALSE,FALSE,FALSE,FALSE,3.0876572,101.416495,,
良木宫,Liang Mu Kong,巴生縣,"Jalan Selampit 21, Kawasan 3, Taman Klang Jaya, 41200 Klang, Selangor",雪兰莪,FALSE,FALSE,FALSE,TRUE,FALSE,FALSE,FALSE,FALSE,FALSE,3.0075518,101.4446865,,
龙和宫,Long He Kong,巴生縣,"52, Jalan Kelicap 41, Kawasan 17, Jalan Meru, 41050 Klang, Selangor.",雪兰莪,FALSE,FALSE,FALSE,TRUE,FALSE,FALSE,FALSE,FALSE,FALSE,3.0611141,101.4551859,,
龙礼寺,Long Lye Sye,巴生縣,"Jalan Batu Tiga, Kawasan 15, 41300 Klang, Selangor",雪兰莪,FALSE,FALSE,FALSE,TRUE,FALSE,FALSE,FALSE,FALSE,FALSE,3.0498225,101.455149,,
马基督哪卓公,Makitoh Temple,巴生縣,"Jalan Harper, 41400 Klang, Selangor",雪兰莪,FALSE,FALSE,FALSE,TRUE,FALSE,FALSE,FALSE,FALSE,FALSE,3.0532459,101.4421938,,
木吒宫李府二太子,Li Fu Erh Tau Tze,巴生縣,"12, Lintang Muda, Off Jalan Meru, 41050 Klang, Selangor.",雪兰莪,FALSE,FALSE,FALSE,TRUE,FALSE,FALSE,FALSE,FALSE,FALSE,3.0670259,101.4495289,,
南山宫,Lam Suah Keng,巴生縣,"Lot 27, Jalan 57, Off Jalan Bukit Kerayong, Pandamaran, 42000 Port Klang, Selangor",雪兰莪,FALSE,FALSE,FALSE,TRUE,FALSE,FALSE,FALSE,FALSE,FALSE,3.008215,101.418872,,
七星佛光真君坛、七星佛光坛,Qi Xing Fo Guang Zhen Jun Tan,巴生縣,"91, Jalan Dato Dagang 10, Taman Sentosa, 42000 Klang, Selangor",雪兰莪,FALSE,FALSE,FALSE,TRUE,TRUE,FALSE,FALSE,FALSE,FALSE,3.0007399,101.4674584,,
七玉殿,Klang Qi Yu Dian,巴生縣,"4, Jalan Cox, 41300 Klang, Selangor.",雪兰莪,FALSE,FALSE,FALSE,TRUE,FALSE,FALSE,FALSE,FALSE,FALSE,3.0465938,101.4502782,,
圣淘沙北主宫,Bei Chu Gong,巴生縣,"1, Jalan Yusof Shahbudin 7, Taman Sentosa, 41200 Klang, Selangor",雪兰莪,FALSE,FALSE,FALSE,TRUE,FALSE,FALSE,FALSE,FALSE,FALSE,3.0087832,101.4654238,,
圣淘沙东岳坛,Dong Yue Than,巴生縣,"33, Lorongg 20A, Taman Sentosa, 41200 Klang, Selangor",雪兰莪,FALSE,FALSE,FALSE,TRUE,FALSE,FALSE,FALSE,FALSE,FALSE,3.0058087,101.4609293,,
圣淘沙福德宫,Fu De Gong,巴生縣,"6, Lorong Dato Dagang 35C, Taman Sri Sentosa, 41200 Klang, Selangor",雪兰莪,FALSE,FALSE,FALSE,TRUE,FALSE,FALSE,FALSE,FALSE,FALSE,2.9956817,101.4760679,,
圣淘沙美华花园寿龟庙,Sou Gui Miao Temple,巴生縣,"Jalan Bendahara 56 Taman Sejati 5, 41200 Klang, Selangor.",雪兰莪,FALSE,FALSE,FALSE,TRUE,FALSE,FALSE,FALSE,FALSE,FALSE,3.0154385,101.4677017,,
圣淘沙哪督宫,Na Tok Keng,巴生縣,"28, Lorong 20B, Taman Mujur Sentosa Klang, Selangor",雪兰莪,FALSE,FALSE,FALSE,TRUE,FALSE,FALSE,FALSE,FALSE,FALSE,3.0058099,101.4606122,,
圣淘沙石壶宫,Cheok Wu Kong,巴生縣,"Lot 10433, Taman Sentosa, 41200 Klang, Selangor.",雪兰莪,FALSE,FALSE,FALSE,TRUE,FALSE,FALSE,FALSE,FALSE,FALSE,3.0039834,101.4857316,,
圣淘沙石头宫,Chiok Tao Keng,巴生縣,"176，1st Floor, Jalan Yusof Shahbudin 1, Taman Sentosa, Klang 41200, Selangor",雪兰莪,FALSE,FALSE,FALSE,TRUE,FALSE,FALSE,FALSE,FALSE,FALSE,3.0081784,101.4642046,,
十五支天后宫,Kapar Tian Hor Kong,巴生縣,"Jalan Bagan Sungai Janggut, 42200 Kapar, Selangor.",雪兰莪,FALSE,FALSE,FALSE,TRUE,FALSE,FALSE,FALSE,FALSE,FALSE,3.1730371,101.3128204,,
双溪槟榔二支半马山灵宫,Ma San Ling Gong,巴生縣,"548, Lot 3101, Batu 2 1/2, Sungai Pinang, Jalan Kapar, 41400 Klang, Selangor.",雪兰莪,FALSE,FALSE,FALSE,TRUE,FALSE,FALSE,FALSE,FALSE,FALSE,3.0673779,101.4260961,,
太明宫,Tai Ming Gong,巴生縣,"Jalan Harper, 41400 Klang, Selangor",雪兰莪,FALSE,FALSE,FALSE,TRUE,FALSE,FALSE,FALSE,FALSE,FALSE,3.0532459,101.4421938,,
天圣宫,Klang Tian Shen Keng,巴生縣,"118, Jalan Tempinis, Off Jalan Meru, 41050 Klang, Selangor.",雪兰莪,FALSE,FALSE,FALSE,TRUE,FALSE,FALSE,FALSE,FALSE,FALSE,3.1315469,101.4406425,,
天云宫,Tian Hoon Kong,巴生縣,"48, Jalan Kelicap 41, Off Jalan Meru 41050 Klang, Selangor.",雪兰莪,FALSE,FALSE,FALSE,TRUE,FALSE,FALSE,FALSE,FALSE,FALSE,3.0601019,101.4554488,,
五条路观音亭,Kwan Imm Temple,巴生縣,"30, Jalan Raya Barat, 41000 Klang, Selangor.",雪兰莪,FALSE,TRUE,FALSE,TRUE,FALSE,FALSE,FALSE,FALSE,FALSE,3.0395418,101.4419165,,
五条路开封府,Kai Hong Hoo,巴生縣,"32, Jalan Raya Barat, 41100 Klang, Selangor.",雪兰莪,FALSE,FALSE,FALSE,TRUE,FALSE,FALSE,FALSE,FALSE,FALSE,3.0395832,101.4418201,,
伍德宫,Klang Ngoh Teck Keong,巴生縣,"20-A, Jalan Bukit Kuda, Bukit Kuda, 41300 Klang, Selangor.",雪兰莪,FALSE,FALSE,FALSE,TRUE,TRUE,FALSE,FALSE,FALSE,FALSE,3.0529065,101.467682,,
许大宫,Khor Tat Kong,巴生縣,"3, Jalan Cox, 41300 Klang, Selangor",雪兰莪,FALSE,FALSE,FALSE,TRUE,FALSE,FALSE,FALSE,FALSE,FALSE,3.0465938,101.4502782,,
沿海宫,Yan Hai Gong,巴生縣,"Jalan Batu Tiga, Kawasan 15, 41300 Klang, Selangor",雪兰莪,FALSE,FALSE,FALSE,TRUE,FALSE,FALSE,FALSE,FALSE,FALSE,3.0498225,101.455149,,
椰脚联合庙,Lian He Temple,巴生縣,"Lot 385, Jalan Nanas, Kawasan 18, 41400 Klang, Selangor.",雪兰莪,FALSE,FALSE,FALSE,TRUE,FALSE,FALSE,FALSE,FALSE,FALSE,3.04966,101.446,,
椰脚紫云亭,Chee Hong Teng,巴生縣,"24 Jalan Tapah, Jalan Goh Hock Huat, 41400 Klang, Selangor.",雪兰莪,FALSE,FALSE,FALSE,TRUE,FALSE,FALSE,FALSE,FALSE,FALSE,3.0514768,101.4441581,,
永安镇二副天福宫,Tian Hock Gong,巴生縣,"Jalan Bayan, Taman Eng Ann, 41150 Klang, Selangor.",雪兰莪,FALSE,TRUE,FALSE,TRUE,FALSE,FALSE,FALSE,FALSE,FALSE,3.0587079,101.4574213,,
永安镇通圣洞,Tong Sheng Dong,巴生縣,"32, Jalan Terkokur, Taman Eng Ann, 41150 Klang, Selangor.",雪兰莪,FALSE,FALSE,FALSE,TRUE,FALSE,FALSE,FALSE,FALSE,FALSE,3.0590508,101.4569185,,
园拿督保灵宫,Poh Leng Keng,巴生縣,"Jalan Prai 3, Off Jalan Meru, Taman Klang, 41050 Klang, Selangor.",雪兰莪,FALSE,FALSE,FALSE,TRUE,FALSE,FALSE,FALSE,FALSE,FALSE,3.1347647,101.4396254,,
月天宫,Geok Thian Keong,巴生縣,巴生港口市区边缘之住宅区内，距离班达马兰新村不远,雪兰莪,FALSE,FALSE,FALSE,TRUE,TRUE,FALSE,FALSE,FALSE,FALSE,3.0102524,101.4185218,,
云天宫、加埔云天宫,Kapar Yun Tian Gong,巴生縣,"Lot 1706, Jalan Raja Abdul Rahman 9, Off Jalan Bukit Kapar, 42200 Kapar, Selangor.",雪兰莪,FALSE,FALSE,FALSE,TRUE,FALSE,FALSE,FALSE,FALSE,FALSE,3.1408961,101.3741739,,
直落昂八仙庙,Teluk Gong Pa Sien Meow,巴生縣,"40, Jalan Besar, Teluk Gong, 42000 Pelabuhan Klang, Selangor",雪兰莪,FALSE,FALSE,FALSE,TRUE,FALSE,FALSE,FALSE,FALSE,FALSE,3.0071575,101.4141938,,
直落昂城隍庙,Teluk Gong Cheng Huang Meow,巴生縣,"40, Jalan Besar, Teluk Gong, 42000 Pelabuhan Klang, Selangor",雪兰莪,FALSE,FALSE,FALSE,TRUE,FALSE,FALSE,FALSE,FALSE,FALSE,3.0071575,101.4141938,,
直落昂慈德堂,Teluk Gong Ci De Tang,巴生縣,"40, Jalan Besar, Teluk Gong, 42000 Pelabuhan Klang, Selangor",雪兰莪,FALSE,FALSE,FALSE,TRUE,FALSE,FALSE,FALSE,FALSE,FALSE,3.0071575,101.4141938,,
直落昂地灵宫,Teluk Gong Di Ling Gong,巴生縣,"PT 126749, Jalan Telok Gong 42000, Pelabuhan Klang, Selangor",雪兰莪,FALSE,FALSE,FALSE,TRUE,FALSE,FALSE,FALSE,FALSE,FALSE,2.9636841,101.3927594,,
直落昂福灵宫,Teluk Gong Fu Ling Gong,巴生縣,"Lot 8953, Kampung Teluk Gong, 42000 Pelabuhan Klang, Selangor",雪兰莪,FALSE,FALSE,FALSE,TRUE,FALSE,FALSE,FALSE,FALSE,FALSE,2.9393239,101.3748392,,
直落昂全顺宫,Teluk Gong Quan Shun Gong,巴生縣,"Lot 9189, Jalan Telok Gong, 42000 Pelabuhan Klang, Selangor",雪兰莪,FALSE,FALSE,FALSE,TRUE,FALSE,FALSE,FALSE,FALSE,FALSE,2.9692897,101.3960059,,
直落昂西天宫,Teluk Gong Xi Tian Gong,巴生縣,"Lot 8897-A, Jalan Telok Gong, Kampung Telok Gong, 42000 Port Klang, Selangor",雪兰莪,FALSE,FALSE,FALSE,TRUE,FALSE,FALSE,FALSE,FALSE,FALSE,2.9679162,101.4000389,,
直落玻璃凤山寺公会,Hong San Si,巴生縣,"Lot 412, Jalan Teluk Pulai, 41100 Klang, Selangor.",雪兰莪,FALSE,FALSE,FALSE,TRUE,FALSE,FALSE,FALSE,FALSE,FALSE,3.0414071,101.4322513,,
直落玻璃河边路天福宫,Tian Hock Kung,巴生縣,"Lot 3115, Jalan Stakap, Jalan Tepi Sungai, Teluk Pulai, 41100 Klang, Selangor.",雪兰莪,FALSE,FALSE,FALSE,TRUE,FALSE,FALSE,FALSE,FALSE,FALSE,3.0502602,101.4275294,,
直落玻璃顺灵宫,Soon Leng Keng,巴生縣,"No 22A, Lebuh Sembilang 1, Off Jalan Teluk Pulai, 41100 Klang, Selangor.",雪兰莪,FALSE,FALSE,FALSE,TRUE,FALSE,FALSE,FALSE,FALSE,FALSE,3.0434771,101.4295126,,
中路六哩威灵宫,Wei Ling Keng,巴生縣,"56, Jalan Cengal, Pekan Meru, 41050 Klang, Selangor.",雪兰莪,FALSE,FALSE,FALSE,TRUE,TRUE,FALSE,FALSE,FALSE,FALSE,3.1342838,101.4423679,,
中路一支巴生园南天宫万寿坛,Klang Nan Tian Gong Ban Siew Tan,巴生縣,"101, Jalan Muda off Jalan Meru, 41050 Klang, Selangor.",雪兰莪,FALSE,FALSE,FALSE,TRUE,FALSE,FALSE,FALSE,FALSE,FALSE,3.0656011,101.4480443,,
中路一支巴生园岩法坛,Klang Yuen Fa Tham,巴生縣,"12, Lintang Muda off Jalan Meru, 41050 Klang, Selangor.",雪兰莪,FALSE,FALSE,FALSE,TRUE,FALSE,FALSE,FALSE,FALSE,FALSE,3.0670259,101.4495289,,
中路一支吧生园华光宝殿,Klang Hwa Kong Bao Dian,巴生縣,"31, Jalan Kedah, Off Jalan Meru, 41050 Klang, Selangor.",雪兰莪,FALSE,FALSE,FALSE,TRUE,FALSE,FALSE,FALSE,FALSE,FALSE,3.0645013,101.4467955,,
中路张圣宫,Tew Seng Keng,巴生縣,"17, Jalan Patani, Taman Meru Selatan, Klang, Selangor.",雪兰莪,FALSE,FALSE,FALSE,TRUE,TRUE,FALSE,FALSE,FALSE,FALSE,3.0639617,101.4512163,,
中路中川宫,Zhong Chuan Gong,巴生縣,"Lot 11852, Batu 1 1/2, Jalan Meru, 41050 Klang, Selangor.",雪兰莪,FALSE,FALSE,FALSE,TRUE,FALSE,FALSE,FALSE,FALSE,FALSE,3.055846,101.451127,,
竹林观音庙,Choo Lian Kwan Yin Temple,巴生縣,"77, Off Jalan Terkukor, Taman Eng Ann, 41150 Klang, Selangor.",雪兰莪,FALSE,FALSE,FALSE,TRUE,FALSE,FALSE,FALSE,FALSE,FALSE,3.0625975,101.4680283,,
紫林坛,Zi Lin Thang,巴生縣,"5, Lintang Sungai Keramat 7C, Taman Klang Utama, 42100 Rantau Panjang, Klang, Selangor.",雪兰莪,FALSE,FALSE,FALSE,TRUE,FALSE,FALSE,FALSE,FALSE,FALSE,3.0866833,101.4145535,,
宗孔堂,Chong Kong Tong,巴生縣,"24, Jalan Kapar, 41400 Klang, Selangor.",雪兰莪,FALSE,TRUE,FALSE,TRUE,FALSE,FALSE,FALSE,FALSE,FALSE,3.0509679,101.4483022,,
士拉央峇鲁忠义庙,Selayang Baru Tiong Yee Temple,鵝嘜縣,"2 & 4, Jalan 1A, Kampung Selayang Baru, 68100 Batu Caves, Selangor",雪兰莪,FALSE,FALSE,FALSE,TRUE,FALSE,FALSE,FALSE,FALSE,FALSE,3.245929,101.6673984,,
士拉央自在宫,Selayang Baru Chee Choy Kong,鵝嘜縣,"36A, Jalan 30, Selayang Baru, 68100 Batu Caves, Selangor",雪兰莪,FALSE,FALSE,FALSE,TRUE,FALSE,FALSE,FALSE,FALSE,FALSE,3.2528492,101.6644495,,
东禅寺,Fo Guang Shan Dong Zen Temple,瓜拉冷岳,"PT 2297, Jalan Sungai Buaya, 42600 Jenjarom, Kuala Langat, Selangor",雪兰莪,FALSE,FALSE,FALSE,TRUE,FALSE,FALSE,TRUE,FALSE,FALSE,2.8727226,101.496614,,
联军庙,Banting Lian Jun Temple,瓜拉冷岳,"Lot 316, Jalan Sungai Nangka, 42700 Banting, Selangor",雪兰莪,FALSE,FALSE,FALSE,TRUE,FALSE,FALSE,TRUE,FALSE,FALSE,2.8126529,101.4924893,,
罗汉宫,,瓜拉冷岳,"18, Jalan Delima 22, Taman Delima, 42700 Banting, Selangor.",雪兰莪,FALSE,FALSE,FALSE,TRUE,FALSE,FALSE,TRUE,FALSE,FALSE,2.8167223,101.4999771,,
南海观音寺,Jenjarom Tian Fu Gong,瓜拉冷岳,"Jalan 23, Sungai Jarum, 42600 Jenjarom, Kuala Langat, Selangor",雪兰莪,FALSE,FALSE,FALSE,TRUE,FALSE,FALSE,TRUE,FALSE,FALSE,2.9074476,101.4781854,,
仁加隆万寿宫,,瓜拉冷岳,"Lot 5623, Jalan Sungai Buaya, Sungai Jarom, 42600 Jenjarom, Kuala Langat, Selangor",雪兰莪,FALSE,FALSE,FALSE,TRUE,FALSE,FALSE,TRUE,FALSE,FALSE,2.8727226,101.496614,,
太保凤山寺,Banting Tai Poh Hong San Si,瓜拉冷岳,"Jalan Delima 9, Taman Delima, 42700 Banting, Selangor",雪兰莪,FALSE,FALSE,FALSE,TRUE,FALSE,FALSE,TRUE,FALSE,FALSE,2.8139132,101.4960294,,
天福宫,Tanjung Karang Thian Hock Temple,瓜拉冷岳,"128, Jalan Besar, 45500 Tanjung Karang, Selangor",雪兰莪,FALSE,FALSE,FALSE,TRUE,FALSE,FALSE,TRUE,FALSE,FALSE,3.4245051,101.1770548,,
雪兰莪仁嘉隆显威灵,Jenjarom Xian Wei Ling,瓜拉冷岳,"614, Jalan 23, Sungai Jarum, 42600 Jenjarom, Kuala Langat, Selangor",雪兰莪,FALSE,FALSE,FALSE,TRUE,FALSE,FALSE,TRUE,FALSE,FALSE,2.9074476,101.4781854,,
忠义庙,Banting Chong Yi Temple,瓜拉冷岳,"Lot 343, Jalan Marmar 11, Taman Delima, 42700 Banting, Selangor",雪兰莪,FALSE,FALSE,FALSE,TRUE,FALSE,FALSE,TRUE,FALSE,FALSE,2.8205263,101.5035792,,
福圣宫,Hock Seng Geng,瓜拉冷岳縣,"16, Jalan Cendana 36, Taman Muhibbah, 42700 Banting, Selangor.",雪兰莪,FALSE,FALSE,FALSE,TRUE,FALSE,FALSE,TRUE,FALSE,FALSE,2.81898,101.5079066,,
清兰宫,Qing Lan Gong,瓜拉冷岳縣,"5, Batu Laut, 42700 Banting, Selangor",雪兰莪,FALSE,FALSE,FALSE,TRUE,FALSE,FALSE,TRUE,FALSE,FALSE,2.750371,101.4423841,,
清龙宫,Cheng Leng Keng,瓜拉冷岳縣,"Jalan Pelangi 1, Taman Pelangi, 42800 Tanjung Sepat, Selangor",雪兰莪,FALSE,FALSE,FALSE,TRUE,FALSE,FALSE,TRUE,FALSE,FALSE,2.6584788,101.5547087,,
顺平宫,Tanjung Sepat Shun Tian Gong,瓜拉冷岳縣,"Jalan Pasar, Kawasan Tambahan Tanjung Sepat, 42800 Tanjung Sepat, Selangor",雪兰莪,FALSE,FALSE,FALSE,TRUE,FALSE,FALSE,TRUE,FALSE,FALSE,2.6604965,101.5608586,,
顺天宫,Tanjung Sepat Shun Ping Gong,瓜拉冷岳縣,"Kampung Batu Untung, 42800 Tanjong Sepat, Selangor",雪兰莪,FALSE,FALSE,FALSE,TRUE,FALSE,FALSE,TRUE,FALSE,FALSE,2.6950095,101.5081562,,
雪兰莪丹绒士拔石云宫,Tanjung Sepat Shi Yun Gong,瓜拉冷岳縣,"165-A, Tanjung Sepat, 42800 Kuala Langat, Selangor",雪兰莪,FALSE,FALSE,FALSE,TRUE,FALSE,FALSE,TRUE,FALSE,FALSE,2.7023274,101.5475409,,
玉封忠义宫,Choong Yee Temple,瓜拉冷岳縣,"292, Lorong 6, 42800 Tanjung Sepat, Selangor",雪兰莪,FALSE,FALSE,FALSE,TRUE,FALSE,FALSE,TRUE,FALSE,FALSE,2.6616317,101.5604357,,
丹绒加弄協天宫,Tanjung Karang Hiap Tien Gong,瓜拉雪蘭莪縣,"20, Jalan Malinja 4, Taman Malinja, 45500 Tanjung Karang, Selangor.",雪兰莪,FALSE,FALSE,FALSE,TRUE,FALSE,FALSE,FALSE,FALSE,FALSE,3.4217309,101.1836045,,
六支副天福宫,Thian Hock Temple,瓜拉雪蘭莪縣,"128, Jalan Besar, 45500 Tanjung Karang, Selangor",雪兰莪,FALSE,TRUE,FALSE,TRUE,FALSE,FALSE,TRUE,FALSE,FALSE,3.4245051,101.1770548,,
六支玉皇太子殿,Tai Zhi Temple,瓜拉雪蘭莪縣,"739, Batu 6, 45500 Tanjung Karang, Selangor.",雪兰莪,FALSE,FALSE,FALSE,TRUE,FALSE,FALSE,TRUE,FALSE,FALSE,3.424614,101.175544,,
平安宫,Ping Ann Keong,瓜拉雪蘭莪縣,"D 161, Jalan Bagan Tanjung Karang, 45500 Tanjung Karang, Selangor.",雪兰莪,FALSE,FALSE,FALSE,TRUE,FALSE,FALSE,TRUE,FALSE,FALSE,3.4021022,101.1714911,,
大港白鹤仙法师宫,Sungai Besar Bai He Xian Fa Shi Gong,沙白安南縣,"47A, Jalan Tujuh, Bagan Sungai Besar, 45300 Sungai Besar, Selangor",雪兰莪,FALSE,FALSE,FALSE,TRUE,FALSE,FALSE,FALSE,FALSE,FALSE,3.6732963,100.982393,,
大港福顺宫,Sungai Besar Hock Soon Keong,沙白安南縣,"Jalan Bunga Anggerik, Taman Melati, 45300 Sungai Besar, Selangor",雪兰莪,FALSE,FALSE,FALSE,TRUE,FALSE,FALSE,FALSE,FALSE,FALSE,3.6770922,100.9855265,,
大港善财童子庙,Sungai Besar Sian Chai Tong Zhi Temple,沙白安南縣,"32, Jalan 7, Bagan Sungai Besar, 45300 Sungai Besar, Selangor",雪兰莪,FALSE,FALSE,FALSE,TRUE,FALSE,FALSE,FALSE,FALSE,FALSE,3.6740808,100.9810299,,
大港天德堂,Sungai Besar Tien Teck Tong,沙白安南縣,"14, Jalan 5, Bagan Sungai Besar, 45300 Sungai Besar, Selangor",雪兰莪,FALSE,FALSE,FALSE,TRUE,FALSE,FALSE,FALSE,FALSE,FALSE,3.66939,100.9870366,,
大港仙法师公古庙,Sungai Besar Fak Sua Kong Ku Mio,沙白安南縣,"Jalan 5, Bagan Sungai Besar, 45300 Sungai Besar, Selangor",雪兰莪,FALSE,FALSE,FALSE,TRUE,FALSE,FALSE,FALSE,FALSE,FALSE,3.6718797,100.9816354,,
大港永安宫,Sungai Besar Eng Onn Kong,沙白安南縣,"Jalan Datuk Taiban, 45300 Sungai Besar, Selangor",雪兰莪,FALSE,FALSE,FALSE,TRUE,FALSE,FALSE,FALSE,FALSE,FALSE,3.6740128,100.9893687,,
利安庙,Lee Onn Temple,乌鲁冷岳,"79, Jalan Bukit Angkat, Bukit Angkat, 43000 Kajang, Selangor",雪兰莪,FALSE,FALSE,FALSE,TRUE,FALSE,FALSE,TRUE,FALSE,FALSE,2.9967698,101.7708502,,
无拉港玉皇庙,Balakong Yu Huang Temple,乌鲁冷岳,"34, Kampung Bahru Balakong, 43300 Seri Kembangan, Selangor.",雪兰莪,FALSE,FALSE,FALSE,TRUE,FALSE,FALSE,TRUE,FALSE,FALSE,3.0276288,101.7503253,,
丰天宫,Hong Tian Temple,烏魯冷岳縣,"Lot No. 2, Sungai Chua New Village, 43000 Kajang, Selangor",雪兰莪,FALSE,FALSE,FALSE,TRUE,FALSE,FALSE,TRUE,FALSE,FALSE,2.99104,101.7805298,,
凤山寺,Feng Shan Si,烏魯冷岳縣,"Batu 16, Jalan Reko, 43000 Kajang, Selangor.",雪兰莪,FALSE,FALSE,FALSE,TRUE,FALSE,FALSE,TRUE,FALSE,FALSE,2.976577,101.7895478,,
观音亭,Kuan Yin Temple,烏魯冷岳縣,"65, Jalan Bukit, 43000 Kajang, Selangor.",雪兰莪,FALSE,FALSE,FALSE,TRUE,FALSE,FALSE,TRUE,FALSE,FALSE,2.9787136,101.7916545,,
魁镇庙,Kajang Kui Zhen Temple,烏魯冷岳縣,"Lot 5791-A, Taman Sri Reko, Jalan Reko, 43000 Kajang, Selangor",雪兰莪,FALSE,FALSE,FALSE,TRUE,FALSE,FALSE,TRUE,FALSE,FALSE,2.9786551,101.787192,,
三清宫,Sam Ching Kong,烏魯冷岳縣,"Batu 14, Jalan Tekali, Sungai Makau, 43100 Ulu Langat, Selangor",雪兰莪,FALSE,FALSE,FALSE,TRUE,FALSE,FALSE,TRUE,FALSE,FALSE,3.1123042,101.8161819,,
师爷宫,Shen Sze She Yak Temple,烏魯冷岳縣,"Lot 22, 23, Jalan Mendaling, 43000 Kajang, Selangor.",雪兰莪,FALSE,FALSE,FALSE,TRUE,FALSE,FALSE,TRUE,FALSE,FALSE,2.9922621,101.7866832,,
仙四师爷庙,Ulu Langat Sze Yah Temple,烏魯冷岳縣,"Lot 4785, Sungai Tekali, 43100 Ulu Langat, Selangor",雪兰莪,FALSE,FALSE,FALSE,TRUE,FALSE,FALSE,TRUE,FALSE,FALSE,3.111309,101.8339043,,
地藏庵,Dizang an,北海,"Kampung Bagan Jermal, 12300 Butterworth, Penang",槟城,FALSE,TRUE,FALSE,FALSE,FALSE,FALSE,FALSE,FALSE,FALSE,5.428528,100.379007,,
广德宫,Guang De Gong Temple,北海,"25, Bandar Perai Permatang Pauh,13500 Pulau Pinang, Pulau Pinang",槟城,FALSE,TRUE,FALSE,FALSE,FALSE,FALSE,FALSE,FALSE,FALSE,5.4111956,100.4199901,,
靈應社,Lingying she,北海,"2227, 14, Jalan Raja Uda, Telok Air Tawar, 12300 Butterworth, Pulau Pinang",槟城,FALSE,TRUE,FALSE,FALSE,FALSE,FALSE,FALSE,FALSE,FALSE,5.4415355,100.3876252,,
天福宫,Tianfu gong,北海,"Jalan Pantai Bersih, 13000 Butterworth, Pulau Pinang",槟城,FALSE,TRUE,FALSE,FALSE,FALSE,FALSE,FALSE,FALSE,FALSE,5.4431467,100.378963,,
鳳山寺,Fengshan si,槟城龙凤宫,"165-B, Jelutong Barat, Pulau Pinang.",槟城,FALSE,TRUE,FALSE,FALSE,FALSE,FALSE,FALSE,FALSE,FALSE,5.3892431,100.3113272,,
慈濟宫,Choo Chay Keong,槟岛,"No 7, Armenian Street, Penang.",槟城,FALSE,TRUE,FALSE,FALSE,FALSE,FALSE,FALSE,FALSE,FALSE,5.4147348,100.3380186,,
海珠嶼大伯公廟,Tanjong Tokong Thai Pak Koong Temple,槟岛,"336, Jalan Tokong Thai Pak Koong, Tanjung Tokong, 11200 Tanjung Bungah, Pulau Pinang",槟城,FALSE,TRUE,FALSE,FALSE,FALSE,FALSE,FALSE,FALSE,FALSE,5.4633718,100.3078049,,
胡靖古廟,Hujing gumiao,槟岛,"41, Lebuh Muntri, George Town, 10450 George Town, Pulau Pinang",槟城,FALSE,TRUE,FALSE,FALSE,FALSE,FALSE,FALSE,FALSE,FALSE,5.4198469,100.3358672,,
清觀寺,Cheng Kon Sze Temple,槟岛,"Jln TM Bukit Penara, Pulau Pinang",槟城,FALSE,TRUE,FALSE,FALSE,FALSE,FALSE,FALSE,FALSE,FALSE,5.3856725,100.260039,,
邱氏宗祠龍山堂,Qiushi zongci longshantang,槟岛,"18, Cannon Square, George Town, 10450 George Town, Pulau Pinang",槟城,FALSE,TRUE,FALSE,FALSE,FALSE,FALSE,FALSE,FALSE,FALSE,5.4145738,100.3372688,,
伍氏家廟,Wushi jiamiao,槟岛,"40, Lebuh King, George Town, 10200 George Town, Pulau Pinang",槟城,FALSE,TRUE,FALSE,FALSE,FALSE,FALSE,FALSE,FALSE,FALSE,5.4182712,100.3398871,,
青雲巖（槟城蛇庙）,Snake Temple,槟岛峇六拜,"Jalan Sultan Azlan Shah, Bayan Lepas Industrial Park, 11900 Bayan Lepas, Pulau Pinang",槟城,FALSE,TRUE,FALSE,FALSE,FALSE,FALSE,FALSE,FALSE,FALSE,5.3090661,100.282753,,
觀音寺,Guanyin si (lianhua ge),槟岛蓮花閣,"296 B, West Jelutong, Penang.",槟城,FALSE,TRUE,FALSE,FALSE,FALSE,FALSE,FALSE,FALSE,FALSE,5.400253,100.3217479,,
寶譽堂,Baoyu tang,槟岛乔治市,"251, Jalan Burma, George Town, 10350 George Town, Pulau Pinang",槟城,FALSE,TRUE,FALSE,FALSE,FALSE,FALSE,FALSE,FALSE,FALSE,5.4276086,100.3154033,,
城隍廟,Seng Hong Beow Temple,槟岛乔治市,"77-2-13, Jalan S.P.Chelliah, 10150 George Town, Pulau Pinang",槟城,FALSE,TRUE,FALSE,FALSE,FALSE,FALSE,FALSE,FALSE,FALSE,5.4086834,100.3247267,,
大伯公福德祠,Thai Pak Koong Temple,槟岛乔治市,"32A, Lebuh King, Penang.",槟城,FALSE,TRUE,FALSE,FALSE,FALSE,FALSE,FALSE,FALSE,FALSE,5.4185538,100.3400694,,
大圓佛堂,Ta Yuen Foh Thang Temple,槟岛乔治市,"212B, Jalan Macalister, 10300 Pulau Pinang, 10450 George Town, Pulau Pinang",槟城,FALSE,TRUE,FALSE,FALSE,FALSE,FALSE,FALSE,FALSE,FALSE,5.4172219,100.3224644,,
福壽宫,,槟岛乔治市,"228A, Jalan Burma, Pulau Tikus, 10350 George Town, Pulau Pinang",槟城,FALSE,TRUE,FALSE,FALSE,FALSE,FALSE,FALSE,FALSE,FALSE,5.4297539,100.3134771,,
广福宫(廣福宮/觀音亭),Kuan Im Teng,槟岛乔治市,"30, Jalan Masjid Kapitan Keling, George Town, 10200 George Town, Pulau Pinang",槟城,FALSE,TRUE,FALSE,FALSE,FALSE,FALSE,FALSE,FALSE,FALSE,5.4191024,100.3392938,,
開山王廟,Kai San Ong Temple,槟岛乔治市,"265, Jalan Madrasah, Jelutong Timur, Pulau Pinang, Jalan Sultan Azlan Shah, 11600 George Town, Pulau Pinang",槟城,FALSE,TRUE,FALSE,FALSE,FALSE,FALSE,FALSE,FALSE,FALSE,5.3890469,100.3141869,,
劉關張趙廟,Koo Siang Wooi Koon Penang,槟岛乔治市,"67, Lebuh King, George Town, 10200 George Town, Pulau Pinang",槟城,FALSE,TRUE,FALSE,FALSE,FALSE,FALSE,FALSE,FALSE,FALSE,5.4168907,100.3392762,,
六桂堂,Liuguitang,槟岛乔治市,"45, Jalan Westlands, George Town, 10400 George Town, Pulau Pinang",槟城,FALSE,TRUE,FALSE,FALSE,FALSE,FALSE,FALSE,FALSE,FALSE,5.4210147,100.3212686,,
魯班古廟,Penang Loo Pun Hong,槟岛乔治市,"70, Love Lane Georgetown, Penang.",槟城,FALSE,TRUE,FALSE,FALSE,FALSE,FALSE,FALSE,FALSE,FALSE,5.4191595,100.3366512,,
清龍宫,Qin Long Gong Temple,槟岛乔治市,"Next 670-A, Jelutong Road, Penang.",槟城,FALSE,TRUE,FALSE,FALSE,FALSE,FALSE,FALSE,FALSE,FALSE,5.3872352,100.3125971,,
水美宫,Shuimei gong,槟岛乔治市,"74, Jalan Bagan Jermal, 10470 Pulau Pinang, 10470 George Town, Pulau Pinang",槟城,FALSE,TRUE,FALSE,FALSE,FALSE,FALSE,FALSE,FALSE,FALSE,5.4395941,100.3068003,,
極樂寺,Kek Lok Si Temple,槟岛亚依淡,"Kek Lok Si Temple, 11500 Air Itam, Penang",槟城,FALSE,TRUE,FALSE,FALSE,FALSE,FALSE,FALSE,FALSE,FALSE,5.3996413,100.2736126,,
天公壇,Tien Kong Than Temple,槟岛亚依淡,"Thean Kong Thnuan Chinese Temple, Hill Raiway, Jalan Pokok Cherry, Penang.",槟城,FALSE,TRUE,FALSE,FALSE,FALSE,FALSE,FALSE,FALSE,FALSE,5.4095217,100.2774588,,
伯公廟,Bogong miao,大山脚伯公埕,"Jalan Pasar, 14000 Bukit Mertajam, Pulau Pinang",槟城,FALSE,TRUE,FALSE,FALSE,FALSE,FALSE,FALSE,FALSE,FALSE,5.3640408,100.460672,,
福德祠,Fude ci,高淵,"Jalan Atas, Nibong Tebal, Seberang Perai Selatan, Penang.",槟城,FALSE,TRUE,FALSE,FALSE,FALSE,FALSE,FALSE,FALSE,FALSE,5.1671864,100.4772959,,
雷方邝宗祠溯源堂,,槟城,"1, Jalan Masjid, 10200 Pulau Pinang.",槟城,FALSE,FALSE,FALSE,FALSE,FALSE,FALSE,FALSE,FALSE,TRUE,5.4192378,100.3353968,,
梁氏家庙,,槟城,"65, Jalan Perak, 10150 Penang.",槟城,FALSE,FALSE,FALSE,FALSE,FALSE,FALSE,FALSE,FALSE,TRUE,5.416588,100.3167173,,
聖古庙,Bagan Serai Shenggu Miao,巴眼色海,"Jalan Besar, Kampung Alor Senggut, 34300 Bagan Serai, Perak",霹雳,FALSE,TRUE,FALSE,FALSE,FALSE,FALSE,FALSE,FALSE,FALSE,5.010751,100.535301,,
昭惠廟,Chiau Hooi Chinese Temple,瓜拉江沙,"37A, Jalan Taiping, 33000 Kuala Kangsar, Perak",霹雳,FALSE,TRUE,FALSE,FALSE,FALSE,FALSE,FALSE,FALSE,FALSE,4.7721088,100.9232555,,
金寶古廟,Kampar Temple,金寶,"Kampung Masjid, 31900 Kampar, Perak",霹雳,FALSE,TRUE,FALSE,FALSE,FALSE,FALSE,FALSE,FALSE,FALSE,4.315956,101.1526999,,
鳳山寺,Fengshan si,太平,"Kampung Bengali, 34000 Taiping, Perak",霹雳,FALSE,TRUE,FALSE,FALSE,FALSE,FALSE,FALSE,FALSE,FALSE,4.838397,100.7266748,,
檺林宮,Gaolin gong,太平,"53, Jalan Raja Sulung Hulu, Taiping, Perak.",霹雳,FALSE,TRUE,FALSE,FALSE,FALSE,FALSE,FALSE,FALSE,FALSE,4.8419029,100.7299995,,
 绥靖伯庙,Taiping Matang Sui Jing Bo Miao,太平马登,"Jalan Titi Kertang, Kampung Pekan Matang, 34750 Matang, Perak",霹雳,FALSE,TRUE,FALSE,FALSE,FALSE,FALSE,FALSE,FALSE,FALSE,4.815366,100.6742493,,
垻羅（大伯公）古廟,Paloh Koo Miu,怡保,"89-91, Jalan Bijeh Timah, 30000 Ipoh, Perak",霹雳,FALSE,TRUE,FALSE,FALSE,FALSE,FALSE,FALSE,FALSE,FALSE,4.5931879,101.0780668,,
水月宫（观音庙）,Shui Yue Gong Temple,怡保,"3, Jalan Sultan Idris Shah, Kampong Jawa, 30000 Ipoh, Perak",霹雳,FALSE,TRUE,FALSE,FALSE,FALSE,FALSE,FALSE,FALSE,FALSE,4.5983711,101.0779664,,
大覺華寺,Da juehua si,吉隆坡,"Jalan Senjolong, Taman Pertama, 55300 Kuala Lumpur, Wilayah Persekutuan Kuala Lumpur",吉隆坡,FALSE,TRUE,FALSE,FALSE,FALSE,FALSE,FALSE,FALSE,FALSE,3.1158445,101.7324585,,
登彼岸,Dharma Realm Guan Yin Sagely Monastery,吉隆坡,"Jalan Ampang, Kuala Lumpur, 50450 Kuala Lumpur, Wilayah Persekutuan Kuala Lumpur",吉隆坡,FALSE,TRUE,FALSE,FALSE,FALSE,FALSE,FALSE,FALSE,FALSE,3.1590323,101.7142178,,
七寶禪寺 [慈雲山],Qibao chansi,吉隆坡,"Wilayah Persekutuan Kuala Lumpur, Kuala Lumpur, Jalan Sungai Besi, Batu",吉隆坡,FALSE,TRUE,FALSE,FALSE,FALSE,FALSE,FALSE,FALSE,FALSE,3.122631,101.7085736,,
千佛寺,Qianfo si,吉隆坡,"Chin Foot Sze Temple, Jalan Kerayong, Wilayah Persekutuan50460 Kuala Lumpur, Federal Territory of Kuala Lumpur",吉隆坡,FALSE,TRUE,FALSE,FALSE,FALSE,FALSE,FALSE,FALSE,FALSE,3.1172848,101.696663,,
譚公仙聖廟,Tangong xiansheng miao,吉隆坡,"Lot 9416, Jalan Jambu Berasa 2, Jinjang Selatan, Kuala Lumpur.",吉隆坡,FALSE,TRUE,FALSE,FALSE,FALSE,FALSE,FALSE,FALSE,FALSE,3.205697,101.6617298,,
天后宮,Thean Hou Temple,吉隆坡,"65, Persiaran Endah, Taman Persiaran Desa, 50460 Kuala Lumpur, Wilayah Persekutuan Kuala Lumpur",吉隆坡,FALSE,TRUE,FALSE,FALSE,FALSE,FALSE,FALSE,FALSE,FALSE,3.1219425,101.6876447,,
仙四師爺宮,Xian sishiye gong,吉隆坡,"113A, Jalan Tun H S Lee, City Centre, 50050 Kuala Lumpur, Wilayah Persekutuan Kuala Lumpur",吉隆坡,FALSE,TRUE,FALSE,FALSE,FALSE,FALSE,FALSE,FALSE,FALSE,3.1456939,101.696422,,
中马六桂堂,Central Malaysia Liu Kwee Tang Clansmen,吉隆坡,"124- C, Jalan Imbi 55100 Kuala Lumpur.",吉隆坡,FALSE,FALSE,FALSE,FALSE,FALSE,FALSE,FALSE,FALSE,TRUE,3.1455867,101.7147201,,
勇全殿,Ong Kah Yong Temple,马六甲怡力,"195, Jalan Parameswara, Bandar Hilir, Melaka.",马六甲,FALSE,TRUE,FALSE,FALSE,FALSE,FALSE,FALSE,FALSE,FALSE,2.1897823,102.2581561,,
保安宫,Poh Onn Kong Temple,马六甲,"152, Jalan Bunga Raya, Melaka.",马六甲,FALSE,TRUE,FALSE,FALSE,FALSE,FALSE,FALSE,FALSE,FALSE,2.2002062,102.2514281,,
寶山亭,Sam Po Keng Temple,马六甲,"Jalan Puteri Hang Li Poh, Bukit Cina, 75100 Melaka",马六甲,FALSE,TRUE,FALSE,FALSE,FALSE,FALSE,FALSE,FALSE,FALSE,2.198584,102.257366,,
大伯公祠,Dabogong ci,马六甲,"41, Jalan Tukang Besi, 75200 Melaka",马六甲,FALSE,TRUE,FALSE,FALSE,FALSE,FALSE,FALSE,FALSE,FALSE,2.196075,102.2481533,,
觀音堂,Kwan Yin Tang Temple,马六甲,"133, Jalan Hang Jebat, 75200 Melaka",马六甲,FALSE,TRUE,FALSE,FALSE,FALSE,FALSE,FALSE,FALSE,FALSE,2.1978152,102.2452498,,
廣福宫,Guangfu gong,马六甲,"1, Lorong Masjid, Melaka.",马六甲,FALSE,TRUE,FALSE,FALSE,FALSE,FALSE,FALSE,FALSE,FALSE,2.1997382,102.2470845,,
湖海殿,Huhai dian,马六甲,"13, Jalan Kampung Pantai, 75200 Melaka",马六甲,FALSE,TRUE,FALSE,FALSE,FALSE,FALSE,FALSE,FALSE,FALSE,2.1966581,102.2495513,,
華德宫,Huade gong,马六甲,"4, Kampung Tiga Off, Jalan Portugis, Melaka.",马六甲,FALSE,TRUE,FALSE,FALSE,FALSE,FALSE,FALSE,FALSE,FALSE,2.2001272,102.2468174,,
青雲亭,Cheng Hoon Teng Temple,马六甲,"25, Jalan Tokong, Kampung Dua, 75200 Melaka",马六甲,FALSE,TRUE,FALSE,FALSE,FALSE,FALSE,FALSE,FALSE,FALSE,2.1975328,102.2468345,,
三寶山,Bukit Cina,马六甲,"Jalan Puteri Hang Li Poh, Bukit Cina, 75100 Melaka",马六甲,FALSE,TRUE,FALSE,FALSE,FALSE,FALSE,FALSE,FALSE,FALSE,2.198584,102.257366,,
三多廟,Melaka San Duo Temple,马六甲,"41, Jalan Tukang Besi, 75200 Melaka",马六甲,FALSE,TRUE,FALSE,FALSE,FALSE,FALSE,FALSE,FALSE,FALSE,2.196075,102.2481533,,
天德宫,Tiande gong,马六甲,"118, Jalan Hang Jebat, 75200 Melaka",马六甲,FALSE,TRUE,FALSE,FALSE,FALSE,FALSE,FALSE,FALSE,FALSE,2.1973615,102.2461866,,
玉虚宫,Geok Hu Keng,马六甲,"2½, 75200, Malacca",马六甲,FALSE,TRUE,FALSE,FALSE,FALSE,FALSE,FALSE,FALSE,FALSE,2.2083834,102.216671,,
千古廟 [仙四师爷],Qiangu miao,芙蓉,"Batu ½, Jalan Rasah, 70300 Seremban, Negeri Sembilan.",森美兰,FALSE,TRUE,FALSE,FALSE,FALSE,FALSE,FALSE,FALSE,FALSE,2.710451,101.9418983,,
譚公仙聖廟,Tangong xiansheng miao,芙蓉,"41, Jalan Kapitan Tam Yeong, Taman Sim, 70000 Seremban, Negeri Sembilan",森美兰,FALSE,TRUE,FALSE,FALSE,FALSE,FALSE,FALSE,FALSE,FALSE,2.7283718,101.9408916,,
天师爺宮,Tian shiye miao,芙蓉,"Bukit Jung, Jalan Temiang, Seremban, Negeri Sembilan.",森美兰,FALSE,TRUE,FALSE,FALSE,FALSE,FALSE,FALSE,FALSE,FALSE,2.744415,101.9402078,,
紫竹（竺）亭,Zizhu ting,芙蓉,"2562, Jln Tun Dr. Ismail, Seremban, 70200 Seremban, Negeri Sembilan",森美兰,FALSE,TRUE,FALSE,FALSE,FALSE,FALSE,FALSE,FALSE,FALSE,2.7391755,101.9275446,,
三聖宫,San Sheng Gong Chinese Temple,瓜拉比朥,"Taman Pilah Jaya, 72000 Kuala Pilah, Negeri Sembilan",森美兰,FALSE,TRUE,FALSE,FALSE,FALSE,FALSE,FALSE,FALSE,FALSE,2.741235,102.238546,,
福顺廟,Fushun miao,豐順港,"Jalan Jemaluang, Mersing Kechil, 86800 Mersing, Johor",柔佛,FALSE,TRUE,FALSE,FALSE,FALSE,FALSE,FALSE,FALSE,FALSE,2.4228473,103.8363454,,
天后宫,Tianhou gong,哥打丁宜,"Jalan Bypass Kota Tinggi, Kota Tinggi, Johor.",柔佛,FALSE,TRUE,FALSE,FALSE,FALSE,FALSE,FALSE,TRUE,FALSE,1.7255786,103.9120878,,
慈光亭,Ciguang ting,昔加末,"1, Jalan Genuang, Kampung Abdullah, 85000 Segamat, Johor",柔佛,FALSE,TRUE,FALSE,FALSE,FALSE,FALSE,FALSE,FALSE,FALSE,2.4977934,102.8303844,,
靈福宫,Lingfu gong,新文龍,"Jalan Kampung Sungai Ayam Laut, 83200 Senggarang, Johor",柔佛,FALSE,TRUE,FALSE,FALSE,FALSE,FALSE,FALSE,FALSE,FALSE,1.7578199,102.931626,,
天后宫,Tianhou gong,淡馬魯,"No 67,Kampung Baru,28000 Temerloh,Pahang.",彭亨,FALSE,TRUE,FALSE,FALSE,FALSE,FALSE,FALSE,FALSE,FALSE,3.4638145,102.4312207,,
觀音堂,Guanyin Tang,都赖路,"8, Taman Raub Jaya 6/1, Taman Raub Jaya 6, 27600 Raub, Pahang",彭亨,FALSE,TRUE,FALSE,FALSE,FALSE,FALSE,FALSE,FALSE,FALSE,3.7682244,101.8511899,,
廣福廟,Guangfu miao,關丹,"Jalan Bukit Setongkol, Kampung Jalan Corry, 25200 Kuantan, Pahang",彭亨,FALSE,TRUE,FALSE,FALSE,FALSE,FALSE,FALSE,FALSE,FALSE,3.8091256,103.314929,,
天后宫,Thean Hou Temple (1898),立卑,"65，Persiaran Endah, Taman Persiaran Desa,50460 Kuala Lumpur,Wilayah Persekutuan Kuala Lumpur",彭亨,FALSE,TRUE,FALSE,FALSE,FALSE,FALSE,FALSE,FALSE,FALSE,3.1219425,101.6876447,,
古城堂,,彭亨,"P3, Tingkat 2 Taman Dahlia Ketari,28700 Bentong, Pahang.",彭亨,FALSE,FALSE,FALSE,FALSE,FALSE,FALSE,FALSE,FALSE,TRUE,3.5135886,101.9137885,,
廣福廟,Guangfu miao,文冬,"6, Jalan Loke Yew, 28700 Bentong, Pahang",彭亨,FALSE,TRUE,FALSE,FALSE,FALSE,FALSE,FALSE,FALSE,FALSE,3.5235143,101.9087351,,
慶興廟,Qingxing miao,巴東色海,"30, 176, Kampung Pering, 06100 Kodiang, Kedah",吉打,FALSE,TRUE,FALSE,FALSE,FALSE,FALSE,FALSE,FALSE,FALSE,6.3644421,100.3315901,,
廣福宫,Guangfu gong,吉打居林,"292, Jalan Market, Kulim, Kedah.",吉打,FALSE,TRUE,FALSE,FALSE,FALSE,FALSE,FALSE,FALSE,FALSE,5.3697088,100.5555918,,
廣福宫,Guangfu gong,亞羅士打,"Pekan Simpang Kuala, Alor Star, Kedah.",吉打,FALSE,TRUE,FALSE,FALSE,FALSE,FALSE,FALSE,FALSE,FALSE,6.0993552,100.3659308,,
聖春宮 [赤脚妈祖庙],Shengchun gong,哥打峇汝,"Kampung Tokong, 16450 Ketereh, Kelantan",吉兰丹,FALSE,TRUE,FALSE,FALSE,FALSE,FALSE,FALSE,FALSE,FALSE,5.942733,102.2112011,,
鎭興宮 [吉蘭丹唐人坡],Zhenxing gong,哥打峇汝,"Jalan Kampung Cina, Bandar Kota Bharu, 15300 Kota Bharu, Kelantan",吉兰丹,FALSE,TRUE,FALSE,FALSE,FALSE,FALSE,FALSE,FALSE,FALSE,6.1407601,102.2363215,,
