Name,Notes,Address,State,UID,Latitude,Longitude,img,no_img
永平天保宮 (68尺濟公),,"Taman Sembrong Barat, 83700 Yong Peng, Johor",Johor,A001,2.010124,103.066232,,
永平天靈宮,,"31, Jalan Ang Moh Sam, Taman Sembrong Baru, 83700 Yong Peng, Johor",Johor,A002,2.0180711,103.065743,Yes,2
永平天後宮-又稱媽祖廟,,"Taman Selatan, 83700 Yong Peng, Johor.",Johor,A003,2.01939,103.062632,,
正福德宮,,"Jalan Aman, Taman Sembrong Baru, 83700 Yong Peng, Johor",Johor,A004,2.014129,103.0671151,,
佛教圓滿蕯迦中心,,"Jalan Madu 1, Taman Sembrong Baru, 83700 Yong Peng, Johor, Johor",Johor,A005,2.0141289,103.0659716,,
永平德教會紫安閣,,"83700 Yong Peng, Johor",Johor,A006,1.9654819,103.0472164,Yes,2
Buddhist Tzu Chi Foundation Malaysia (Johor Bahru) 慈濟,,"3, Jalan Jaguh 1, Taman Harmoni 2, 81300 Skudai, Johor",Johor,A007,1.5266668,103.6493526,,
武天宫,,"4, Jalan Ceria 19, Taman Nusa Indah, 81200 Johor Bahru, Johor",Johor,A008,1.4771876,103.6330085,,
弥陀之家东林寺,,"No 18, Jalan Pertama 4, Pusat Perdagangan Danga Utama, Johor",Johor,A009,1.5190766,103.678989,,
圆观堂,,"54, Jalan Ronggeng 19, Taman Nesa, 81300 Skudai, Johor",Johor,A010,1.5271407,103.6576497,,
金刚寺,,"No. 2, Jalan Temenggong 9, Taman Ungku Tun Aminah, 81300 Skudai, Johor",Johor,A011,1.5104369,103.653161,,
柔佛州永平趙子龍廟,,"5687，Jalan Ujung, 83700 Yong Peng. Johor.",Johor,A012,1.9654819,103.0472164,,
永平佛教會,,"Taman Sri Aman, 83700 Yong Peng, Johor",Johor,A013,2.0214978,103.0684453,,
善意堂 SHUNG HEE TO TEMPLE,,"Lot 4063, Jln Dato‘ Bentara Dalam, Kampung Kuala Sabar, 85400 Chaah, Johor",Johor,A014,2.245683,103.0410442,,
法南宮,,"Taman Damai Jaya 1, 85400 Chaah, Johor",Johor,A015,2.2401134,103.0421752,,
三合港老港腳洪仙宮 Chaah Lao Gang Jiao Hong Xian Gong,,"85400 Chaah, Johor",Johor,A016,2.249619,103.0400849,,
慈善堂,,"Near 56, Jalan meng Seng, Taman Selatan, 83700, Yong Peng, Johor",Johor,A017,2.0152065,103.0645303,,
璧山宮 / 水尾聖娘,,"Kebun Bahru, Johor",Johor,A018,2.391389,102.683075,,
華人廟宇,,"Jalan Satu, Kebun Baharu, 85200 Jementah, Johor",Johor,A019,2.3917695,102.6837358,,
雲峰宮 Yun Feng Gong,,"Lorong Padang, Kampung Bahru, 85200 Jementah, Johor",Johor,A020,2.4403059,102.6850439,,
利民達八城殿,,"Lor 15, Kampung Bahru, 85200 Jementah, Johor",Johor,A021,2.4365697,102.6871893,,
南海廟,,"Taman Jementah Jaya, 85200 Jementah, Johor",Johor,A022,2.4456546,102.6883785,,
青龍亭,,"69, Lorong 4, Taman Jementah Jaya, 85200 Jementah, Johor",Johor,A023,2.44216,102.6870258,,
昔加末余文牙華光宮,求財很靈驗，廟建在橡膠園裡面,"3, Jalan Muar, Kampong TanjongSengkawang, 85000 Segamat, Johor",Johor,A024,2.5016018,102.8116489,,
青雲岩,,"5, Jalan Panglima, Taman Bendahara, 85000 Segamat, Johor",Johor,A025,2.5015471,102.8121302,,
"1.	(聖王廟)Sheng Wang Temple",,"11-B, Jalan Muar, Kampung Chabong, 85000Segamat, Johor",Johor,A026,2.5017895,102.8118358,,
昔加末大悲水九皇大帝,,"Jalan Quarry, Kampung Gubah, 85000 Segamat, Johor",Johor,A027,2.5162648,102.8089791,,
慈雲寺 （ 十八娘娘觀音廟）,,"Taman Orchid, 85000 Segamat District, Johor",Johor,A028,2.520581,102.8115349,,
神威鎮廟,,jementah,Johor,A029,2.440059,102.6851551,,
排海廟,65年的歷史,"253, Jalan Abdul Hamid, Bukit Siput, 85000 Segamat, Johor",Johor,A030,2.4861598,102.8464631,,
青雲岩廟,,"11/A , Jalan Muat , Kampong Abdullah, 85000 Segamat, Johor",Johor,A031,2.5017895,102.8118358,,
(聖王廟) Sheng Wang Temple,,"11-B, Jalan Muar, Kampung Chabong, 8500 Segamat, Johor",Johor,A032,2.5017895,102.8118358,,
揚福宮,,"Kampung Paya Merah, 85300 Labis, Johor",Johor,A033,2.3954233,103.0205724,,
柔佛州拉美士德教會紫泰閣,,"Lot 814, Off, Jalan Kenari 4, Taman Wawasan Sanilabis, Johor",Johor,A034,-6.1929378,106.8466001,,
善德壇行善社,,"536, Jalan Banjaran 5,Kawasan Kempas Banjaran, 81200 Johor",Johor,A035,1.5295883,103.7041938,,
得教會濟賢善社,,"No : 318, Jalan Banjaran 7,Kawasan Kempas Banjaran,81200 Johor Bahru, Johor",Johor,A036,1.5249819,103.7023326,,
城隍殿 Sin Ong Tien,,"Lot 4881, Jalan Banjaran 2, Kempas Baru, 81200, Johor Bahru, Johor.",Johor,A037,1.5334679,103.7044099,,
濟公廟/大爺二爺府,,"Jalan Banjaran 10, Kempas Baru, 81200,Johor",Johor,A038,1.529524,103.6996469,,
廣福廟Kempas Banjaran,,"Jalan Banjaran 3, Kawasan Kempas Banjaran, 81200 Johor Bahru, Johor",Johor,A039,1.5272363,103.7029445,,
濟公廟,,"Lot 135960,Jalan Hang Tuah 31, Taman Skudai Baru, 81300, Johor",Johor,A040,1.5228579,103.6577021,,
三神廟，天後聖母,有 52 年曆史,"Kampung Baru Pandan, 81100 Johor Bahru, Johor",Johor,A041,1.5271829,103.7672964,,
Sam Siang Keng 三善宮,,"55, Jalan Yahya Awal, Bandar Johor Bahru, 80100 Johor Bahru, Johor",Johor,A042,1.4789398,103.7467373,,
柔佛古廟,,"Lot 653, Jalan Trus, Bandar Johor Bahru, 80000 Johor Bahru, Johor",Johor,A043,1.4605951,103.7631134,,
淡杯天後宮,,"7, Jalan Mempelam, Kawasan Perumahan Tampoi, 81200, Johor Bahru, Johor",Johor,A044,1.5026637,103.7007216,,
新山聖蓮宮,,"Taman Sri Tebrau, Jalan Cokmar 5, Johor",Johor,A045,1.4853148,103.7728418,,
天后宮,,"Jalan Keris, Sri Tebrau, Johor",Johor,A046,1.4873817,103.7711979,Yes,1
善和堂,,"No 9, Jalan Tekun, Taman Maju Jaya, 80400 Johor Bahru, Johor",Johor,A047,1.4817005,103.7658556,,
壹仟間大伯公廟,,"Jalan Persiaran Tanjung, Taman Cempaka, 81200 Johor Bahru, Johor",Johor,A048,1.515135,103.703567,,
南海宮 – 40年歷史,,"Bukit Indah, 81200 Johor Bahru, Johor",Johor,A049,1.4783324,103.6545421,,
天馬道場,天道在柔佛州最大的道場(道場後面是龍華山),"Lot 4272, Jalan Perdana Selatan, Taman Bukit Perdana 2, 83000 Batu Pahat, Johor",Johor,A050,1.8372251,102.9604952,Yes,2
普陀淨寺,根據這裡的一位女廟祝透露，此寺已有百年歷史了,"13, Jalan Murai, Kampung Pegawai, 83000 Batu Pahat, Johor",Johor,A051,1.8472539,102.9369077,Yes,44
龍安廟,此廟有44年歷史,"23, Jalan Muar，Kampung Lubok, 83000 Batu Pahat, Johor",Johor,A052,1.8796549,102.7879384,Yes,1
林氏宗祠天後宮,,"3, Jalan Fatimah, Kampung Sateh, 83000 Batu Pahat, Johor",Johor,A053,1.8487491,102.9278166,Yes,13
媽祖廟/忠義廟/ 福興宮/城隍廟,,"Parit Besar Laut, Kampung Bagan, 83000, Johor",Johor,A054,1.8466761,102.8526998,Yes,2
建南寺 (太子爺公廟),此廟有 67 年歷史,"No. 402-A,, Jalan Bukit Pasir, 83000 Batu Pahat, Johor",Johor,A055,1.8847825,102.9472596,Yes,12
覺慧禪院,,"Kampung Pegawai, 83000 Batu Pahat, Johor",Johor,A056,1.85387,102.9256661,,
修緣廟 Penganut Buddha Xiu Yuan,,"Kampung Beroleh, 83000 Batu Pahat, Johor",Johor,A057,1.869672,102.969365,Yes,41
興義殿(五付大人)- 白馬顯神威,,"Jalan Muar, Semerah, 83600 Semerah, Johor",Johor,A058,1.9022184,102.7513366,,
青雲寺南海觀音廟,,"Batu 4, Jalan Kluang, Parit Iman, Batu Pahat, Johor",Johor,A059,1.8698423,102.9839418,,
南山駕雲殿,,"Batu 5, Jalan Kluang, Johor, 83000 Batu Pahat, Johor",Johor,A060,1.8675685,102.9746399,,
觀音亭,,"Jalan Fatimah, Kampung Pegawai, 83000 Batu Pahat, Johor.",Johor,A061,1.8484708,102.9274721,,
慈航堂,此廟有 20 多年歷史,"Kampung Seri Menanti, Semerah, Batu  Pahat, 84150, Johor",Johor,A062,1.910646,102.689554,,
麻坡紅橋復興宮,,"Semerah, 84150, Johor",Johor,A063,1.908101,102.736526,,
玄天廟,此廟有60多年歷史,"Jalan Dato Yunus Utama, Lima Kedai, 81120 Johor Bahru, Johor",Johor,A064,1.500166,103.614282,,
邊佳蘭 / 泰山宮,,"J52, Kampung Penggerang, 81600 Pengerang, Johor",Johor,A065,1.393035,104.146881,,
觀音寺,,"Kampung Sungai Buntu, Johor",Johor,A066,1.344146,104.1979421,,
釜山宮,,,Johor,A067,0,0,,
鳳山宮,,"Ma-Zu Temple , 345 , jalan Kurau 1, Kampung Sungai Rengit, 81600 Bandar Penawar, Johor",Johor,A068,1.3525705,104.2197088,,
沈氏族廟,,"Unnam Road, Kempung Sungai Rengi , 81600 Bandar Penawar, Johor",Johor,A069,1.3512332,104.2254005,Yes,2
夫人媽廟,,"Kempung Sungai Rengit , 81600 Pengerang, Johor",Johor,A070,1.350762,104.2244809,Yes,1
寶安宮 – 四位王府廟,,"Jalan Kerisi, Kempung Sungai REngit , 81600 Pengerang , Johor",Johor,A071,1.3516627,104.2246369,,
法主宮,,"Kampung sungait Rengit ,81620 Pengerang johor.",Johor,A072,1.350762,104.2244809,,
五灣新鳳鳳山廟,,"Teluk Ramunia, 81600 Bandar penawar, Johor",Johor,A073,1.372823,104.246609,,
8間廟,,"8 Chinnese Temple Village , 81900 bandar penawar, Johor",Johor,A074,1.3813798,104.2617117,,
譚公廟TamKungTemple,,"35-59, Lorong 3, Taman Senai Utama, 81400 Senai, Johor",Johor,A075,1.6048235,103.6450254,,
洪仙大帝廟,,"106, Jalan Seelong 5, Kampung Baru Seelong, 81400, Senai, Johor Bahru, , Johor",Johor,A076,1.6307979,103.6939638,,
柔佛士乃濟公壇,,"No : LOT 6157, JALAN DASA, TAMAN DASA, 81400, SENAI, JOHOR.",Johor,A077,1.6081131,103.6382597,,
士乃 觀音廟 Senai Guan Yin Ting,,"No : Lot 6157, Jalan Dasa, Taman Dasa, 81400 Senai, Johor",Johor,A078,1.6081131,103.6382597,,
三清玉皇大帝,,"No : 8, Jalan Saleng, Kampung Baru Saleng, 81400 Senai, Johor",Johor,A079,1.629341,103.6323196,,
士乃三山国王庙,,,Johor,A080,0,0,,
士乃大伯公,,"Taman Dasa, 81400 Senai, Johor",Johor,A081,1.607361,103.6374631,,
八寶廟 大伯公,,"Taman Ehsan Jaya, Tebrau, Johor",Johor,A082,1.548463,103.813092,,
蓮花宮 – 大，二，三爺伯,,"39, Jln EJ 5/1, Ehsan Jaya, Tebrau, Johor",Johor,A083,1.5512329,103.8171021,,
新山儒家慈規堂,,"Jln Danau 1, Tmn Desa Jaya, Tebrau, Johor",Johor,A084,1.5552275,103.80439,,
福德正神,華人寺廟,"Jalan Taban, Tebrau, Johor",Johor,A085,1.4926325,103.7627811,,
三鳳宮,,"157, Jln Harimau, 世紀花園, Tebrau, Johor",Johor,A086,1.4776113,103.7571252,,
萬佛如,住家泰國廟,"Jalan Taban, Tebrau, Johor",Johor,A087,1.4926325,103.7627811,,
列光鎮北斗宮,,"2, Jalan Ara 22, Taman Desa Cemerlang, 81800 Ulu Tiram, Johor",Johor,A088,1.5630872,103.8079273,,
天賜萬天官泰國廟,,"11, Jalan Lembing 6, Taman Puteri Wangsa, 81800 Ulu Tiram, Johor",Johor,A089,1.5941749,103.7926118,,
山頂五鳳廟,,"22, Jalan Lembing 8, Taman Puteri Wangsa, 81800 Ulu Tiram, Johor",Johor,A090,1.5951219,103.7926551,,
法輪精社,一真法界的分行,"1, Jalan Jenawi 13, Taman Puteri Wangsa, 81800 Ulu Tiram, Johor",Johor,A091,1.5945733,103.797182,,
星君廟,,"33 Jalan Beladau 11 Taman Puteri Wangsa, Malaysia, Ulu Tiram Village, 81800 Johor",Johor,A092,1.5893297,103.8062833,,
地南阿彌陀佛蓮社,同排還有鳳山寺，聖法堂和基督公會,"106 & 108, Jalan Intan, Taman Ros, 81800 Ulu Tiram, Johor",Johor,A093,1.5945588,103.8183222,,
地南奧林菩提佛教會,,"Taman Tiram Jaya, 81800 Ulu Tiram, Johor",Johor,A094,1.5981531,103.8114829,,
萬孚天後宮,,"52, J102, Kampung Baru Ban Foo, 81800 Ulu Tiram, Johor",Johor,A095,1.5676657,103.8537562,,
萬孚協天宮,,"Kampung Baru Ban Foo, Johor, 81800 Ulu Tiram, Johor",Johor,A096,1.5672217,103.8549591,,
法雨禪寺FA YI TEMPLE,,"Lot 380 Batu 13/4, Jalan Sungai Tiram, Johor",Johor,A097,1.601834,103.8294842,,
柔佛雙溪地南古廟,,"Batu, 20, Jalan Sungai Tiram, 81800 Ulu Tiram, Johor",Johor,A098,1.601479,103.8339188,,
淨業精舍 pure Karma Temple,,"Taman Peindustrian Cemerlang , 81800 Ulu Tiram, Johor",Johor,A099,1.554133,103.822263,,
萬仙廟,,"Jalan Anggerik 1, Taman Kulai Utama, 81000 Kulai, Johor",Johor,A100,1.6653686,103.5937773,,
法主庙 昆崙洞,,"525, Jalan Serunai 10, Taman Pancasila, 81400 Kulai, Johor",Johor,A101,1.6295173,103.6298906,,
沙令古來区法灵壇洪仙大帝,,"245, Jalan Serunai 4, Taman Saleng, 81400 Senai, Johor",Johor,A102,1.6297258,103.6295488,,
沙冷光明寺,店屋樓上沒有開門,,Johor,A103,0,0,,
古来沙岭诸葛孔明仙師八卦牌,店屋樓上，很多人去求財,,Johor,A104,0,0,,
五显宫 华光大帝,,"13, Jalan Saleng 10, Taman Saleng Indah, 81400 Kulai, Johor",Johor,A105,1.6297755,103.6338498,,
花菓宮 • 大聖佛祖,,"Jalan Jambu 28, Taman Muhibbah, 81400 Kulai, Johor",Johor,A106,1.6226635,103.6219731,,
古來真空祖師道堂,,,Johor,A107,0,0,,
古来沙岭新村關帝亭,,,Johor,A108,0,0,,
玉皇協天大帝,,"Johor, Kulai, Jalan Sekolah Cina  81000, Johor",Johor,A109,1.657988,103.6035258,,
善莲堂（观音堂）,,,Johor,A110,0,0,,
真佛宗 敬佛堂,,"6035, Jalan Persiaran Indahpura 3, Bandar Indahpura, 81000 Kulai, Johor",Johor,A111,1.6545995,103.596563,,
龍巖廟 （ 太上老君 ）,,,Johor,A112,0,0,,
雲山宮 / 南海慈航宫,,"Lorong 2, Kulai",Johor,A113,1.6494801,103.6131956,,
柔佛州道教協會,,"No :15，Jalan Indah 3, Taman Sawit Indah, 81000 Kulai, Johor",Johor,A114,1.6731345,103.5253689,,
新山噶瑪噶舉佛教會,是一間藏傳佛堂,"19, Jalan Molek 3/19, Taman Molek, 81100 Johor Bahru, Johor",Johor,A115,1.5190143,103.7875563,,
中元天帝宮ChineseTemple,,"15, Jalan Bakawali 48, Johor Jaya, 81100 Johor Bahru, Johor",Johor,A116,1.5408575,103.7964974,,
三合宮ChineseTemple,,"Jalan Dedap 30, Johor Jaya, 81100 Johor Bahru, Johor",Johor,A117,1.5404928,103.7993893,,
天公壇 Taoist Temple,,"Taman Johor Jaya, 81100 Johor Bahru, Johor",Johor,A118,1.535573,103.7978201,,
福林园济圣宫,,"Jalan Sagu 35, Taman Daya, 81100 Johor Bahru, Johor",Johor,A119,1.5487351,103.7636737,,
阿依淡大伯公Tokong Air Hitam,,"Jalan Parit Haji Adnan, 82100 Ayer Baloi, Johor",Johor,A120,1.582082,103.4318283,,
善才爷Nam Thien Temple,,"Jalan Dato Koh Thian Peng, Parit Unas, Johor, 84150 Muar, Johor",Johor,A121,1.9855531,102.6008273,,
仙公山,,"Parit Bakar, 84200 Muar, Johor",Johor,A122,2.034846,102.7364962,,
巴口真人宫,,"Jalan Muar, 84200 Bukit Bakri, Johor",Johor,A123,2.03657,102.659988,,
白凤仙师宫,,"84200 Bukit Bakri, Johor",Johor,A124,2.041668,102.657731,,
天安堂•准提菩萨,,"Taman Bakri Indah, 84200 Bukit Bakri, Johor",Johor,A125,2.0390669,102.6575074,,
廻龍舘,此庙建于1946年，有74年历史,"Johor, Bukit Bakri, Jalan Muar, No 14 邮政编码: 84200",Johor,A126,2.0408434,102.6571281,,
白马老师公庙,,"Jln Padang, Bukit Bakri, 84200 Bukit Bakri, Johor",Johor,A127,2.0428289,102.6615577,,
吧口晋程廟,,"395, Jln Lempoyang, Taman Bukit Bakri, 84200 Bukit Bakri, Johor",Johor,A128,2.0420469,102.6621306,,
飞来洞,建于 1955 年,"24, Kampung Kenangan Dato Abdullah Jaafar, 84200 Bukit Bakri, Johor",Johor,A129,2.0426302,102.6514741,,
麻坡慧海净宗学会,,"No.5 Jalan Dato' Haji Kosai 3, Taman Dato' Haji Kosai, Jalan Bakri, Johor",Johor,A130,2.0450234,102.5969683,,
麻坡天亭堂白衣娘娘,,"Jalan Indah 13, Taman Indah, Johor, 84000 Muar town, Johor",Johor,A131,2.0554738,102.597868,,
麻坡玉封玉龙宫,,"Taman Sakeh Baru, 84000 Muar, Johor",Johor,A132,2.053784,102.5846701,,
麻坡新奇珍宴会所,,"68, Jalan Sungai Abong, Taman Sakeh Baru, 84000 Muar, Johor",Johor,A133,2.0586497,102.5785836,,
麻坡佛教净业寺,,"Jalan Sulaiman, Kampung Dato Bentara Dalam, 84000 Muar, Johor",Johor,A134,2.0392217,102.5706907,,
修德善堂,,"No. 40, Jalan Sultan Ibrahim, Pekan Muar, 84000 Muar, Johor",Johor,A135,2.0373602,102.571965,,
中水宫 Zhong Shui Gong,,"Kampung Dato Bentara Luar, 84000, Muar, Johor.",Johor,A136,2.037081,102.5749249,,
金龍寺 Kim Leng Tze,,"2700, 5, Kampung Sabak Aur, 84000 Muar, Johor",Johor,A137,2.0798955,102.5681176,,
慈云精舍-一(真法界公行),,"Jalan Sekolah, Bukit Bakri, 84250, Bukit Bakri, Johor",Johor,A138,2.0435956,102.6585334,,
麻坡天亭堂白衣娘娘,,"Jalan Indah 13, Taman Indah, Johor, 84000 Muar town, Johor",Johor,A139,2.0554738,102.597868,,
麻坡玉封玉龙宫,,"Taman Sakeh Baru, 84000 Muar, Johor",Johor,A140,2.053784,102.5846701,,
吧口福音堂 - 吧口福音堂,,"Kampung Kenangan Dato Abdullah Jaafar, 84200 Bukit Bakri, Johor",Johor,A141,2.04419,102.6517349,,
麻屬班萃善寶宮,,,Johor,A142,0,0,Yes,1
玉皇上帝廟,,,Johor,A143,0,0,,
玉皇高上帝廟,,,Johor,A144,0,0,,
城隍殿,,,Johor,A145,0,0,,
柔佛州麻坡班卒靈安殿麻坡河,,,Johor,A146,0,0,,
玉檺林宮,,"218, Jalan Poh Ai, 84700 Gerisek, Johor",Johor,A147,2.2115889,102.6575364,,
聖姑廟,,"Bukit Gambir, 84700 Bukit Gambir, Johor",Johor,A148,2.212505,102.6543938,Yes,32
天雲寺 / 永春烏鬚觀音,,"84700, Jln Sengkang, 84700 Gerisek, Johor",Johor,A149,2.2462489,102.6690262,,
侯爺符 / 天波楊門,,"Jalan Sengkang, 84700 Gerisek, Johor",Johor,A150,2.2462489,102.6690262,,
比亞南佛寺,,"Tangkak, Unnamed Road, Kampung Tanjong Batu 15, 84900 Tangkak Joh, Johor",Johor,A151,2.2554645,102.5444354,Yes,1
東甲龍福堂(LongFu Temple),,"Jln Sialang, Kampung Tanjung Batu, 84900 Tangkak, Johor",Johor,A152,2.268864,102.534583,,
福泉宫善财爷张公圣君庙,,"15, Jalan Sentosa 2, Taman Sentosa, 84900 Tangkak, Johor",Johor,A153,2.275999,102.5394925,,
大老爷(聖靈宫),此庙有 48 年历史,"Taman Sentosa, 84900 Tangkak, Johor",Johor,A154,2.272364,102.5384191,,
茧云宫,此廟有 124 年曆史/ 三聖宮,"Jalan Padang Lalang, Kampung Padang Lalang, 84900 Tangkak, Johor",Johor,A155,2.2712655,102.5450202,,
武吉港脚天后宫,,"Kampung Parit Pelampong, 84300 Sungai Mati, Johor",Johor,A156,2.171105,102.5576521,,
實廊南海觀音廟,,"Jln Serom 4 Hilir, 84400 Sungai Mati, Johor",Johor,A157,2.1658943,102.5916288,,
古灵殿,此廟建於 1967 年,"Jalan Paip, Kampung Pantai Layang, 84400 Sungai Mati, Johor",Johor,A158,2.0812318,102.5789739,,
麻坡南海飞来观音菩萨,,"104, Jalan Maharani, Taman Sri Emas, 84000 Muar, Johor",Johor,A159,2.0496819,102.5693822,,
麻坡粤东古庙,,"84000, Johor",Johor,A160,2.0359456,102.5986597,,
麻坡天春堂,此廟 80 多年,"32, Jalan Bakri, 84000 Muar, Johor",Johor,A161,2.0484219,102.5815728,,
Ching San Miao Temple 青山庙,,"107, Jalan Ismail, Sabak Awor, 84000 Muar, Johor",Johor,A162,2.0691462,102.5650693,,
黄老仙师慈天宫,,"84000 Muar, Johor",Johor,A163,2.0359456,102.5986597,,
麻坡大悲林,,"Taman Muar, 84000 Muar, Johor",Johor,A164,2.077203,102.5741221,,
新加望城隍庙,,"Taman Desa, 84000 Muar, Johor",Johor,A165,2.067003,102.5922938,Yes,7
欽巡池府王爺-大人公崎頭館,,"Jalan Ong Siong, 84900 Tangkak, Johor.",Johor,A166,2.2742655,102.5410671,,
天惠觀音堂,,"Jalan Abdul Rahman, Taman Khalidi Baru, 84000, Muar, Johor.",Johor,A167,2.037626,102.561529,,
保零殿,,"Pagoh, 84600 Pagoh, Johor",Johor,A168,2.149223,102.7721509,,
巴莪南天庙,,"Pagoh, 84600 Pagoh, Johor",Johor,A169,2.149223,102.7721509,,
麻坡巴莪老港圣明庙,,"Kampung Paya Pagoh, 84600 Pagoh, Johor",Johor,A170,2.166633,102.7579169,,
圣君殿,,"Taman Sri Pagoh, 84600 Pagoh, Johor",Johor,A171,2.1421255,102.7746619,,
巴莪南天庙,,"Pagoh, 84600 Pagoh, Johor",Johor,A172,2.149223,102.7721509,,
飛來洞,,"Jalan Balai Raya, Taman Bukit Pasir, 84300 Bukit Pasir, Johor",Johor,A173,2.0996518,102.638599,,
头条福寿宫老庙,（ 70年 老廟 ）1946 年建立,"84300 Bukit Pasir, Johor",Johor,A174,2.1013592,102.6376601,,
顺平官,,"3, Jln Kemuning 6, Taman Bukit Pasir, 84300 Bukit Pasir, Johor",Johor,A175,2.1048316,102.6391753,,
玄順殿,,"JJ13/, ,Block B, 4, Jalan Tepi 1, 84300 Bukit Pasir, Johor",Johor,A176,2.1025049,102.6375125,,
古樹宮,,,Johor,A177,0,0,,
禅清殿,,"Unnamed Road, 84000, 84000, Johor",Johor,A178,2.0538575,102.5680727,,
慧觉殿,,"Temple of Ji Gong 183, Jln Merah 8, 84000 Muar, Johor",Johor,A179,2.0674204,102.5996946,,
龍山嚴,,"Jalan Temenggong Ahmad, Taman Parit Bakar Indah, Johor, 84010 Muar",Johor,A180,2.004447,102.6046674,,
翠美古庙,,"Chinese Temple, 84150 Parit Jawa, Johor",Johor,A181,1.9509244,102.6340253,,
清水祖師,,"Chinese Temple, 84150 Parit Jawa, Johor",Johor,A182,1.9509244,102.6340253,,
"一真法界 Yap Chan Fatt Kai Temple,",,"No192 , Jalan Tapah, Skudai.",Johor,A183,1.5382064,103.6568801,,
鬼谷仙師,,"Kampung Ungku Mohsin Jalan Tampoi, Johor",Johor,A184,1.5146841,103.7374557,,
樂符宮,,"Jalan Riang 22, Taman Gembira",Johor,A185,3.0823794,101.6785917,,
洪仙宮,,"B85, Jalan Indah 5/14, Taman Bukit indah, 81200 Johor Bahru",Johor,A186,1.483253,103.6434183,,
水尾聖娘,62年歷史 / 皇后黃梨場第一間廟,"Jalan Tun Teja, Skudai, 81300 Johor Bahru",Johor,A187,1.5248347,103.6668347,,
福德廟,,"120, Jalan Seri Orkid 15, Taman Seri Orkid, 81300 Skudai, Johor",Johor,A188,1.5112238,103.6424215,,
天樂宮神廟,,"Taman Selesa Jaya, 81300 Skudai, Johor",Johor,A189,1.489736,103.634924,,
大學城關帝廟 Guan Ti Temple Taman U,,"PTD ： 62501, Jalan Kejayaan 8, Taman Universiti, 81300 Skudai, Johor",Johor,A190,1.5295636,103.6272827,,
二郎神廟,,"Jalan Kebangsaan 29, Taman Universiti, 81300 Skudai, Johor",Johor,A191,1.5330556,103.629994,,
鰲峰宮， 保生大帝,,"Taman Sutera Utama , 81300 Skudai, Johor",Johor,A192,1.512862,103.664862,,
拿督公廟,,"Jalan Tun Teja, Skudai 81300 Johor Bahru, Johor",Johor,A193,1.5248347,103.6668347,,
洪仙大帝,,"60-55 , Jalan Tun Teja, Skudai 81300 Johor Bahru, Johor",Johor,A194,1.5225426,103.670205,,
皇后八里半乾坤宮仙師公，鬼谷子先師廟,,,Johor,A195,0,0,,
三山國王廟,,"46, Jalan Jambu, Kampung Melayu, Kangkar Pulai, 81100 , Johor",Johor,A196,1.5580953,103.5932376,,
皇后花园法主公宫,,"Jalan Bentara 9, Taman Ungku Tun Aminah, 81300 Skudai, Johor",Johor,A197,1.5168339,103.6610933,,
士古来玉旨敕封三教中佛殿,,"29, Jalan Impian Emas 22, Taman Impian Emas, 81300 Skudai, Johor",Johor,A198,1.5360012,103.6720518,,
圆观堂,,"54, Jalan Ronggeng 19, Taman Nesa, 81300 Skudai, Johor.",Johor,A199,1.5271407,103.6576497,,
武天宫 Wu Tian Gong,,"4, Jalan Ceria 19, Taman Nusa Indah, 81200 Johor Bahru, Johor",Johor,A200,1.4771876,103.6330085,,
慈濟 Buddhist Tzu Chi Foundation Malaysia (Johor Bahru),,"3, Jalan Jaguh 1, Taman Harmoni 2, 81300 Skudai, Johor",Johor,A201,1.5266668,103.6493526,,
Buddhist Tzu Chi Foundation Malaysia (Johor Bahru) 慈濟,,"3, Jalan Jaguh 1, Taman Harmoni 2, 81300 Skudai, Johor",Johor,A202,1.5266668,103.6493526,,
武天宫,,"4, Jalan Ceria 19, Taman Nusa Indah, 81200 Johor Bahru, Johor",Johor,A203,1.4771876,103.6330085,,
弥陀之家东林寺,,"No 18, Jalan Pertama 4, Pusat Perdagangan Danga Utama, Johor",Johor,A204,1.5190766,103.678989,,
圆观堂,,"54, Jalan Ronggeng 19, Taman Nesa, 81300 Skudai, Johor",Johor,A205,1.5271407,103.6576497,,
金刚寺,,"No. 2, Jalan Temenggong 9, Taman Ungku Tun Aminah, 81300 Skudai, Johor",Johor,A206,1.5104369,103.653161,,
仙靈廟,,Jementah,Johor,A207,2.440059,102.6851551,,
皇后花园法主公宫,,"Jalan Bentara 9, Taman Ungku Tun Aminah, 81300 Skudai, Johor",Johor,A208,1.5168339,103.6610933,,
慈濟,,"3, Jalan Jaguh 1, Taman Harmoni 2, 81300 Skudai, Johor",Johor,A209,1.5266668,103.6493526,,
武天宫 Wu Tian Gong,,"4, Jalan Ceria 19, Taman Nusa Indah, 81200 Johor Bahru, Johor",Johor,A210,1.4771876,103.6330085,,
圆观堂,,"54, Jalan Ronggeng 19, Taman Nesa, 81300 Skudai, Johor.",Johor,A211,1.5271407,103.6576497,,
士古来玉旨敕封三教中佛殿,,"29, Jalan Impian Emas 22, Taman Impian Emas, 81300 Skudai, Johor",Johor,A212,1.5360012,103.6720518,,
金刚寺,此庙有 20 多年历史,"No. 2, Jalan Temenggong 9, Taman Ungku Tun Aminah, 81300 Skudai,",Johor,A213,1.5104369,103.653161,,
西陽伯公宮,有百多年歷史,"Lorong B-8, Pekan Nenas, Johor",Johor,A214,1.510691,103.513365,,
吳爺宮,1953 建立， 有 67年的歷史,"Lorong B-5, Pekan Nenas, Johor.",Johor,A215,1.5082304,103.5159703,,
聖德廟,,"510, Lorong C-5, Taman Sri Kiambang 81500 pekan Nenas , Johor",Johor,A216,1.5121632,103.5101092,,
而南伯公廟,70年歷史,"458- 463, Lorong C-2, Taman Seri, Damanasara , 81500 Pekan Nenas, Johor",Johor,A217,1.510328,103.508364,,
中國佈道會北干那那聖道堂,,"Lorong B-2, Pekan Nenas , 81500 Pekan Nenas, Johor",Johor,A218,1.509871,103.51315,,
修本堂 ulu Choh,,"81500 Pekan Nenas, Johor",Johor,A219,1.507599,103.512533,,
忠義堂,,"Pekan Nenas , 81500 Pekan Nenas, Johor",Johor,A220,1.507599,103.512533,,
慈庵廟大伯公,,"Jalan Tanjung Kupang, Ulu Choh, 81500 Pekan Nenas, Johor",Johor,A221,1.5196895,103.5538383,,
保聖宮,,"Jalan Ulu Choh, Kampung Ulu Choh, 81500 , Pekan Nenas, Johor",Johor,A222,1.5273041,103.5442844,,
光明寺,,"80-78, Jalan Kobis , Kampung Ulu Choh, 81500, Pekan Nenas, Johor",Johor,A223,1.5239208,103.5412196,,
大善寺 （ 店屋庙）,,"15, Jalan SS 1/1, Taman Sri Saujana 2, 81900 Kota Tinggi, Johor",Johor,A224,1.6743626,103.8526022,,
Thekchen Choling Kota Tinggi大乘禅寺哥打丁宜禅修中心,,"Lot 691 kampung Tai Hong, Johor",Johor,A225,1.7384913,103.8557982,,
天聖宮 – kota tinggi,,"kampung Tai Hong, Johor",Johor,A226,1.732962,103.8599009,,
哥打丁宜善導精舍,,"35, Jalan Melati 1, Taman Melati Putih, 81900 Kota Tinggi, Johor",Johor,A227,1.7226945,103.8856923,,
哥打丁宜龍望關帝廟,,"Jalan Melati 1, Taman Melati Putih, 81900 Kota Tinggi, Johor",Johor,A228,1.72306,103.886156,,
Fattus 金山谷法渡寺,,"Taman Kota Merdesa, 81900 Kota Tinggi, Johor",Johor,A229,1.724927,103.8852511,,
萬法堂 Kampung Tembioh,,,Johor,A230,0,0,,
聖旺宮黃大仙Kampung Tembioh,,,Johor,A231,0,0,,
天鳳廟 / 哪吒蓮花三太子,,"27, Jalan Kampung Tembioh, Kampung Tembioh, 81900 Kota Tinggi,",Johor,A232,1.726322,103.90467,,
明山宮 / 觀音 / 關公,,"Kampung Tembioh,",Johor,A233,1.726238,103.905634,,
哥打丁宜德教会紫登阁,,"No.1, Jalan Abdulah, Pekan Kota Tinggi, 81900 Kota Tinggi, Johor",Johor,A234,1.731432,103.900601,,
潮州八邑會館,,,Johor,A235,0,0,,
峝主庙 • 侯王爷,,"Teluk Sengat, 81900 Ayer Tawar, Johor",Johor,A236,1.56247,104.0312149,,
南亚港龙潭古庙,,"Teluk Sengat, 81900 Ayer Tawar, Johor",Johor,A237,1.56247,104.0312149,,
东勇庙,,"Jalan Senangin, 81900 Tanjung Sedeli, Johor",Johor,A238,1.9264555,104.1237765,,
三寶壇 San Bao Temple,,"San Bao Temple, Lor 1, kampong Jalan Seesun, 86300 Renggam, Johor",Johor,A239,1.8888734,103.4032392,,
令金天後宮,,,Johor,A240,0,0,,
令金大伯公,,,Johor,A241,0,0,,
梨山老母廟 Li Shan Lao Mu Temple,上乩的女士感應很多仙佛降臨她的家,,Johor,A242,0,0,,
,,"4, Lor 2, Rengam, 86300 Renggam, Johor",Johor,A243,1.8893415,103.4020948,,
令金睡佛寺 （ 住家）,,"Jln 10, Rengam, 86300 Renggam, Johor",Johor,A244,1.8889825,103.3979941,,
令金新村老觀音廟,,"2, Jalan 5, Rengam, 86300 Renggam, Johor",Johor,A245,1.8906779,103.3976231,,
新邦令金濟公壇,,"42 jalan pineapple, 86200 Simpang Renggam, Johor",Johor,A246,1.82733,103.308655,,
新邦令金德教會紫濡閣,,"Taman Suria, 86200 Simpang Renggam, Johor",Johor,A247,1.8140437,103.3190256,,
新邦令金陸洲园靈顯廟,陸州黃梨園 6500英畝,,Johor,A248,0,0,,
雲龍宮,,"Jalan Bakawali, Kampung Simpang Renggam, 86200 Simpang Renggam, Johor",Johor,A249,1.8281066,103.3057238,,
天福寺,,"Simpang Renggam, 86200 Simpang Renggam, Johor",Johor,A250,1.8394506,103.3356272,,
慈善堂,,"Simpang Renggam, 86200 Simpang Renggam, Johor",Johor,A251,1.8394506,103.3356272,,
SJK(C) Machap,小學旁邊有一間廟（ 拜石頭 ）,"Kampung Machap, 86200 Simpang Renggam, Johor",Johor,A252,1.8851738,103.263462,,
嗎什濟寶堂,,"Lot 6506, Jln Bunga Raya, Taman sri Machap86200 Simpang Renggam, Johor",Johor,A253,1.8226017,103.3107374,,
九天玄女廟,,,Johor,A254,0,0,,
崑崙洞法主公,,"Jln Besar, 86200 Simpang Renggam, Johor",Johor,A255,1.82286,103.3145328,,
Melaka Buddhist Lodge (Chee Sze Lin) 佛教居士林,,"C-1158, Pekan Klebang, 75250 Melaka",Melaka,A256,2.2072227,102.2185335,,
青龙宫 Selandar Cheng Leong Keng,淡边青龙宫位于森甲交界之小镇-普罗士邦，一九六十三年建。,"Pekan Selandar, 77500 Selandar, Melaka",Melaka,A257,2.3899952,102.3793231,,
增龍會館Tsen Lung Fui Kon,,,Melaka,A258,0,0,,
三多廟 San Duo Temple / 三宝井,,"41, Jalan Tukang Besi, 75200 Melaka",Melaka,A259,2.1961819,102.2481727,,
马六甲三宝山,,"Jalan Puteri Hang Li Poh, Bukit Cina, 75100 Melaka",Melaka,A260,2.198584,102.257366,,
宁宜苏拜城堡（Kota Bukit Supai Kuala Linggi / Fort Supai),,"Jalan Kampung Teluk Perun, Kampung Kuala Linggi, Melaka",Melaka,A261,2.386972,101.9688581,,
马六甲圣保罗教堂,,,Melaka,A262,0,0,,
马六甲海峡清真寺,,,Melaka,A263,0,0,,
青云亭 Cheng Hoon Teng Temple   2017 年,,"25, Jalan Tokong, Kampung Dua, 75200 Melaka",Melaka,A264,2.1974982,102.2468323,,
Kwan Yin Tang Temple 观音堂,,"133, Jalan Hang Jebat, 75200 Melaka",Melaka,A265,2.1978152,102.2452498,,
Xiang Lin Si Temple,2017年,"Jalan Tokong, Kampung Dua, 75200 Melaka",Melaka,A266,2.1977665,102.2467132,,
Chee Teong Beow Temple 慈忠庙 / 黄老仙师,,"No. 46, Jalan Tun Perak, 75300, Bachang, Melaka, 75300",Melaka,A267,2.2119908,102.2413598,,
