[
 {
   "Name_ZH": "新路村",
   "Name_MY": "Pauh Setia",
   "District_ZH": "加央",
   "District_MY": "Kangar",
   "State_ZH": "玻璃市",
   "State_MY": "Perlis",
   "Founding_Year": 1956,
   "latlng": "6.438084°N 100.301644°E",
   "lat": "6.438084",
   "lng": "100.301644"
 },
 {
   "Name_ZH": "加基武吉",
   "Name_MY": "Kaki Bukit",
   "District_ZH": "加央",
   "District_MY": "Kangar",
   "State_ZH": "玻璃市",
   "State_MY": "Perlis",
   "Founding_Year": null,
   "latlng": "6.643650°N 100.208078°E",
   "lat": "6.643650",
   "lng": "100.208078"
 },
 {
   "Name_ZH": " 基锐",
   "Name_MY": "Kejai",
   "District_ZH": "华玲",
   "District_MY": "Baling",
   "State_ZH": "吉打",
   "State_MY": "Kedah",
   "Founding_Year": 1950,
   "latlng": "5.551044°N 100.729479°E",
   "lat": "5.551044",
   "lng": "100.729479"
 },
 {
   "Name_ZH": " 甘光拉兰",
   "Name_MY": "Kampung Lalang",
   "District_ZH": "华玲",
   "District_MY": "Baling",
   "State_ZH": "吉打",
   "State_MY": "Kedah",
   "Founding_Year": 1950,
   "latlng": "5.790341°N 100.894927°E",
   "lat": "5.790341",
   "lng": "100.894927"
 },
 {
   "Name_ZH": " 瓜拉吉底",
   "Name_MY": "Kuala Ketil",
   "District_ZH": "华玲",
   "District_MY": "Baling",
   "State_ZH": "吉打",
   "State_MY": "Kedah",
   "Founding_Year": 1950,
   "latlng": "5.604284°N 100.650783°E",
   "lat": "5.604284",
   "lng": "100.650783"
 },
 {
   "Name_ZH": " 瓜拉不干",
   "Name_MY": "Kuala Pegang",
   "District_ZH": "华玲",
   "District_MY": "Baling",
   "State_ZH": "吉打",
   "State_MY": "Kedah",
   "Founding_Year": 1950,
   "latlng": "5.636025°N 100.809639°E",
   "lat": "5.636025",
   "lng": "100.809639"
 },
 {
   "Name_ZH": " 居邦",
   "Name_MY": "Kupang",
   "District_ZH": "华玲",
   "District_MY": "Baling",
   "State_ZH": "吉打",
   "State_MY": "Kedah",
   "Founding_Year": 1950,
   "latlng": "5.636893°N 100.844121°E",
   "lat": "5.636893",
   "lng": "100.844121"
 },
 {
   "Name_ZH": " 打活",
   "Name_MY": "Tawar",
   "District_ZH": "华玲",
   "District_MY": "Baling",
   "State_ZH": "吉打",
   "State_MY": "Kedah",
   "Founding_Year": 1950,
   "latlng": "5.595712°N 100.772926°E",
   "lat": "5.595712",
   "lng": "100.772926"
 },
 {
   "Name_ZH": "峇眼三目",
   "Name_MY": "Bagan Samak",
   "District_ZH": "万拉峇鲁",
   "District_MY": "Bandar Baharu",
   "State_ZH": "吉打",
   "State_MY": "Kedah",
   "Founding_Year": 1952,
   "latlng": "5.090819°N 100.5592566°E\t",
   "lat": "5.090819",
   "lng": "100.5592566"
 },
 {
   "Name_ZH": "司南马",
   "Name_MY": "Selama",
   "District_ZH": "万拉峇鲁",
   "District_MY": "Bandar Baharu",
   "State_ZH": "吉打",
   "State_MY": "Kedah",
   "Founding_Year": 1952,
   "latlng": "5.233486°N 100.682638°E",
   "lat": "5.233486",
   "lng": "100.682638"
 },
 {
   "Name_ZH": "西岭（怡源） ",
   "Name_MY": "Serdang (Ee Yuan)",
   "District_ZH": "万拉峇鲁",
   "District_MY": "Bandar Baharu",
   "State_ZH": "吉打",
   "State_MY": "Kedah",
   "Founding_Year": 1952,
   "latlng": "5.206949°N 100.615523°E",
   "lat": "5.206949",
   "lng": "100.615523"
 },
 {
   "Name_ZH": "麻杭",
   "Name_MY": "Mahang",
   "District_ZH": "万拉峇鲁",
   "District_MY": "Bandar Baharu",
   "State_ZH": "吉打",
   "State_MY": "Kedah",
   "Founding_Year": 1952,
   "latlng": "5.320731°N 100.748169°E",
   "lat": "5.320731",
   "lng": "100.748169"
 },
 {
   "Name_ZH": "三巴央 ",
   "Name_MY": "Junjong",
   "District_ZH": "万拉峇鲁",
   "District_MY": "Bandar Baharu",
   "State_ZH": "吉打",
   "State_MY": "Kedah",
   "Founding_Year": 1952,
   "latlng": "5.297478°N 100.534488°E",
   "lat": "5.297478",
   "lng": "100.534488"
 },
 {
   "Name_ZH": "新港",
   "Name_MY": "Bukit Besar",
   "District_ZH": "万拉峇鲁",
   "District_MY": "Bandar Baharu",
   "State_ZH": "吉打",
   "State_MY": "Kedah",
   "Founding_Year": null,
   "latlng": "5.4577229°N 100.5633676°E",
   "lat": "5.4577229",
   "lng": "100.5633676"
 },
 {
   "Name_ZH": "吕蒙文打",
   "Name_MY": "Lubok Buntar",
   "District_ZH": "万拉峇鲁",
   "District_MY": "Bandar Baharu",
   "State_ZH": "吉打",
   "State_MY": "Kedah",
   "Founding_Year": null,
   "latlng": "5.139635°N 100.590418°E",
   "lat": "5.139635",
   "lng": "100.590418"
 },
 {
   "Name_ZH": "蔗芭村",
   "Name_MY": "Kilang Tebu",
   "District_ZH": "哥打士打",
   "District_MY": "Kota Setar",
   "State_ZH": "吉打",
   "State_MY": "Kedah",
   "Founding_Year": null,
   "latlng": "6.105°N 100.3513889°E",
   "lat": "6.105",
   "lng": "100.3513889"
 },
 {
   "Name_ZH": "十字港",
   "Name_MY": "Simpang Empat",
   "District_ZH": "哥打士打",
   "District_MY": "Kota Setar",
   "State_ZH": "吉打",
   "State_MY": "Kedah",
   "Founding_Year": null,
   "latlng": "6.024360°N 100.381952°E",
   "lat": "6.024360",
   "lng": "100.381952"
 },
 {
   "Name_ZH": " 美农",
   "Name_MY": "Bedong",
   "District_ZH": "瓜拉姆达",
   "District_MY": "Kuala Muda",
   "State_ZH": "吉打",
   "State_MY": "Kedah",
   "Founding_Year": 1952,
   "latlng": "5.728031°N 100.509494°E",
   "lat": "5.728031",
   "lng": "100.509494"
 },
 {
   "Name_ZH": " 武吉士南卯",
   "Name_MY": "Bukit Selambau",
   "District_ZH": "瓜拉姆达",
   "District_MY": "Kuala Muda",
   "State_ZH": "吉打",
   "State_MY": "Kedah",
   "Founding_Year": 1950,
   "latlng": "5.682561°N 100.633960°E",
   "lat": "5.682561",
   "lng": "100.633960"
 },
 {
   "Name_ZH": " 莪仑",
   "Name_MY": "Gurun",
   "District_ZH": "瓜拉姆达",
   "District_MY": "Kuala Muda",
   "State_ZH": "吉打",
   "State_MY": "Kedah",
   "Founding_Year": 1954,
   "latlng": "5.808555°N 100.477225°E",
   "lat": "5.808555",
   "lng": "100.477225"
 },
 {
   "Name_ZH": " 仁岭",
   "Name_MY": "Jening",
   "District_ZH": "瓜拉姆达",
   "District_MY": "Kuala Muda",
   "State_ZH": "吉打",
   "State_MY": "Kedah",
   "Founding_Year": 1950,
   "latlng": "5.814001°N 100.631248°E",
   "lat": "5.814001",
   "lng": "100.631248"
 },
 {
   "Name_ZH": " 马莫",
   "Name_MY": "Merbok",
   "District_ZH": "瓜拉姆达",
   "District_MY": "Kuala Muda",
   "State_ZH": "吉打",
   "State_MY": "Kedah",
   "Founding_Year": 1953,
   "latlng": "5.721789°N 100.413712°E",
   "lat": "5.721789",
   "lng": "100.413712"
 },
 {
   "Name_ZH": " 巴东伦武",
   "Name_MY": "Padang Lembu",
   "District_ZH": "瓜拉姆达",
   "District_MY": "Kuala Muda",
   "State_ZH": "吉打",
   "State_MY": "Kedah",
   "Founding_Year": 1950,
   "latlng": "5.841295°N 100.535944°E",
   "lat": "5.841295",
   "lng": "100.535944"
 },
 {
   "Name_ZH": " 新文英",
   "Name_MY": "Semiling",
   "District_ZH": "瓜拉姆达",
   "District_MY": "Kuala Muda",
   "State_ZH": "吉打",
   "State_MY": "Kedah",
   "Founding_Year": 1952,
   "latlng": "5.701286°N 100.472268°E",
   "lat": "5.701286",
   "lng": "100.472268"
 },
 {
   "Name_ZH": " 双溪拉兰",
   "Name_MY": "Sungai Lalang",
   "District_ZH": "瓜拉姆达",
   "District_MY": "Kuala Muda",
   "State_ZH": "吉打",
   "State_MY": "Kedah",
   "Founding_Year": 1952,
   "latlng": "5.698234°N 100.514914°E",
   "lat": "5.698234",
   "lng": "100.514914"
 },
 {
   "Name_ZH": " 樟仑",
   "Name_MY": "Changlun",
   "District_ZH": "樟仑",
   "District_MY": "Changlun",
   "State_ZH": "吉打",
   "State_MY": "Kedah",
   "Founding_Year": 1952,
   "latlng": "6.432968°N 100.429609°E",
   "lat": "6.432968",
   "lng": "100.429609"
 },
 {
   "Name_ZH": " 双溪加拉岸",
   "Name_MY": "Sungai Karangan",
   "District_ZH": "居林",
   "District_MY": "Kulim",
   "State_ZH": "吉打",
   "State_MY": "Kedah",
   "Founding_Year": 1952,
   "latlng": "5.420775°N 100.667191°E",
   "lat": "5.420775",
   "lng": "100.667191"
 },
 {
   "Name_ZH": " 老火较",
   "Name_MY": "Kelang Lama",
   "District_ZH": "居林",
   "District_MY": "Kulim",
   "State_ZH": "吉打",
   "State_MY": "Kedah",
   "Founding_Year": 1952,
   "latlng": "5.388926°N 100.566936°E",
   "lat": "5.388926",
   "lng": "100.566936"
 },
 {
   "Name_ZH": " 硕莪廊",
   "Name_MY": "Kilang Sago",
   "District_ZH": "居林",
   "District_MY": "Kulim",
   "State_ZH": "吉打",
   "State_MY": "Kedah",
   "Founding_Year": 1952,
   "latlng": "5.371071°N 100.551454°E",
   "lat": "5.371071",
   "lng": "100.551454"
 },
 {
   "Name_ZH": " 鲁乃",
   "Name_MY": "Lunas",
   "District_ZH": "居林",
   "District_MY": "Kulim",
   "State_ZH": "吉打",
   "State_MY": "Kedah",
   "Founding_Year": 1952,
   "latlng": "5.431124°N 100.534097°E",
   "lat": "5.431124",
   "lng": "100.534097"
 },
 {
   "Name_ZH": " 巴东色海",
   "Name_MY": "Padang Serai",
   "District_ZH": "居林",
   "District_MY": "Kulim",
   "State_ZH": "吉打",
   "State_MY": "Kedah",
   "Founding_Year": 1952,
   "latlng": "5.510960°N 100.555920°E",
   "lat": "5.510960",
   "lng": "100.555920"
 },
 {
   "Name_ZH": " 双溪谷",
   "Name_MY": "Sungai Kob",
   "District_ZH": "居林",
   "District_MY": "Kulim",
   "State_ZH": "吉打",
   "State_MY": "Kedah",
   "Founding_Year": 1952,
   "latlng": "5.426795°N 100.643555°E",
   "lat": "5.426795",
   "lng": "100.643555"
 },
 {
   "Name_ZH": "六支碑村（顺安）",
   "Name_MY": "Bukit 6 (Bukit Lada)",
   "District_ZH": "居林",
   "District_MY": "Kulim",
   "State_ZH": "吉打",
   "State_MY": "Kedah",
   "Founding_Year": null,
   "latlng": "5.4577229°N 100.5633676°E",
   "lat": "5.4577229",
   "lng": "100.5633676"
 },
 {
   "Name_ZH": " 那加",
   "Name_MY": "Pekan Naka",
   "District_ZH": "巴东得腊",
   "District_MY": "Padag Terap",
   "State_ZH": "吉打",
   "State_MY": "Kedah",
   "Founding_Year": 1952,
   "latlng": "6.137784°N 100.673147°E",
   "lat": "6.137784",
   "lng": "100.673147"
 },
 {
   "Name_ZH": " 柏鲁",
   "Name_MY": "Tanjong Thai (Pedu)",
   "District_ZH": "巴东得腊",
   "District_MY": "Padag Terap",
   "State_ZH": "吉打",
   "State_MY": "Kedah",
   "Founding_Year": 1952,
   "latlng": "6.230379°N 100.694777°E",
   "lat": "6.230379",
   "lng": "100.694777"
 },
 {
   "Name_ZH": " 古拉",
   "Name_MY": "Kura",
   "District_ZH": "锡 ",
   "District_MY": "Sik",
   "State_ZH": "吉打",
   "State_MY": "Kedah",
   "Founding_Year": 1952,
   "latlng": "5.946123°N 100.667423°E",
   "lat": "5.946123",
   "lng": "100.667423"
 },
 {
   "Name_ZH": " 南美",
   "Name_MY": "Nami",
   "District_ZH": "锡 ",
   "District_MY": "Sik",
   "State_ZH": "吉打",
   "State_MY": "Kedah",
   "Founding_Year": 1952,
   "latlng": "6.050276°N 100.778152°E",
   "lat": "6.050276",
   "lng": "100.778152"
 },
 {
   "Name_ZH": "武拉必",
   "Name_MY": "Berapit",
   "District_ZH": "威省中区",
   "District_MY": "Seberang Perai Tengah",
   "State_ZH": "槟城",
   "State_MY": "Penang",
   "Founding_Year": 1954,
   "latlng": "5.381714°N 100.472257°E",
   "lat": "5.381714",
   "lng": "100.472257"
 },
 {
   "Name_ZH": "柔府",
   "Name_MY": "Juru",
   "District_ZH": "威省中区",
   "District_MY": "Seberang Perai Tengah",
   "State_ZH": "槟城",
   "State_MY": "Penang",
   "Founding_Year": 1954,
   "latlng": "5.314125°N 100.44358°E",
   "lat": "5.314125",
   "lng": "100.44358"
 },
 {
   "Name_ZH": "巴章武莫",
   "Name_MY": "Machang Bubok",
   "District_ZH": "威省中区",
   "District_MY": "Seberang Perai Tengah",
   "State_ZH": "槟城",
   "State_MY": "Penang",
   "Founding_Year": 1954,
   "latlng": "5.333998°N 100.508155°E",
   "lat": "5.333998",
   "lng": "100.508155"
 },
 {
   "Name_ZH": "峇东丁宜",
   "Name_MY": "Permatang Tinggi",
   "District_ZH": "威省中区",
   "District_MY": "Seberang Perai Tengah",
   "State_ZH": "槟城",
   "State_MY": "Penang",
   "Founding_Year": 1954,
   "latlng": "5.301277°N 100.478507°E",
   "lat": "5.301277",
   "lng": "100.478507"
 },
 {
   "Name_ZH": "双溪里武",
   "Name_MY": "Sungai Lembu",
   "District_ZH": "威省中区",
   "District_MY": "Seberang Perai Tengah",
   "State_ZH": "槟城",
   "State_MY": "Penang",
   "Founding_Year": 1954,
   "latlng": "5.390258°N 100.523077°E",
   "lat": "5.390258",
   "lng": "100.523077"
 },
 {
   "Name_ZH": "甘榜峇汝",
   "Name_MY": "Kampung Bahru",
   "District_ZH": "威省中区",
   "District_MY": "Seberang Perai Tengah",
   "State_ZH": "槟城",
   "State_MY": "Penang",
   "Founding_Year": null,
   "latlng": "5.3426°N 100.4708°E",
   "lat": "5.3426",
   "lng": "100.4708"
 },
 {
   "Name_ZH": "平安村",
   "Name_MY": "Kampung Selamat",
   "District_ZH": "威省中区",
   "District_MY": "Seberang Perai Tengah",
   "State_ZH": "槟城",
   "State_MY": "Penang",
   "Founding_Year": null,
   "latlng": "5.504918°N 100.514779°E",
   "lat": "5.504918",
   "lng": "100.514779"
 },
 {
   "Name_ZH": "瓜夷",
   "Name_MY": "Jawi",
   "District_ZH": "威省南区",
   "District_MY": "Seberang Perai Selatan",
   "State_ZH": "槟城",
   "State_MY": "Penang",
   "Founding_Year": 1954,
   "latlng": "5.211444°N 100.495237°E",
   "lat": "5.211444",
   "lng": "100.495237"
 },
 {
   "Name_ZH": "双溪格吉",
   "Name_MY": "Sungai Kecil",
   "District_ZH": "威省南区",
   "District_MY": "Seberang Perai Selatan",
   "State_ZH": "槟城",
   "State_MY": "Penang",
   "Founding_Year": 1954,
   "latlng": "5.164411°N 100.523190°E",
   "lat": "5.164411",
   "lng": "100.523190"
 },
 {
   "Name_ZH": "华都村",
   "Name_MY": "Kampung Val Dor",
   "District_ZH": "威省南区",
   "District_MY": "Seberang Perai Selatan",
   "State_ZH": "槟城",
   "State_MY": "Penang",
   "Founding_Year": 1954,
   "latlng": "5.241635°N 100.491300°E",
   "lat": "5.241635",
   "lng": "100.491300"
 },
 {
   "Name_ZH": "威利斯里",
   "Name_MY": "Wellesley",
   "District_ZH": "威省南区",
   "District_MY": "Seberang Perai Selatan",
   "State_ZH": "槟城",
   "State_MY": "Penang",
   "Founding_Year": 1954,
   "latlng": "5.211821°N 100.516084°E",
   "lat": "5.211821",
   "lng": "100.516084"
 },
 {
   "Name_ZH": "樟角村",
   "Name_MY": "Changkat",
   "District_ZH": "威省南区",
   "District_MY": "Seberang Perai Selatan",
   "State_ZH": "槟城",
   "State_MY": "Penang",
   "Founding_Year": null,
   "latlng": "5.198436°N 100.469718°E",
   "lat": "5.198436",
   "lng": "100.469718"
 },
 {
   "Name_ZH": "武吉淡纹峇眼",
   "Name_MY": "Bagan Bukit Tambun",
   "District_ZH": "威省南区",
   "District_MY": "Seberang Perai Selatan",
   "State_ZH": "槟城",
   "State_MY": "Penang",
   "Founding_Year": null,
   "latlng": "5.274689°N 100.444173°E",
   "lat": "5.274689",
   "lng": "100.444173"
 },
 {
   "Name_ZH": "高渊港口",
   "Name_MY": "Sungai Udang",
   "District_ZH": "威省南区",
   "District_MY": "Seberang Perai Selatan",
   "State_ZH": "槟城",
   "State_MY": "Penang",
   "Founding_Year": null,
   "latlng": "5.165217°N 100.427857°E",
   "lat": "5.165217",
   "lng": "100.427857"
 },
 {
   "Name_ZH": "亚当君令",
   "Name_MY": "Ayer Kuning",
   "District_ZH": "巴登峇当",
   "District_MY": "Batang Padang",
   "State_ZH": "霹雳",
   "State_MY": "Perak",
   "Founding_Year": 1950,
   "latlng": "4°11′21″N 101°08′33″E",
   "lat": "4.189166666666667",
   "lng": "101.14250000000001"
 },
 {
   "Name_ZH": "万岭",
   "Name_MY": "Banir",
   "District_ZH": "巴登峇当",
   "District_MY": "Batang Padang",
   "State_ZH": "霹雳",
   "State_MY": "Perak",
   "Founding_Year": 1950,
   "latlng": "4°12′32″N 101°10′48″E",
   "lat": "4.208888888888889",
   "lng": "101.18"
 },
 {
   "Name_ZH": "万岭园",
   "Name_MY": "Banir Estate",
   "District_ZH": "巴登峇当",
   "District_MY": "Batang Padang",
   "State_ZH": "霹雳",
   "State_MY": "Perak",
   "Founding_Year": 1950,
   "latlng": "4°13′21″N 101°13′35″E",
   "lat": "4.2225",
   "lng": "101.22638888888889"
 },
 {
   "Name_ZH": "美冷车站",
   "Name_MY": "Behrang Stesyen",
   "District_ZH": "巴登峇当",
   "District_MY": "Batang Padang",
   "State_ZH": "霹雳",
   "State_MY": "Perak",
   "Founding_Year": 1950,
   "latlng": "3°44′35″N 101°26′59″E",
   "lat": "3.743055555555556",
   "lng": "101.44972222222222"
 },
 {
   "Name_ZH": "美冷呼噜",
   "Name_MY": "Behrang Stesyen",
   "District_ZH": "巴登峇当",
   "District_MY": "Batang Padang",
   "State_ZH": "霹雳",
   "State_MY": "Perak",
   "Founding_Year": 1950,
   "latlng": "3°45′21″N 101°29′47″E",
   "lat": "3.7558333333333334",
   "lng": "101.49638888888889"
 },
 {
   "Name_ZH": "美罗",
   "Name_MY": "Bidor",
   "District_ZH": "巴登峇当",
   "District_MY": "Batang Padang",
   "State_ZH": "霹雳",
   "State_MY": "Perak",
   "Founding_Year": 1950,
   "latlng": "4°07′00″N 101°17′21″E",
   "lat": "4.116666666666666",
   "lng": "101.28916666666666"
 },
 {
   "Name_ZH": "美罗车站",
   "Name_MY": "Bidor Stesyen",
   "District_ZH": "巴登峇当",
   "District_MY": "Batang Padang",
   "State_ZH": "霹雳",
   "State_MY": "Perak",
   "Founding_Year": 1950,
   "latlng": "4°06′20″N 101°16′02″E",
   "lat": "4.105555555555555",
   "lng": "101.26722222222222"
 },
 {
   "Name_ZH": "宝结百家",
   "Name_MY": "Bukit Pagar",
   "District_ZH": "巴登峇当",
   "District_MY": "Batang Padang",
   "State_ZH": "霹雳",
   "State_MY": "Perak",
   "Founding_Year": 1950,
   "latlng": "4°11′10″N 101°15′59″E",
   "lat": "4.186111111111112",
   "lng": "101.26638888888888"
 },
 {
   "Name_ZH": "积莪营",
   "Name_MY": "Chenderiang",
   "District_ZH": "巴登峇当",
   "District_MY": "Batang Padang",
   "State_ZH": "霹雳",
   "State_MY": "Perak",
   "Founding_Year": 1951,
   "latlng": "4°15′53″N 101°14′16″E",
   "lat": "4.264722222222222",
   "lng": "101.23777777777778"
 },
 {
   "Name_ZH": "甘榜冷水河",
   "Name_MY": "Kampung Coldstream",
   "District_ZH": "巴登峇当",
   "District_MY": "Batang Padang",
   "State_ZH": "霹雳",
   "State_MY": "Perak",
   "Founding_Year": 1950,
   "latlng": "4°02′37″N 101°14′23″E",
   "lat": "4.043611111111111",
   "lng": "101.23972222222223"
 },
 {
   "Name_ZH": "各多庸",
   "Name_MY": "Kentoyong",
   "District_ZH": "巴登峇当",
   "District_MY": "Batang Padang",
   "State_ZH": "霹雳",
   "State_MY": "Perak",
   "Founding_Year": 1950,
   "latlng": "3.689577°N 101.516274°E",
   "lat": "3.689577",
   "lng": "101.516274"
 },
 {
   "Name_ZH": "金榜彭亨",
   "Name_MY": "Kampung Pahang",
   "District_ZH": "巴登峇当",
   "District_MY": "Batang Padang",
   "State_ZH": "霹雳",
   "State_MY": "Perak",
   "Founding_Year": 1951,
   "latlng": "4°13′02″N 101°16′32″E       ",
   "lat": "4.217222222222222",
   "lng": "101.27555555555556"
 },
 {
   "Name_ZH": "瓜拉美金",
   "Name_MY": "Kuala Bikam",
   "District_ZH": "巴登峇当",
   "District_MY": "Batang Padang",
   "State_ZH": "霹雳",
   "State_MY": "Perak",
   "Founding_Year": 1950,
   "latlng": "4°01′21″N 101°14′36″E",
   "lat": "4.0225",
   "lng": "101.24333333333334"
 },
 {
   "Name_ZH": "北根吉打",
   "Name_MY": "Pekan Getah",
   "District_ZH": "巴登峇当",
   "District_MY": "Batang Padang",
   "State_ZH": "霹雳",
   "State_MY": "Perak",
   "Founding_Year": 1950,
   "latlng": "4°11′18″N 101°13′30″E",
   "lat": "4.1883333333333335",
   "lng": "101.22500000000001"
 },
 {
   "Name_ZH": "不干巴沙",
   "Name_MY": "Pekan Pasir",
   "District_ZH": "巴登峇当",
   "District_MY": "Batang Padang",
   "State_ZH": "霹雳",
   "State_MY": "Perak",
   "Founding_Year": 1951,
   "latlng": "4°04′09″N 101°17′14″E",
   "lat": "4.069166666666667",
   "lng": "101.28722222222223"
 },
 {
   "Name_ZH": "宋溪古罗",
   "Name_MY": "Pekan Pasir",
   "District_ZH": "巴登峇当",
   "District_MY": "Batang Padang",
   "State_ZH": "霹雳",
   "State_MY": "Perak",
   "Founding_Year": 1950,
   "latlng": "4°13′8″N 101°08′24″E",
   "lat": "4.218888888888889",
   "lng": "101.14"
 },
 {
   "Name_ZH": "仕林河",
   "Name_MY": "Slim River",
   "District_ZH": "巴登峇当",
   "District_MY": "Batang Padang",
   "State_ZH": "霹雳",
   "State_MY": "Perak",
   "Founding_Year": 1950,
   "latlng": "3°49′54″N 101°24′02″E",
   "lat": "3.8316666666666666",
   "lng": "101.40055555555556"
 },
 {
   "Name_ZH": "仕林新村",
   "Name_MY": "Slim Village",
   "District_ZH": "巴登峇当",
   "District_MY": "Batang Padang",
   "State_ZH": "霹雳",
   "State_MY": "Perak",
   "Founding_Year": 1950,
   "latlng": "3°50′57″N 101°28′51″E",
   "lat": "3.8491666666666666",
   "lng": "101.48083333333334"
 },
 {
   "Name_ZH": "宋溪",
   "Name_MY": "Sungkai",
   "District_ZH": "巴登峇当",
   "District_MY": "Batang Padang",
   "State_ZH": "霹雳",
   "State_MY": "Perak",
   "Founding_Year": 1951,
   "latlng": "3°59′41″N 101°18′38″E",
   "lat": "3.9947222222222223",
   "lng": "101.31055555555555"
 },
 {
   "Name_ZH": "丹那马士",
   "Name_MY": "Tanah Mas",
   "District_ZH": "巴登峇当",
   "District_MY": "Batang Padang",
   "State_ZH": "霹雳",
   "State_MY": "Perak",
   "Founding_Year": 1950,
   "latlng": "4°08′41″N 101°15′58″E",
   "lat": "4.144722222222223",
   "lng": "101.26611111111112"
 },
 {
   "Name_ZH": "打巴路",
   "Name_MY": "Tapah Road",
   "District_ZH": "巴登峇当",
   "District_MY": "Batang Padang",
   "State_ZH": "霹雳",
   "State_MY": "Perak",
   "Founding_Year": 1952,
   "latlng": "4°10′19″N 101°11′30″E",
   "lat": "4.171944444444445",
   "lng": "101.19166666666668"
 },
 {
   "Name_ZH": "地摩 ",
   "Name_MY": "Temoh",
   "District_ZH": "巴登峇当",
   "District_MY": "Batang Padang",
   "State_ZH": "霹雳",
   "State_MY": "Perak",
   "Founding_Year": 1950,
   "latlng": "4°14′27″N 101°11′42″E",
   "lat": "4.240833333333334",
   "lng": "101.19500000000001"
 },
 {
   "Name_ZH": "十二碑",
   "Name_MY": "Batu 12",
   "District_ZH": "下霹雳",
   "District_MY": "Hilir Perak",
   "State_ZH": "霹雳",
   "State_MY": "Perak",
   "Founding_Year": 1950,
   "latlng": "4°00′12″N 101°10′26″E",
   "lat": "4.003333333333333",
   "lng": "101.1738888888889"
 },
 {
   "Name_ZH": "五丰路",
   "Name_MY": "Goh Hong",
   "District_ZH": "下霹雳",
   "District_MY": "Hilir Perak",
   "State_ZH": "霹雳",
   "State_MY": "Perak",
   "Founding_Year": 1960,
   "latlng": "4°01′39″N 101°08′02″E",
   "lat": "4.0275",
   "lng": "101.13388888888889"
 },
 {
   "Name_ZH": "水闸",
   "Name_MY": "Chui Chak",
   "District_ZH": "下霹雳",
   "District_MY": "Hilir Perak",
   "State_ZH": "霹雳",
   "State_MY": "Perak",
   "Founding_Year": 1950,
   "latlng": "4°02′41″N 101°10′20″E",
   "lat": "4.044722222222222",
   "lng": "101.17222222222223"
 },
 {
   "Name_ZH": "冷甲",
   "Name_MY": "Langkap",
   "District_ZH": "下霹雳",
   "District_MY": "Hilir Perak",
   "State_ZH": "霹雳",
   "State_MY": "Perak",
   "Founding_Year": 1950,
   "latlng": "4°04′18″N 101°08′57″E",
   "lat": "4.071666666666666",
   "lng": "101.14916666666667"
 },
 {
   "Name_ZH": "巴拉湾",
   "Name_MY": "Pahlawan",
   "District_ZH": "下霹雳",
   "District_MY": "Hilir Perak",
   "State_ZH": "霹雳",
   "State_MY": "Perak",
   "Founding_Year": 1949,
   "latlng": "4°04′00″N 101°11′15″E",
   "lat": "4.066666666666666",
   "lng": "101.1875"
 },
 {
   "Name_ZH": "芭尾",
   "Name_MY": "Pasir Bedamar",
   "District_ZH": "下霹雳",
   "District_MY": "Hilir Perak",
   "State_ZH": "霹雳",
   "State_MY": "Perak",
   "Founding_Year": 1950,
   "latlng": "4°02′06″N 101°00′21″E",
   "lat": "4.035",
   "lng": "101.00583333333333"
 },
 {
   "Name_ZH": "新邦安拔",
   "Name_MY": "Simpang Empat",
   "District_ZH": "下霹雳",
   "District_MY": "Hilir Perak",
   "State_ZH": "霹雳",
   "State_MY": "Perak",
   "Founding_Year": 1950,
   "latlng": "3°53′46″N 100°56′13″E",
   "lat": "3.8961111111111113",
   "lng": "100.93694444444445"
 },
 {
   "Name_ZH": "阿育加拉",
   "Name_MY": "Ayer Kala",
   "District_ZH": "上霹雳",
   "District_MY": "Hulu Perak",
   "State_ZH": "霹雳",
   "State_MY": "Perak",
   "Founding_Year": 1951,
   "latlng": "5°11′41″N 101°03′26″E",
   "lat": "5.1947222222222225",
   "lng": "101.05722222222222"
 },
 {
   "Name_ZH": "巴都鲁亚",
   "Name_MY": "Batu 2",
   "District_ZH": "上霹雳",
   "District_MY": "Hulu Perak",
   "State_ZH": "霹雳",
   "State_MY": "Perak",
   "Founding_Year": 1950,
   "latlng": "5°27′08″N 101°01′24″E",
   "lat": "5.452222222222223",
   "lng": "101.02333333333333"
 },
 {
   "Name_ZH": "仁丹",
   "Name_MY": "Klian Intan",
   "District_ZH": "上霹雳",
   "District_MY": "Hulu Perak",
   "State_ZH": "霹雳",
   "State_MY": "Perak",
   "Founding_Year": 1952,
   "latlng": "5°38′09″N 101°01′24″E",
   "lat": "5.635833333333333",
   "lng": "101.02333333333333"
 },
 {
   "Name_ZH": "哥打淡板新村",
   "Name_MY": "Klian Intan",
   "District_ZH": "上霹雳",
   "District_MY": "Hulu Perak",
   "State_ZH": "霹雳",
   "State_MY": "Perak",
   "Founding_Year": 1952,
   "latlng": "5°03′21″N 100°57′57″E",
   "lat": "5.055833333333333",
   "lng": "100.96583333333334"
 },
 {
   "Name_ZH": "瓜拉雷新村",
   "Name_MY": "Kuala Rui",
   "District_ZH": "上霹雳",
   "District_MY": "Hulu Perak",
   "State_ZH": "霹雳",
   "State_MY": "Perak",
   "Founding_Year": 1957,
   "latlng": "5°27′29″N 101°10′14″E",
   "lat": "5.458055555555556",
   "lng": "101.17055555555557"
 },
 {
   "Name_ZH": "巴登古鲁",
   "Name_MY": "Padang Gerus",
   "District_ZH": "上霹雳",
   "District_MY": "Hulu Perak",
   "State_ZH": "霹雳",
   "State_MY": "Perak",
   "Founding_Year": 1951,
   "latlng": "5°09′56″N 101°00′55″E",
   "lat": "5.165555555555556",
   "lng": "101.01527777777778"
 },
 {
   "Name_ZH": "高乌",
   "Name_MY": "Pengkalan Hulu",
   "District_ZH": "上霹雳",
   "District_MY": "Hulu Perak",
   "State_ZH": "霹雳",
   "State_MY": "Perak",
   "Founding_Year": 1959,
   "latlng": "5°42′16″N 101°02′08″E",
   "lat": "5.704444444444444",
   "lng": "101.03555555555555"
 },
 {
   "Name_ZH": "士力百加",
   "Name_MY": "Selat Pagar",
   "District_ZH": "上霹雳",
   "District_MY": "Hulu Perak",
   "State_ZH": "霹雳",
   "State_MY": "Perak",
   "Founding_Year": 1950,
   "latlng": "5°10′45″N 101°02′08″E",
   "lat": "5.179166666666667",
   "lng": "101.03555555555555"
 },
 {
   "Name_ZH": "打昔",
   "Name_MY": "Tasek",
   "District_ZH": "上霹雳",
   "District_MY": "Hulu Perak",
   "State_ZH": "霹雳",
   "State_MY": "Perak",
   "Founding_Year": 1950,
   "latlng": "5°39′58″N 100°58′21″E",
   "lat": "5.666111111111111",
   "lng": "100.9725"
 },
 {
   "Name_ZH": "八号村",
   "Name_MY": "U.P.R.A.(8)",
   "District_ZH": "上霹雳",
   "District_MY": "Hulu Perak",
   "State_ZH": "霹雳",
   "State_MY": "Perak",
   "Founding_Year": 1951,
   "latlng": "5°26′02″N 101°07′41″E",
   "lat": "5.433888888888889",
   "lng": "101.12805555555555"
 },
 {
   "Name_ZH": "暗邦",
   "Name_MY": "Ampang Baru",
   "District_ZH": "近打 ",
   "District_MY": "Kinta",
   "State_ZH": "霹雳",
   "State_MY": "Perak",
   "Founding_Year": 1953,
   "latlng": "4°35′14″N 101°07′48″E",
   "lat": "4.587222222222222",
   "lng": "101.13"
 },
 {
   "Name_ZH": "百利",
   "Name_MY": "Bali",
   "District_ZH": "近打 ",
   "District_MY": "Kinta",
   "State_ZH": "霹雳",
   "State_MY": "Perak",
   "Founding_Year": 1951,
   "latlng": "4°23′38″N 101°00′20″E",
   "lat": "4.393888888888889",
   "lng": "101.00555555555556"
 },
 {
   "Name_ZH": "民万",
   "Name_MY": "Bemban",
   "District_ZH": "近打 ",
   "District_MY": "Kinta",
   "State_ZH": "霹雳",
   "State_MY": "Perak",
   "Founding_Year": 1950,
   "latlng": "4°27′29.30″N 101°0′43.25″E",
   "lat": "4.458055555555556",
   "lng": "101.01194444444444"
 },
 {
   "Name_ZH": "巴占新村",
   "Name_MY": "Kampung Bereham",
   "District_ZH": "近打 ",
   "District_MY": "Kinta",
   "State_ZH": "霹雳",
   "State_MY": "Perak",
   "Founding_Year": 1950,
   "latlng": "4°38′18″N 101°07′41″E",
   "lat": "4.638333333333333",
   "lng": "101.12805555555555"
 },
 {
   "Name_ZH": "红泥山",
   "Name_MY": "Bukit Merah",
   "District_ZH": "近打 ",
   "District_MY": "Kinta",
   "State_ZH": "霹雳",
   "State_MY": "Perak",
   "Founding_Year": 1950,
   "latlng": "4°33′6.3″N 101°2′25″E",
   "lat": "4.551666666666667",
   "lng": "101.04027777777777"
 },
 {
   "Name_ZH": "文冬",
   "Name_MY": "Buntong",
   "District_ZH": "近打 ",
   "District_MY": "Kinta",
   "State_ZH": "霹雳",
   "State_MY": "Perak",
   "Founding_Year": 1950,
   "latlng": "4°35′53″N 101°03′48″E",
   "lat": "4.598055555555555",
   "lng": "101.06333333333333"
 },
 {
   "Name_ZH": "曾吉京丁",
   "Name_MY": "Changkat Kinding",
   "District_ZH": "近打 ",
   "District_MY": "Kinta",
   "State_ZH": "霹雳",
   "State_MY": "Perak",
   "Founding_Year": 1951,
   "latlng": "4°41′58″N 101°09′03″E",
   "lat": "4.6994444444444445",
   "lng": "101.15083333333334"
 },
 {
   "Name_ZH": "珠宝",
   "Name_MY": "Chemor R.A.",
   "District_ZH": "近打 ",
   "District_MY": "Kinta",
   "State_ZH": "霹雳",
   "State_MY": "Perak",
   "Founding_Year": 1950,
   "latlng": "4°43′17″N 101°07′08″E",
   "lat": "4.721388888888889",
   "lng": "101.11888888888888"
 },
 {
   "Name_ZH": "贞德隆",
   "Name_MY": "Chenderong",
   "District_ZH": "近打 ",
   "District_MY": "Kinta",
   "State_ZH": "霹雳",
   "State_MY": "Perak",
   "Founding_Year": 1950,
   "latlng": "4°24′26″N 101°03′02″E",
   "lat": "4.407222222222223",
   "lng": "101.05055555555555"
 },
 {
   "Name_ZH": "华林市",
   "Name_MY": "Falim",
   "District_ZH": "近打 ",
   "District_MY": "Kinta",
   "State_ZH": "霹雳",
   "State_MY": "Perak",
   "Founding_Year": 1950,
   "latlng": "4°34′54″N 101°03′49″E",
   "lat": "4.581666666666666",
   "lng": "101.06361111111111"
 },
 {
   "Name_ZH": "喜明村/布先",
   "Name_MY": "Gunung Hijau/ Pusing",
   "District_ZH": "近打 ",
   "District_MY": "Kinta",
   "State_ZH": "霹雳",
   "State_MY": "Perak",
   "Founding_Year": 1950,
   "latlng": "4°29′27″N 101°00′20″E",
   "lat": "4.490833333333334",
   "lng": "101.00555555555556"
 },
 {
   "Name_ZH": "昆仑喇叭新村",
   "Name_MY": "Gunung Rapat",
   "District_ZH": "近打 ",
   "District_MY": "Kinta",
   "State_ZH": "霹雳",
   "State_MY": "Perak",
   "Founding_Year": 1950,
   "latlng": "4°34′20″N 101°07′13″E",
   "lat": "4.572222222222222",
   "lng": "101.12027777777777"
 },
 {
   "Name_ZH": "印度徒置村（曾吉）",
   "Name_MY": "Indian Settlelement (Desa Changkat)",
   "District_ZH": "近打 ",
   "District_MY": "Kinta",
   "State_ZH": "霹雳",
   "State_MY": "Perak",
   "Founding_Year": 1951,
   "latlng": "4°28′39″N 101°01′44″E",
   "lat": "4.4775",
   "lng": "101.02888888888889"
 },
 {
   "Name_ZH": "九洞",
   "Name_MY": "Jelapang",
   "District_ZH": "近打 ",
   "District_MY": "Kinta",
   "State_ZH": "霹雳",
   "State_MY": "Perak",
   "Founding_Year": 1953,
   "latlng": "4°38′14″N 101°03′35″E",
   "lat": "4.6372222222222215",
   "lng": "101.05972222222222"
 },
 {
   "Name_ZH": "师美新村",
   "Name_MY": "Kampung Simee",
   "District_ZH": "近打 ",
   "District_MY": "Kinta",
   "State_ZH": "霹雳",
   "State_MY": "Perak",
   "Founding_Year": 1950,
   "latlng": "4°37′03″N 101°06′36″E",
   "lat": "4.617500000000001",
   "lng": "101.11"
 },
 {
   "Name_ZH": "甘榜斗华",
   "Name_MY": "Kampung Tawas",
   "District_ZH": "近打 ",
   "District_MY": "Kinta",
   "State_ZH": "霹雳",
   "State_MY": "Perak",
   "Founding_Year": 1951,
   "latlng": "4°38′54″N 101°06′01″E",
   "lat": "4.6483333333333325",
   "lng": "101.10027777777778"
 },
 {
   "Name_ZH": "甘榜地马",
   "Name_MY": "Kampung Timah",
   "District_ZH": "近打 ",
   "District_MY": "Kinta",
   "State_ZH": "霹雳",
   "State_MY": "Perak",
   "Founding_Year": 1951,
   "latlng": "4°16′58″N 101°03′13″E",
   "lat": "4.282777777777778",
   "lng": "101.05361111111111"
 },
 {
   "Name_ZH": "拱桥",
   "Name_MY": "Kanthan Bharu",
   "District_ZH": "近打 ",
   "District_MY": "Kinta",
   "State_ZH": "霹雳",
   "State_MY": "Perak",
   "Founding_Year": 1951,
   "latlng": "4°44′30″N 101°07′06″E",
   "lat": "4.741666666666667",
   "lng": "101.11833333333333"
 },
 {
   "Name_ZH": "瓜拉光",
   "Name_MY": "Kuala Kuang",
   "District_ZH": "近打 ",
   "District_MY": "Kinta",
   "State_ZH": "霹雳",
   "State_MY": "Perak",
   "Founding_Year": 1951,
   "latlng": "4°44′30″N 101°07′06″E",
   "lat": "4.741666666666667",
   "lng": "101.11833333333333"
 },
 {
   "Name_ZH": "拿乞",
   "Name_MY": "Lahat",
   "District_ZH": "近打 ",
   "District_MY": "Kinta",
   "State_ZH": "霹雳",
   "State_MY": "Perak",
   "Founding_Year": 1950,
   "latlng": "4°32′17″N 101°02′14″E",
   "lat": "4.538055555555555",
   "lng": "101.03722222222223"
 },
 {
   "Name_ZH": " 林旦",
   "Name_MY": "Lim Tan",
   "District_ZH": "近打 ",
   "District_MY": "Kinta",
   "State_ZH": "霹雳",
   "State_MY": "Perak",
   "Founding_Year": 1950,
   "latlng": "4°39′32″N 101°09′27″E",
   "lat": "4.658888888888889",
   "lng": "101.1575"
 },
 {
   "Name_ZH": "万里望",
   "Name_MY": "Menglembu",
   "District_ZH": "近打 ",
   "District_MY": "Kinta",
   "State_ZH": "霹雳",
   "State_MY": "Perak",
   "Founding_Year": 1951,
   "latlng": "4°39′32″N 101°09′27″E",
   "lat": "4.658888888888889",
   "lng": "101.1575"
 },
 {
   "Name_ZH": "那拉",
   "Name_MY": "Nalla",
   "District_ZH": "近打 ",
   "District_MY": "Kinta",
   "State_ZH": "霹雳",
   "State_MY": "Perak",
   "Founding_Year": 1951,
   "latlng": "4°25′22″N 100°58′37″E",
   "lat": "4.422777777777778",
   "lng": "100.97694444444444"
 },
 {
   "Name_ZH": "甲板",
   "Name_MY": "Papan",
   "District_ZH": "近打 ",
   "District_MY": "Kinta",
   "State_ZH": "霹雳",
   "State_MY": "Perak",
   "Founding_Year": 1950,
   "latlng": "4°30′54″N 101°00′44″E",
   "lat": "4.515",
   "lng": "101.01222222222222"
 },
 {
   "Name_ZH": "新甲板",
   "Name_MY": "Papan Baru",
   "District_ZH": "近打 ",
   "District_MY": "Kinta",
   "State_ZH": "霹雳",
   "State_MY": "Perak",
   "Founding_Year": 1957,
   "latlng": "4°30′12″N 101°00′58″E",
   "lat": "4.503333333333333",
   "lng": "101.01611111111112"
 },
 {
   "Name_ZH": "兵如港",
   "Name_MY": "Pasir Pinji",
   "District_ZH": "近打 ",
   "District_MY": "Kinta",
   "State_ZH": "霹雳",
   "State_MY": "Perak",
   "Founding_Year": 1950,
   "latlng": "4°34′29″N 101°05′19″E",
   "lat": "4.574722222222222",
   "lng": "101.0886111111111"
 },
 {
   "Name_ZH": "新邦波赖",
   "Name_MY": "Simpang Pulai",
   "District_ZH": "近打 ",
   "District_MY": "Kinta",
   "State_ZH": "霹雳",
   "State_MY": "Perak",
   "Founding_Year": 1951,
   "latlng": "4°31′49″N 101°07′33″E",
   "lat": "4.530277777777778",
   "lng": "101.12583333333333"
 },
 {
   "Name_ZH": "双溪榴莲",
   "Name_MY": "Sungai Durian",
   "District_ZH": "近打 ",
   "District_MY": "Kinta",
   "State_ZH": "霹雳",
   "State_MY": "Perak",
   "Founding_Year": 1951,
   "latlng": "4°19′05″N 101°02′07″E",
   "lat": "4.3180555555555555",
   "lng": "101.03527777777778"
 },
 {
   "Name_ZH": "打扪",
   "Name_MY": "Tambun",
   "District_ZH": "近打 ",
   "District_MY": "Kinta",
   "State_ZH": "霹雳",
   "State_MY": "Perak",
   "Founding_Year": 1952,
   "latlng": "4°36′27″N 101°08′16″E",
   "lat": "4.6075",
   "lng": "101.13777777777779"
 },
 {
   "Name_ZH": "丹那依淡",
   "Name_MY": "Tanah Hitam",
   "District_ZH": "近打 ",
   "District_MY": "Kinta",
   "State_ZH": "霹雳",
   "State_MY": "Perak",
   "Founding_Year": 1951,
   "latlng": "4°43′40″N 101°08′33″E",
   "lat": "4.727777777777778",
   "lng": "101.14250000000001"
 },
 {
   "Name_ZH": "红毛丹",
   "Name_MY": "Tanjong Rambutan RA",
   "District_ZH": "近打 ",
   "District_MY": "Kinta",
   "State_ZH": "霹雳",
   "State_MY": "Perak",
   "Founding_Year": 1950,
   "latlng": "4°40′12.54″N 101°9′16.94″E",
   "lat": "4.67",
   "lng": "101.15444444444445"
 },
 {
   "Name_ZH": "督亚冷",
   "Name_MY": "Tanjong Tualang",
   "District_ZH": "近打 ",
   "District_MY": "Kinta",
   "State_ZH": "霹雳",
   "State_MY": "Perak",
   "Founding_Year": 1950,
   "latlng": "4°19′34″N 101°03′26″E",
   "lat": "4.326111111111111",
   "lng": "101.05722222222222"
 },
 {
   "Name_ZH": "瑶伦",
   "Name_MY": "Jerlun",
   "District_ZH": "江沙",
   "District_MY": "Kuala Kangsar",
   "State_ZH": "霹雳",
   "State_MY": "Perak",
   "Founding_Year": 1952,
   "latlng": "4°43′58″N 100°54′36″E",
   "lat": "4.732777777777778",
   "lng": "100.91000000000001"
 },
 {
   "Name_ZH": "永梧",
   "Name_MY": "Kati",
   "District_ZH": "江沙",
   "District_MY": "Kuala Kangsar",
   "State_ZH": "霹雳",
   "State_MY": "Perak",
   "Founding_Year": 1950,
   "latlng": "4°52′34″N 100°54′25″E",
   "lat": "4.876111111111111",
   "lng": "100.90694444444445"
 },
 {
   "Name_ZH": "叻沙",
   "Name_MY": "Lasah",
   "District_ZH": "江沙",
   "District_MY": "Kuala Kangsar",
   "State_ZH": "霹雳",
   "State_MY": "Perak",
   "Founding_Year": 1951,
   "latlng": "4°57′19″N 101°07′18″E",
   "lat": "4.955277777777778",
   "lng": "101.12166666666666"
 },
 {
   "Name_ZH": "利民加地",
   "Name_MY": "Liman Kati",
   "District_ZH": "江沙",
   "District_MY": "Kuala Kangsar",
   "State_ZH": "霹雳",
   "State_MY": "Perak",
   "Founding_Year": 1951,
   "latlng": "4°51′06″N 100°54′06″E",
   "lat": "4.851666666666667",
   "lng": "100.90166666666667"
 },
 {
   "Name_ZH": "连登",
   "Name_MY": "Lintang",
   "District_ZH": "江沙",
   "District_MY": "Kuala Kangsar",
   "State_ZH": "霹雳",
   "State_MY": "Perak",
   "Founding_Year": 1950,
   "latlng": "4°56′19″N 101°06′08″E",
   "lat": "4.938611111111111",
   "lng": "101.10222222222221"
 },
 {
   "Name_ZH": "万浓",
   "Name_MY": "Manong",
   "District_ZH": "江沙",
   "District_MY": "Kuala Kangsar",
   "State_ZH": "霹雳",
   "State_MY": "Perak",
   "Founding_Year": 1954,
   "latlng": "4°35′38″N 100°52′53″E",
   "lat": "4.5938888888888885",
   "lng": "100.88138888888888"
 },
 {
   "Name_ZH": "硝山",
   "Name_MY": "Padang Rengas",
   "District_ZH": "江沙",
   "District_MY": "Kuala Kangsar",
   "State_ZH": "霹雳",
   "State_MY": "Perak",
   "Founding_Year": 1952,
   "latlng": "4°46′27″N 100°50′33″E",
   "lat": "4.774166666666667",
   "lng": "100.8425"
 },
 {
   "Name_ZH": "林马班让",
   "Name_MY": "Rimba Panjang",
   "District_ZH": "江沙",
   "District_MY": "Kuala Kangsar",
   "State_ZH": "霹雳",
   "State_MY": "Perak",
   "Founding_Year": 1951,
   "latlng": "4°47′52″N 101°06′04″E",
   "lat": "4.797777777777777",
   "lng": "101.10111111111111"
 },
 {
   "Name_ZH": "新沙力",
   "Name_MY": "Salak Baharu",
   "District_ZH": "江沙",
   "District_MY": "Kuala Kangsar",
   "State_ZH": "霹雳",
   "State_MY": "Perak",
   "Founding_Year": 1950,
   "latlng": "4°50′30″N 100°59′37″E",
   "lat": "4.841666666666667",
   "lng": "100.99361111111111"
 },
 {
   "Name_ZH": "沙力北",
   "Name_MY": "Salak Utara",
   "District_ZH": "江沙",
   "District_MY": "Kuala Kangsar",
   "State_ZH": "霹雳",
   "State_MY": "Perak",
   "Founding_Year": 1950,
   "latlng": "4°50′05″N 101°00′30″E",
   "lat": "4.834722222222222",
   "lng": "101.00833333333334"
 },
 {
   "Name_ZH": "新寿活新村",
   "Name_MY": "Sauk",
   "District_ZH": "江沙",
   "District_MY": "Kuala Kangsar",
   "State_ZH": "霹雳",
   "State_MY": "Perak",
   "Founding_Year": 1950,
   "latlng": "4°56′05″N 100°55′16″E",
   "lat": "4.934722222222223",
   "lng": "100.92111111111112"
 },
 {
   "Name_ZH": "竹芭",
   "Name_MY": "Sungai Buluh",
   "District_ZH": "江沙",
   "District_MY": "Kuala Kangsar",
   "State_ZH": "霹雳",
   "State_MY": "Perak",
   "Founding_Year": 1951,
   "latlng": "4°49′13″N 101°03′47″E",
   "lat": "4.820277777777777",
   "lng": "101.06305555555555"
 },
 {
   "Name_ZH": "新邦也郎",
   "Name_MY": "Simpang Jalong",
   "District_ZH": "江沙",
   "District_MY": "Kuala Kangsar",
   "State_ZH": "霹雳",
   "State_MY": "Perak",
   "Founding_Year": 1952,
   "latlng": "4°49′23″N 101°05′31″E",
   "lat": "4.823055555555555",
   "lng": "101.09194444444444"
 },
 {
   "Name_ZH": "亚逸都润",
   "Name_MY": "Ayer Terjun",
   "District_ZH": "拉律马当 ",
   "District_MY": "Larut Matang",
   "State_ZH": "霹雳",
   "State_MY": "Perak",
   "Founding_Year": 1950,
   "latlng": "4°38′33.9″N 100°42′40.4″E",
   "lat": "4.642499999999999",
   "lng": "100.71111111111111"
 },
 {
   "Name_ZH": "后廊",
   "Name_MY": "Aulong",
   "District_ZH": "拉律马当 ",
   "District_MY": "Larut Matang",
   "State_ZH": "霹雳",
   "State_MY": "Perak",
   "Founding_Year": 1952,
   "latlng": "4°51′11.5″N 100°42′45.9″E",
   "lat": "4.853055555555555",
   "lng": "100.7125"
 },
 {
   "Name_ZH": "峇都古楼",
   "Name_MY": "Batu Kurau",
   "District_ZH": "拉律马当 ",
   "District_MY": "Larut Matang",
   "State_ZH": "霹雳",
   "State_MY": "Perak",
   "Founding_Year": 1956,
   "latlng": "4°58′29.4″N 100°47′58.6″E",
   "lat": "4.974722222222223",
   "lng": "100.79944444444445"
 },
 {
   "Name_ZH": "新路口",
   "Name_MY": "Changkat Jering",
   "District_ZH": "拉律马当 ",
   "District_MY": "Larut Matang",
   "State_ZH": "霹雳",
   "State_MY": "Perak",
   "Founding_Year": 1950,
   "latlng": "4°47′27.4″N 100°43′13.7″E",
   "lat": "4.7908333333333335",
   "lng": "100.72027777777778"
 },
 {
   "Name_ZH": "日睐",
   "Name_MY": "Jelai",
   "District_ZH": "拉律马当 ",
   "District_MY": "Larut Matang",
   "State_ZH": "霹雳",
   "State_MY": "Perak",
   "Founding_Year": 1952,
   "latlng": "5°00′43.2″N 100°48′37.9″E",
   "lat": "5.0119444444444445",
   "lng": "100.81027777777777"
 },
 {
   "Name_ZH": "甘文丁",
   "Name_MY": "Kamunting",
   "District_ZH": "拉律马当 ",
   "District_MY": "Larut Matang",
   "State_ZH": "霹雳",
   "State_MY": "Perak",
   "Founding_Year": 1956,
   "latlng": "4°53′27.6″N 100°44′05.1″E",
   "lat": "4.890833333333333",
   "lng": "100.73472222222222"
 },
 {
   "Name_ZH": "甘榜槟榔",
   "Name_MY": "Kampung Pinang",
   "District_ZH": "拉律马当 ",
   "District_MY": "Larut Matang",
   "State_ZH": "霹雳",
   "State_MY": "Perak",
   "Founding_Year": 1956,
   "latlng": "4°53′00.7″N 100°43′34.6″E",
   "lat": "4.883333333333333",
   "lng": "100.72611111111111"
 },
 {
   "Name_ZH": "瓜拉十八丁",
   "Name_MY": "Kuala Sepetang",
   "District_ZH": "拉律马当 ",
   "District_MY": "Larut Matang",
   "State_ZH": "霹雳",
   "State_MY": "Perak",
   "Founding_Year": 1952,
   "latlng": "4°50′18.7″N 100°37′44.6″E",
   "lat": "4.838333333333333",
   "lng": "100.62888888888888"
 },
 {
   "Name_ZH": "古武加牙",
   "Name_MY": "Kubu Gajah",
   "District_ZH": "拉律马当 ",
   "District_MY": "Larut Matang",
   "State_ZH": "霹雳",
   "State_MY": "Perak",
   "Founding_Year": 1950,
   "latlng": "5°09′51.7″N 100°40′35.5″E",
   "lat": "5.1641666666666675",
   "lng": "100.6763888888889"
 },
 {
   "Name_ZH": "马登",
   "Name_MY": "Matang",
   "District_ZH": "拉律马当 ",
   "District_MY": "Larut Matang",
   "State_ZH": "霹雳",
   "State_MY": "Perak",
   "Founding_Year": 1950,
   "latlng": "4°49′11.4″N 100°40′16.2″E",
   "lat": "4.819722222222222",
   "lng": "100.67111111111112"
 },
 {
   "Name_ZH": "峇登牙也",
   "Name_MY": "Padang Gajah",
   "District_ZH": "拉律马当 ",
   "District_MY": "Larut Matang",
   "State_ZH": "霹雳",
   "State_MY": "Perak",
   "Founding_Year": 1954,
   "latlng": "4°36′54.3″N 100°42′59″E",
   "lat": "4.614999999999999",
   "lng": "100.71638888888889"
 },
 {
   "Name_ZH": "大直弄",
   "Name_MY": "Pasir Hitam",
   "District_ZH": "拉律马当 ",
   "District_MY": "Larut Matang",
   "State_ZH": "霹雳",
   "State_MY": "Perak",
   "Founding_Year": 1950,
   "latlng": "4°38′51.1″N 100°36′56.4″E",
   "lat": "4.6475",
   "lng": "100.61555555555555"
 },
 {
   "Name_ZH": "保阁亚三",
   "Name_MY": "Pokok Assam",
   "District_ZH": "拉律马当 ",
   "District_MY": "Larut Matang",
   "State_ZH": "霹雳",
   "State_MY": "Perak",
   "Founding_Year": 1951,
   "latlng": "4°49′42.3″N 100°44′18.4″E",
   "lat": "4.828333333333333",
   "lng": "100.73833333333333"
 },
 {
   "Name_ZH": "拿都班央",
   "Name_MY": "Rantau Panjang",
   "District_ZH": "拉律马当 ",
   "District_MY": "Larut Matang",
   "State_ZH": "霹雳",
   "State_MY": "Perak",
   "Founding_Year": 1950,
   "latlng": "5°14′25″N 100°43′49.4″E",
   "lat": "5.240277777777778",
   "lng": "100.73027777777779"
 },
 {
   "Name_ZH": "连登班央",
   "Name_MY": "Redang Panjang",
   "District_ZH": "拉律马当 ",
   "District_MY": "Larut Matang",
   "State_ZH": "霹雳",
   "State_MY": "Perak",
   "Founding_Year": 1950,
   "latlng": "5°06′56.9″N 100°46′59.2″E",
   "lat": "5.115555555555555",
   "lng": "100.78305555555555"
 },
 {
   "Name_ZH": "双溪古隆",
   "Name_MY": "Sungai Kerang",
   "District_ZH": "拉律马当 ",
   "District_MY": "Larut Matang",
   "State_ZH": "霹雳",
   "State_MY": "Perak",
   "Founding_Year": 1952,
   "latlng": "4°35′46.6″N 100°40′54.3″E",
   "lat": "4.596111111111111",
   "lng": "100.68166666666667"
 },
 {
   "Name_ZH": "双溪罗丹",
   "Name_MY": "Sungai Rotan",
   "District_ZH": "拉律马当 ",
   "District_MY": "Larut Matang",
   "State_ZH": "霹雳",
   "State_MY": "Perak",
   "Founding_Year": 1950,
   "latlng": "4°33′21.5″N 100°44′05″E",
   "lat": "4.555833333333333",
   "lng": "100.73472222222222"
 },
 {
   "Name_ZH": "双溪达立",
   "Name_MY": "Sungai Terap",
   "District_ZH": "拉律马当 ",
   "District_MY": "Larut Matang",
   "State_ZH": "霹雳",
   "State_MY": "Perak",
   "Founding_Year": 1950,
   "latlng": "5°12′12.6″N 100°41′01.0″E",
   "lat": "5.203333333333333",
   "lng": "100.68361111111112"
 },
 {
   "Name_ZH": " 新板 ",
   "Name_MY": "Simpang",
   "District_ZH": "拉律马当 ",
   "District_MY": "Larut Matang",
   "State_ZH": "霹雳",
   "State_MY": "Perak",
   "Founding_Year": 1952,
   "latlng": "4°49′13.2″N 100°42′37.5″E",
   "lat": "4.820277777777777",
   "lng": "100.71027777777778"
 },
 {
   "Name_ZH": "淡布落",
   "Name_MY": "Temerloh",
   "District_ZH": "拉律马当 ",
   "District_MY": "Larut Matang",
   "State_ZH": "霹雳",
   "State_MY": "Perak",
   "Founding_Year": 1950,
   "latlng": "4°39′06.3″N 100°41′33.8″E",
   "lat": "4.651666666666667",
   "lng": "100.69250000000001"
 },
 {
   "Name_ZH": "直弄",
   "Name_MY": "Terung",
   "District_ZH": "拉律马当 ",
   "District_MY": "Larut Matang",
   "State_ZH": "霹雳",
   "State_MY": "Perak",
   "Founding_Year": 1952,
   "latlng": "4°42′28.9″N 100°43′12.9″E",
   "lat": "4.707777777777778",
   "lng": "100.72"
 },
 {
   "Name_ZH": "爱大华",
   "Name_MY": "Ayer Tawar",
   "District_ZH": "曼绒",
   "District_MY": "Manjung",
   "State_ZH": "霹雳",
   "State_MY": "Perak",
   "Founding_Year": 1951,
   "latlng": "4°17′38″N 100°45′33″E",
   "lat": "4.293888888888889",
   "lng": "100.75916666666667"
 },
 {
   "Name_ZH": "木歪",
   "Name_MY": "Beruas",
   "District_ZH": "曼绒",
   "District_MY": "Manjung",
   "State_ZH": "霹雳",
   "State_MY": "Perak",
   "Founding_Year": 1951,
   "latlng": "4°29′56″N 100°47′26″E",
   "lat": "4.498888888888889",
   "lng": "100.79055555555556"
 },
 {
   "Name_ZH": "莫珍歪",
   "Name_MY": "Changkat Keruing",
   "District_ZH": "曼绒",
   "District_MY": "Manjung",
   "State_ZH": "霹雳",
   "State_MY": "Perak",
   "Founding_Year": 1951,
   "latlng": "4°22′38″N 100°41′12″E",
   "lat": "4.377222222222222",
   "lng": "100.68666666666667"
 },
 {
   "Name_ZH": "福清洋",
   "Name_MY": "Kampung Cina Sitiawan",
   "District_ZH": "曼绒",
   "District_MY": "Manjung",
   "State_ZH": "霹雳",
   "State_MY": "Perak",
   "Founding_Year": 1951,
   "latlng": "4°11′39″N 100°41′07″E",
   "lat": "4.194166666666667",
   "lng": "100.68527777777778"
 },
 {
   "Name_ZH": "哲仁新村",
   "Name_MY": "Kampung Jering",
   "District_ZH": "曼绒",
   "District_MY": "Manjung",
   "State_ZH": "霹雳",
   "State_MY": "Perak",
   "Founding_Year": 1951,
   "latlng": "4°20′47″N 100°46′41″E",
   "lat": "4.346388888888889",
   "lng": "100.77805555555555"
 },
 {
   "Name_ZH": "甘文阁",
   "Name_MY": "Kampung Koh",
   "District_ZH": "曼绒",
   "District_MY": "Manjung",
   "State_ZH": "霹雳",
   "State_MY": "Perak",
   "Founding_Year": 1951,
   "latlng": "4°11′19″N 100°42′19″E",
   "lat": "4.188611111111111",
   "lng": "100.70527777777778"
 },
 {
   "Name_ZH": "甘榜马坡",
   "Name_MY": "Kampung Merbau",
   "District_ZH": "曼绒",
   "District_MY": "Manjung",
   "State_ZH": "霹雳",
   "State_MY": "Perak",
   "Founding_Year": 1951,
   "latlng": "4°20′05″N 100°43′48″E",
   "lat": "4.334722222222222",
   "lng": "100.73"
 },
 {
   "Name_ZH": "葛尼市",
   "Name_MY": "Pekan Gurney",
   "District_ZH": "曼绒",
   "District_MY": "Manjung",
   "State_ZH": "霹雳",
   "State_MY": "Perak",
   "Founding_Year": 1951,
   "latlng": "4°13′21″N 100°44′39″E",
   "lat": "4.2225",
   "lng": "100.74416666666667"
 },
 {
   "Name_ZH": "拉惹依淡",
   "Name_MY": "Pekan Gurney",
   "District_ZH": "曼绒",
   "District_MY": "Manjung",
   "State_ZH": "霹雳",
   "State_MY": "Perak",
   "Founding_Year": 1951,
   "latlng": "4°20′12″N 100°45′02″E",
   "lat": "4.336666666666666",
   "lng": "100.75055555555555"
 },
 {
   "Name_ZH": "二条路",
   "Name_MY": "Simpang Dua",
   "District_ZH": "曼绒",
   "District_MY": "Manjung",
   "State_ZH": "霹雳",
   "State_MY": "Perak",
   "Founding_Year": 1951,
   "latlng": "4°12′08″N 100°43′50″E",
   "lat": "4.202222222222223",
   "lng": "100.73055555555555"
 },
 {
   "Name_ZH": "五条路",
   "Name_MY": "Simpang Lima",
   "District_ZH": "曼绒",
   "District_MY": "Manjung",
   "State_ZH": "霹雳",
   "State_MY": "Perak",
   "Founding_Year": 1951,
   "latlng": "4°14′51″N 100°45′31″E",
   "lat": "4.2475000000000005",
   "lng": "100.75861111111111"
 },
 {
   "Name_ZH": "双溪峇都",
   "Name_MY": "Sungai Batu",
   "District_ZH": "曼绒",
   "District_MY": "Manjung",
   "State_ZH": "霹雳",
   "State_MY": "Perak",
   "Founding_Year": 1951,
   "latlng": "4°25′54″N 100°39′21″E",
   "lat": "4.431666666666667",
   "lng": "100.65583333333333"
 },
 {
   "Name_ZH": "甲洞乌鲁",
   "Name_MY": "Kepong Ulu",
   "District_ZH": "鹅唛",
   "District_MY": "Gombak",
   "State_ZH": "雪兰莪",
   "State_MY": "Selangor",
   "Founding_Year": 1950,
   "latlng": "3.227997°N 101.634236°E",
   "lat": "3.227997",
   "lng": "101.634236"
 },
 {
   "Name_ZH": "淡江",
   "Name_MY": "Kuala Ampang",
   "District_ZH": "鹅唛",
   "District_MY": "Gombak",
   "State_ZH": "雪兰莪",
   "State_MY": "Selangor",
   "Founding_Year": 1951,
   "latlng": "3.166321°N 101.748297°E",
   "lat": "3.166321",
   "lng": "101.748297"
 },
 {
   "Name_ZH": "根登",
   "Name_MY": "Kundang",
   "District_ZH": "鹅唛",
   "District_MY": "Gombak",
   "State_ZH": "雪兰莪",
   "State_MY": "Selangor",
   "Founding_Year": 1951,
   "latlng": "3.277790°N 101.513263°E",
   "lat": "3.277790",
   "lng": "101.513263"
 },
 {
   "Name_ZH": "万挠",
   "Name_MY": "Sungai Terentang",
   "District_ZH": "鹅唛",
   "District_MY": "Gombak",
   "State_ZH": "雪兰莪",
   "State_MY": "Selangor",
   "Founding_Year": 1951,
   "latlng": "3.308919°N 101.586184°E",
   "lat": "3.308919",
   "lng": "101.586184"
 },
 {
   "Name_ZH": "轰埠",
   "Name_MY": "Kuang",
   "District_ZH": "鹅唛",
   "District_MY": "Gombak",
   "State_ZH": "雪兰莪",
   "State_MY": "Selangor",
   "Founding_Year": 1950,
   "latlng": "3.254349°N 101.553343°E",
   "lat": "3.254349",
   "lng": "101.553343"
 },
 {
   "Name_ZH": "煤炭山",
   "Name_MY": "Batu Arang",
   "District_ZH": "鹅唛",
   "District_MY": "Gombak",
   "State_ZH": "雪兰莪",
   "State_MY": "Selangor",
   "Founding_Year": null,
   "latlng": "3.315147°N 101.470195°E",
   "lat": "3.315147",
   "lng": "101.470195"
 },
 {
   "Name_ZH": "拿督李金狮村",
   "Name_MY": "Dato′ Lee Kim Sai",
   "District_ZH": "鹅唛",
   "District_MY": "Gombak",
   "State_ZH": "雪兰莪",
   "State_MY": "Selangor",
   "Founding_Year": null,
   "latlng": "3.309920°N 101.577165°E",
   "lat": "3.309920",
   "lng": "101.577165"
 },
 {
   "Name_ZH": "太平村",
   "Name_MY": "Desa Aman",
   "District_ZH": "鹅唛",
   "District_MY": "Gombak",
   "State_ZH": "雪兰莪",
   "State_MY": "Selangor",
   "Founding_Year": null,
   "latlng": "3.204432°N 101.595561°E",
   "lat": "3.204432",
   "lng": "101.595561"
 },
 {
   "Name_ZH": "瓜拉加冷",
   "Name_MY": "Desa Kuala Garing",
   "District_ZH": "鹅唛",
   "District_MY": "Gombak",
   "State_ZH": "雪兰莪",
   "State_MY": "Selangor",
   "Founding_Year": null,
   "latlng": "3.338629°N 101.563273°E",
   "lat": "3.338629",
   "lng": "101.563273"
 },
 {
   "Name_ZH": "瓜拉加冷南区",
   "Name_MY": "Kuala Garing Selatan",
   "District_ZH": "鹅唛",
   "District_MY": "Gombak",
   "State_ZH": "雪兰莪",
   "State_MY": "Selangor",
   "Founding_Year": null,
   "latlng": "3.31715°N 101.56535°E",
   "lat": "3.31715",
   "lng": "101.56535"
 },
 {
   "Name_ZH": "林旦村",
   "Name_MY": "Lim Tan",
   "District_ZH": "鹅唛",
   "District_MY": "Gombak",
   "State_ZH": "雪兰莪",
   "State_MY": "Selangor",
   "Founding_Year": null,
   "latlng": "3.326609°N 101.571753°E",
   "lat": "3.326609",
   "lng": "101.571753"
 },
 {
   "Name_ZH": "甘榜拉惹",
   "Name_MY": "Kampung Rajah",
   "District_ZH": "鹅唛",
   "District_MY": "Gombak",
   "State_ZH": "雪兰莪",
   "State_MY": "Selangor",
   "Founding_Year": null,
   "latlng": "3.323544°N 101.573420°E",
   "lat": "3.323544",
   "lng": "101.573420"
 },
 {
   "Name_ZH": "拉旺丁",
   "Name_MY": "Rawang Tin",
   "District_ZH": "鹅唛",
   "District_MY": "Gombak",
   "State_ZH": "雪兰莪",
   "State_MY": "Selangor",
   "Founding_Year": null,
   "latlng": "3.318147°N 101.572836°E",
   "lat": "3.318147",
   "lng": "101.572836"
 },
 {
   "Name_ZH": "美丽村",
   "Name_MY": "Sri Indah",
   "District_ZH": "鹅唛",
   "District_MY": "Gombak",
   "State_ZH": "雪兰莪",
   "State_MY": "Selangor",
   "Founding_Year": null,
   "latlng": "3.228439°N 101.575736°E",
   "lat": "3.228439",
   "lng": "101.575736"
 },
 {
   "Name_ZH": "双溪巴高",
   "Name_MY": "Sungai Bakau (A, B dan C)",
   "District_ZH": "鹅唛",
   "District_MY": "Gombak",
   "State_ZH": "雪兰莪",
   "State_MY": "Selangor",
   "Founding_Year": null,
   "latlng": "3.320796°N 101.530739°E",
   "lat": "3.320796",
   "lng": "101.530739"
 },
 {
   "Name_ZH": "双溪都亚",
   "Name_MY": "Sungai Dua",
   "District_ZH": "鹅唛",
   "District_MY": "Gombak",
   "State_ZH": "雪兰莪",
   "State_MY": "Selangor",
   "Founding_Year": null,
   "latlng": "3.312644°N 101.561630°E",
   "lat": "3.312644",
   "lng": "101.561630"
 },
 {
   "Name_ZH": "班达马兰",
   "Name_MY": "Pendamaran",
   "District_ZH": "巴生",
   "District_MY": "Klang",
   "State_ZH": "雪兰莪",
   "State_MY": "Selangor",
   "Founding_Year": 1952,
   "latlng": "3.00801°N 101.41338°E",
   "lat": "3.00801",
   "lng": "101.41338"
 },
 {
   "Name_ZH": "海南村",
   "Name_MY": "Bagan Hailam",
   "District_ZH": "巴生",
   "District_MY": "Klang",
   "State_ZH": "雪兰莪",
   "State_MY": "Selangor",
   "Founding_Year": null,
   "latlng": "3.00243°N 101.38657°E",
   "lat": "3.00243",
   "lng": "101.38657"
 },
 {
   "Name_ZH": "五条港",
   "Name_MY": "Bagan Sungai Lima",
   "District_ZH": "巴生",
   "District_MY": "Klang",
   "State_ZH": "雪兰莪",
   "State_MY": "Selangor",
   "Founding_Year": null,
   "latlng": "3.03984°N 101.27830°E",
   "lat": "3.03984",
   "lng": "101.27830"
 },
 {
   "Name_ZH": "吉胆岛",
   "Name_MY": "Pulau Ketam",
   "District_ZH": "巴生",
   "District_MY": "Klang",
   "State_ZH": "雪兰莪",
   "State_MY": "Selangor",
   "Founding_Year": null,
   "latlng": "3.0214°N 101.25245°E",
   "lat": "3.0214",
   "lng": "101.25245"
 },
 {
   "Name_ZH": "仁嘉隆",
   "Name_MY": "Jenjarom",
   "District_ZH": "瓜拉冷岳",
   "District_MY": "Kuala Langat",
   "State_ZH": "雪兰莪",
   "State_MY": "Selangor",
   "Founding_Year": 1950,
   "latlng": "2.87669°N 101.49613°E",
   "lat": "2.87669",
   "lng": "101.49613"
 },
 {
   "Name_ZH": "丹绒士拔",
   "Name_MY": "Tanjong Sepat",
   "District_ZH": "瓜拉冷岳",
   "District_MY": "Kuala Langat",
   "State_ZH": "雪兰莪",
   "State_MY": "Selangor",
   "Founding_Year": 1950,
   "latlng": "2.65969°N 101.55989°E",
   "lat": "2.65969",
   "lng": "101.55989"
 },
 {
   "Name_ZH": "依约",
   "Name_MY": "Ijok Baru",
   "District_ZH": "瓜拉雪兰莪",
   "District_MY": "Kuala Selangor",
   "State_ZH": "雪兰莪",
   "State_MY": "Selangor",
   "Founding_Year": null,
   "latlng": "3.31610°N 101.41404°E",
   "lat": "3.31610",
   "lng": "101.41404"
 },
 {
   "Name_ZH": "八丁燕带",
   "Name_MY": "Batang Berjuntai",
   "District_ZH": "瓜拉雪兰莪",
   "District_MY": "Kuala Selangor",
   "State_ZH": "雪兰莪",
   "State_MY": "Selangor",
   "Founding_Year": null,
   "latlng": "3.37795°N 101.40717°E",
   "lat": "3.37795",
   "lng": "101.40717"
 },
 {
   "Name_ZH": "峇东",
   "Name_MY": "Tiram Setia",
   "District_ZH": "瓜拉雪兰莪",
   "District_MY": "Kuala Selangor",
   "State_ZH": "雪兰莪",
   "State_MY": "Selangor",
   "Founding_Year": null,
   "latlng": "3.42652°N 101.24703°E",
   "lat": "3.42652",
   "lng": "101.24703"
 },
 {
   "Name_ZH": "峇眼巴西",
   "Name_MY": "Bagan Pasir",
   "District_ZH": "瓜拉雪兰莪",
   "District_MY": "Kuala Selangor",
   "State_ZH": "雪兰莪",
   "State_MY": "Selangor",
   "Founding_Year": null,
   "latlng": "3.40143°N 101.17098°E",
   "lat": "3.40143",
   "lng": "101.17098"
 },
 {
   "Name_ZH": "巴西不南邦",
   "Name_MY": "Bagan Pasir Penambang",
   "District_ZH": "瓜拉雪兰莪",
   "District_MY": "Kuala Selangor",
   "State_ZH": "雪兰莪",
   "State_MY": "Selangor",
   "Founding_Year": null,
   "latlng": "3.34753°N 101.25268°E",
   "lat": "3.34753",
   "lng": "101.25268"
 },
 {
   "Name_ZH": "沙沙兰",
   "Name_MY": "Bagan Sasaran (Sungai Buloh)",
   "District_ZH": "瓜拉雪兰莪",
   "District_MY": "Kuala Selangor",
   "State_ZH": "雪兰莪",
   "State_MY": "Selangor",
   "Founding_Year": null,
   "latlng": "3.25878°N 101.30479°E",
   "lat": "3.25878",
   "lng": "101.30479"
 },
 {
   "Name_ZH": "双溪章谷",
   "Name_MY": "Bagan Sungai Janggut",
   "District_ZH": "瓜拉雪兰莪",
   "District_MY": "Kuala Selangor",
   "State_ZH": "雪兰莪",
   "State_MY": "Selangor",
   "Founding_Year": null,
   "latlng": "3.17327°N 101.31047°E",
   "lat": "3.17327",
   "lng": "101.31047"
 },
 {
   "Name_ZH": "双溪加江",
   "Name_MY": "Bagan Sungai Kajang",
   "District_ZH": "瓜拉雪兰莪",
   "District_MY": "Kuala Selangor",
   "State_ZH": "雪兰莪",
   "State_MY": "Selangor",
   "Founding_Year": null,
   "latlng": "3.40163°N 101.16918°E",
   "lat": "3.40163",
   "lng": "101.16918"
 },
 {
   "Name_ZH": "东姑腊",
   "Name_MY": "Bagan Sungai Tengkorak",
   "District_ZH": "瓜拉雪兰莪",
   "District_MY": "Kuala Selangor",
   "State_ZH": "雪兰莪",
   "State_MY": "Selangor",
   "Founding_Year": null,
   "latlng": "3.44910°N 101.13439°E",
   "lat": "3.44910",
   "lng": "101.13439"
 },
 {
   "Name_ZH": "双溪由",
   "Name_MY": "Bagan Sungai Yu Baru",
   "District_ZH": "瓜拉雪兰莪",
   "District_MY": "Kuala Selangor",
   "State_ZH": "雪兰莪",
   "State_MY": "Selangor",
   "Founding_Year": null,
   "latlng": "3.35389°N 101.24805°E",
   "lat": "3.35389",
   "lng": "101.24805"
 },
 {
   "Name_ZH": "蒲种十四哩",
   "Name_MY": "Batu 14, Puchong",
   "District_ZH": "八打灵",
   "District_MY": "Petaling",
   "State_ZH": "雪兰莪",
   "State_MY": "Selangor",
   "Founding_Year": 1950,
   "latlng": "2.99430°N 101.62313°E",
   "lat": "2.99430",
   "lng": "101.62313"
 },
 {
   "Name_ZH": "白沙罗",
   "Name_MY": "Damansara",
   "District_ZH": "八打灵",
   "District_MY": "Petaling",
   "State_ZH": "雪兰莪",
   "State_MY": "Selangor",
   "Founding_Year": 1950,
   "latlng": "3.12952°N 101.63248°E",
   "lat": "3.12952",
   "lng": "101.63248"
 },
 {
   "Name_ZH": "史里肯邦安（沙登",
   "Name_MY": "Seri Kembangan (Serdang)",
   "District_ZH": "八打灵",
   "District_MY": "Petaling",
   "State_ZH": "雪兰莪",
   "State_MY": "Selangor",
   "Founding_Year": 1950,
   "latlng": "3.02523°N 101.70299°E",
   "lat": "3.02523",
   "lng": "101.70299"
 },
 {
   "Name_ZH": "双溪威",
   "Name_MY": "Seri Setia (Sungai Way)",
   "District_ZH": "八打灵",
   "District_MY": "Petaling",
   "State_ZH": "雪兰莪",
   "State_MY": "Selangor",
   "Founding_Year": 1950,
   "latlng": "3.08941°N 101.61789°E",
   "lat": "3.08941",
   "lng": "101.61789"
 },
 {
   "Name_ZH": "梳邦",
   "Name_MY": "Subang",
   "District_ZH": "八打灵",
   "District_MY": "Petaling",
   "State_ZH": "雪兰莪",
   "State_MY": "Selangor",
   "Founding_Year": 1950,
   "latlng": "3.14302°N 101.53612°E",
   "lat": "3.14302",
   "lng": "101.53612"
 },
 {
   "Name_ZH": "双溪毛糯",
   "Name_MY": "Sungai Buloh",
   "District_ZH": "八打灵",
   "District_MY": "Petaling",
   "State_ZH": "雪兰莪",
   "State_MY": "Selangor",
   "Founding_Year": 1950,
   "latlng": "3.19784°N 101.56506°E",
   "lat": "3.19784",
   "lng": "101.56506"
 },
 {
   "Name_ZH": "千百家村",
   "Name_MY": "Kampung Cempaka",
   "District_ZH": "八打灵",
   "District_MY": "Petaling",
   "State_ZH": "雪兰莪",
   "State_MY": "Selangor",
   "Founding_Year": null,
   "latlng": "3.11727°N 101.59855°E",
   "lat": "3.11727",
   "lng": "101.59855"
 },
 {
   "Name_ZH": "18 适耕庄 A 村",
   "Name_MY": "Site A, Sekinchan",
   "District_ZH": "沙白安南",
   "District_MY": "Sabak Bernam",
   "State_ZH": "雪兰莪",
   "State_MY": "Selangor",
   "Founding_Year": 1951,
   "latlng": "3.52626°N 101.142°E",
   "lat": "3.52626",
   "lng": "101.142"
 },
 {
   "Name_ZH": "19 适耕庄 B 村",
   "Name_MY": "Site B, Sekinchan",
   "District_ZH": "沙白安南",
   "District_MY": "Sabak Bernam",
   "State_ZH": "雪兰莪",
   "State_MY": "Selangor",
   "Founding_Year": 1951,
   "latlng": "3.50304°N 101.10771°E",
   "lat": "3.50304",
   "lng": "101.10771"
 },
 {
   "Name_ZH": "20 适耕庄 C 村",
   "Name_MY": "Site C, Sekinchan",
   "District_ZH": "沙白安南",
   "District_MY": "Sabak Bernam",
   "State_ZH": "雪兰莪",
   "State_MY": "Selangor",
   "Founding_Year": 1951,
   "latlng": "3.51380°N 101.10025°E",
   "lat": "3.51380",
   "lng": "101.10025"
 },
 {
   "Name_ZH": "文丁哥坝",
   "Name_MY": "Bagan Beting Kepah",
   "District_ZH": "沙白安南",
   "District_MY": "Sabak Bernam",
   "State_ZH": "雪兰莪",
   "State_MY": "Selangor",
   "Founding_Year": null,
   "latlng": "3.79013°N 100.8286°E",
   "lat": "3.79013",
   "lng": "100.8286"
 },
 {
   "Name_ZH": "乌暹",
   "Name_MY": "Bagan Nakhoda Omar (Simpang BNO)",
   "District_ZH": "沙白安南",
   "District_MY": "Sabak Bernam",
   "State_ZH": "雪兰莪",
   "State_MY": "Selangor",
   "Founding_Year": null,
   "latlng": "3.76979°N 100.87623°E",
   "lat": "3.76979",
   "lng": "100.87623"
 },
 {
   "Name_ZH": "新沟",
   "Name_MY": "Bagan Parit Baru",
   "District_ZH": "沙白安南",
   "District_MY": "Sabak Bernam",
   "State_ZH": "雪兰莪",
   "State_MY": "Selangor",
   "Founding_Year": null,
   "latlng": "3.84536°N 100.84521°E",
   "lat": "3.84536",
   "lng": "100.84521"
 },
 {
   "Name_ZH": "适耕庄海口渔村",
   "Name_MY": "Bagan Sekinchan",
   "District_ZH": "沙白安南",
   "District_MY": "Sabak Bernam",
   "State_ZH": "雪兰莪",
   "State_MY": "Selangor",
   "Founding_Year": null,
   "latlng": "3.50324°N 101.09722°E",
   "lat": "3.50324",
   "lng": "101.09722"
 },
 {
   "Name_ZH": "大港",
   "Name_MY": "Bagan Sungai Besar",
   "District_ZH": "沙白安南",
   "District_MY": "Sabak Bernam",
   "State_ZH": "雪兰莪",
   "State_MY": "Selangor",
   "Founding_Year": null,
   "latlng": "3.67160°N 100.98175°E",
   "lat": "3.67160",
   "lng": "100.98175"
 },
 {
   "Name_ZH": "双武隆",
   "Name_MY": "Bagan Sungai Burung",
   "District_ZH": "沙白安南",
   "District_MY": "Sabak Bernam",
   "State_ZH": "雪兰莪",
   "State_MY": "Selangor",
   "Founding_Year": null,
   "latlng": "3.6926°N 100.93593°E",
   "lat": "3.6926",
   "lng": "100.93593"
 },
 {
   "Name_ZH": "水柳头",
   "Name_MY": "Bagan Sungai Lang",
   "District_ZH": "沙白安南",
   "District_MY": "Sabak Bernam",
   "State_ZH": "雪兰莪",
   "State_MY": "Selangor",
   "Founding_Year": null,
   "latlng": "3.84477°N 100.82772°E",
   "lat": "3.84477",
   "lng": "100.82772"
 },
 {
   "Name_ZH": "浅顶",
   "Name_MY": "Bagan Sungai Pulai",
   "District_ZH": "沙白安南",
   "District_MY": "Sabak Bernam",
   "State_ZH": "雪兰莪",
   "State_MY": "Selangor",
   "Founding_Year": null,
   "latlng": "3.72647°N 100.91954°E",
   "lat": "3.72647",
   "lng": "100.91954"
 },
 {
   "Name_ZH": "直古鲁",
   "Name_MY": "Bagan Teluk Rhu",
   "District_ZH": "沙白安南",
   "District_MY": "Sabak Bernam",
   "State_ZH": "雪兰莪",
   "State_MY": "Selangor",
   "Founding_Year": null,
   "latlng": "3.78574°N 100.83381°E",
   "lat": "3.78574",
   "lng": "100.83381"
 },
 {
   "Name_ZH": "沙叻",
   "Name_MY": "Salak",
   "District_ZH": "雪邦",
   "District_MY": "Sepang",
   "State_ZH": "雪兰莪",
   "State_MY": "Selangor",
   "Founding_Year": 1952,
   "latlng": "2.7833°N 101.75158°E",
   "lat": "2.7833",
   "lng": "101.75158"
 },
 {
   "Name_ZH": "雪邦",
   "Name_MY": "Sepang",
   "District_ZH": "雪邦",
   "District_MY": "Sepang",
   "State_ZH": "雪兰莪",
   "State_MY": "Selangor",
   "Founding_Year": 1950,
   "latlng": "2.68731°N 101.74843°E",
   "lat": "2.68731",
   "lng": "101.74843"
 },
 {
   "Name_ZH": "龙溪",
   "Name_MY": "Dengkil",
   "District_ZH": "雪邦",
   "District_MY": "Sepang",
   "State_ZH": "雪兰莪",
   "State_MY": "Selangor",
   "Founding_Year": 1950,
   "latlng": "2.86067°N 101.67971°E",
   "lat": "2.86067",
   "lng": "101.67971"
 },
 {
   "Name_ZH": "双溪比力",
   "Name_MY": "Sungai Pelek",
   "District_ZH": "雪邦",
   "District_MY": "Sepang",
   "State_ZH": "雪兰莪",
   "State_MY": "Selangor",
   "Founding_Year": 1950,
   "latlng": "2.64212°N 101.71227°E",
   "lat": "2.64212",
   "lng": "101.71227"
 },
 {
   "Name_ZH": "一支港",
   "Name_MY": "Batu Satu",
   "District_ZH": "雪邦",
   "District_MY": "Sepang",
   "State_ZH": "雪兰莪",
   "State_MY": "Selangor",
   "Founding_Year": null,
   "latlng": "2.680839°N 101.741858°E",
   "lat": "2.680839",
   "lng": "101.741858"
 },
 {
   "Name_ZH": "安邦",
   "Name_MY": "Ampang",
   "District_ZH": "乌鲁冷岳",
   "District_MY": "Hulu Langat",
   "State_ZH": "雪兰莪",
   "State_MY": "Selangor",
   "Founding_Year": 1952,
   "latlng": "3.137343°N 101.761395°E",
   "lat": "3.137343",
   "lng": "101.761395"
 },
 {
   "Name_ZH": "无拉港",
   "Name_MY": "Balakong",
   "District_ZH": "乌鲁冷岳",
   "District_MY": "Hulu Langat",
   "State_ZH": "雪兰莪",
   "State_MY": "Selangor",
   "Founding_Year": 1950,
   "latlng": "3.028980°N 101.747309°E",
   "lat": "3.028980",
   "lng": "101.747309"
 },
 {
   "Name_ZH": "万宜",
   "Name_MY": "Bangi",
   "District_ZH": "乌鲁冷岳",
   "District_MY": "Hulu Langat",
   "State_ZH": "雪兰莪",
   "State_MY": "Selangor",
   "Founding_Year": 1952,
   "latlng": "2.902257°N 101.783686°E",
   "lat": "2.902257",
   "lng": "101.783686"
 },
 {
   "Name_ZH": "蕉赖九英里",
   "Name_MY": "Batu 9, Cheras",
   "District_ZH": "乌鲁冷岳",
   "District_MY": "Hulu Langat",
   "State_ZH": "雪兰莪",
   "State_MY": "Selangor",
   "Founding_Year": 1950,
   "latlng": "3.071862°N 101.768841°E",
   "lat": "3.071862",
   "lng": "101.768841"
 },
 {
   "Name_ZH": "蕉赖十一英里",
   "Name_MY": "Batu 11, Cheras",
   "District_ZH": "乌鲁冷岳",
   "District_MY": "Hulu Langat",
   "State_ZH": "雪兰莪",
   "State_MY": "Selangor",
   "Founding_Year": 1950,
   "latlng": "3.045718°N 101.773333°E",
   "lat": "3.045718",
   "lng": "101.773333"
 },
 {
   "Name_ZH": "呀吃十四英里",
   "Name_MY": "Batu 14，Hulu Langat",
   "District_ZH": "乌鲁冷岳",
   "District_MY": "Hulu Langat",
   "State_ZH": "雪兰莪",
   "State_MY": "Selangor",
   "Founding_Year": 1950,
   "latlng": "3.113403°N 101.814357°E",
   "lat": "3.113403",
   "lng": "101.814357"
 },
 {
   "Name_ZH": "呀吃十八英里",
   "Name_MY": "Batu 18，Hulu Langat",
   "District_ZH": "乌鲁冷岳",
   "District_MY": "Hulu Langat",
   "State_ZH": "雪兰莪",
   "State_MY": "Selangor",
   "Founding_Year": 1950,
   "latlng": "3.115660°N 101.827768°E",
   "lat": "3.115660",
   "lng": "101.827768"
 },
 {
   "Name_ZH": "士毛月",
   "Name_MY": "Semeyih",
   "District_ZH": "乌鲁冷岳",
   "District_MY": "Hulu Langat",
   "State_ZH": "雪兰莪",
   "State_MY": "Selangor",
   "Founding_Year": 1952,
   "latlng": "2.951862°N 101.842633°E",
   "lat": "2.951862",
   "lng": "101.842633"
 },
 {
   "Name_ZH": "锡米山",
   "Name_MY": "Sungai Chua",
   "District_ZH": "乌鲁冷岳",
   "District_MY": "Hulu Langat",
   "State_ZH": "雪兰莪",
   "State_MY": "Selangor",
   "Founding_Year": 1950,
   "latlng": "2.990752°N 101.774445°E",
   "lat": "2.990752",
   "lng": "101.774445"
 },
 {
   "Name_ZH": "武来岸（打仑）",
   "Name_MY": "Broga (Tarun)",
   "District_ZH": "乌鲁冷岳",
   "District_MY": "Hulu Langat",
   "State_ZH": "雪兰莪",
   "State_MY": "Selangor",
   "Founding_Year": 1950,
   "latlng": "2.938245°N 101.910494°E",
   "lat": "2.938245",
   "lng": "101.910494"
 },
 {
   "Name_ZH": "仙水港",
   "Name_MY": "Bukit Angkat",
   "District_ZH": "乌鲁冷岳",
   "District_MY": "Hulu Langat",
   "State_ZH": "雪兰莪",
   "State_MY": "Selangor",
   "Founding_Year": null,
   "latlng": "2.995948°N 101.769341°E",
   "lat": "2.995948",
   "lng": "101.769341"
 },
 {
   "Name_ZH": "关东村",
   "Name_MY": "Kwan Tung Baru",
   "District_ZH": "乌鲁冷岳",
   "District_MY": "Hulu Langat",
   "State_ZH": "雪兰莪",
   "State_MY": "Selangor",
   "Founding_Year": null,
   "latlng": "2.982850°N 101.776820°E",
   "lat": "2.982850",
   "lng": "101.776820"
 },
 {
   "Name_ZH": "热水湖",
   "Name_MY": "Air Panas",
   "District_ZH": "乌鲁雪兰莪 ",
   "District_MY": "Hulu Selangor",
   "State_ZH": "雪兰莪",
   "State_MY": "Selangor",
   "Founding_Year": 1950,
   "latlng": "3.59170°N 101.60884°E",
   "lat": "3.59170",
   "lng": "101.60884"
 },
 {
   "Name_ZH": "亚山公邦",
   "Name_MY": "Asam Kumbang，KKB",
   "District_ZH": "乌鲁雪兰莪 ",
   "District_MY": "Hulu Selangor",
   "State_ZH": "雪兰莪",
   "State_MY": "Selangor",
   "Founding_Year": 1950,
   "latlng": "3.56336°N 101.66428°E",
   "lat": "3.56336",
   "lng": "101.66428"
 },
 {
   "Name_ZH": "峇冬加里",
   "Name_MY": "Batang Kali",
   "District_ZH": "乌鲁雪兰莪 ",
   "District_MY": "Hulu Selangor",
   "State_ZH": "雪兰莪",
   "State_MY": "Selangor",
   "Founding_Year": 1950,
   "latlng": "3.46498°N 101.63937°E",
   "lat": "3.46498",
   "lng": "101.63937"
 },
 {
   "Name_ZH": "双文丹",
   "Name_MY": "Serendah",
   "District_ZH": "乌鲁雪兰莪 ",
   "District_MY": "Hulu Selangor",
   "State_ZH": "雪兰莪",
   "State_MY": "Selangor",
   "Founding_Year": 1950,
   "latlng": "3.36448°N 101.59880°E",
   "lat": "3.36448",
   "lng": "101.59880"
 },
 {
   "Name_ZH": "39 叻思",
   "Name_MY": "Rasa",
   "District_ZH": "乌鲁雪兰莪 ",
   "District_MY": "Hulu Selangor",
   "State_ZH": "雪兰莪",
   "State_MY": "Selangor",
   "Founding_Year": 1950,
   "latlng": "3.49422°N 101.63082°E",
   "lat": "3.49422",
   "lng": "101.63082"
 },
 {
   "Name_ZH": "舍江栋",
   "Name_MY": "Sejantung, Kalumpang",
   "District_ZH": "乌鲁雪兰莪 ",
   "District_MY": "Hulu Selangor",
   "State_ZH": "雪兰莪",
   "State_MY": "Selangor",
   "Founding_Year": 1950,
   "latlng": "3.63528°N 101.56994°E",
   "lat": "3.63528",
   "lng": "101.56994"
 },
 {
   "Name_ZH": "乌鲁音峇鲁",
   "Name_MY": "Ulu Yam Baru",
   "District_ZH": "乌鲁雪兰莪 ",
   "District_MY": "Hulu Selangor",
   "State_ZH": "雪兰莪",
   "State_MY": "Selangor",
   "Founding_Year": 1950,
   "latlng": "3.42198°N 101.66236°E",
   "lat": "3.42198",
   "lng": "101.66236"
 },
 {
   "Name_ZH": "乌鲁音南马",
   "Name_MY": "Ulu Yam Lama",
   "District_ZH": "乌鲁雪兰莪 ",
   "District_MY": "Hulu Selangor",
   "State_ZH": "雪兰莪",
   "State_MY": "Selangor",
   "Founding_Year": 1950,
   "latlng": "3.45405°N 101.64142°E",
   "lat": "3.45405",
   "lng": "101.64142"
 },
 {
   "Name_ZH": "哈山村",
   "Name_MY": "Taman Hassan",
   "District_ZH": "乌鲁雪兰莪 ",
   "District_MY": "Hulu Selangor",
   "State_ZH": "雪兰莪",
   "State_MY": "Selangor",
   "Founding_Year": null,
   "latlng": "3.67243°N 101.51727°E",
   "lat": "3.67243",
   "lng": "101.51727"
 },
 {
   "Name_ZH": "板厂村",
   "Name_MY": "Kilang Papan",
   "District_ZH": "乌鲁雪兰莪 ",
   "District_MY": "Hulu Selangor",
   "State_ZH": "雪兰莪",
   "State_MY": "Selangor",
   "Founding_Year": null,
   "latlng": "3.66973°N 101.53041°E",
   "lat": "3.66973",
   "lng": "101.53041"
 },
 {
   "Name_ZH": "民友路村",
   "Name_MY": "Kampung Menyuruk, Batang Kali",
   "District_ZH": "乌鲁雪兰莪 ",
   "District_MY": "Hulu Selangor",
   "State_ZH": "雪兰莪",
   "State_MY": "Selangor",
   "Founding_Year": null,
   "latlng": "3.46848°N 101.63597°E",
   "lat": "3.46848",
   "lng": "101.63597"
 },
 {
   "Name_ZH": "哈仑村",
   "Name_MY": "Kampung Datuk Harun, Serendah",
   "District_ZH": "乌鲁雪兰莪 ",
   "District_MY": "Hulu Selangor",
   "State_ZH": "雪兰莪",
   "State_MY": "Selangor",
   "Founding_Year": null,
   "latlng": "3.36742°N 101.60912°E",
   "lat": "3.36742",
   "lng": "101.60912"
 },
 {
   "Name_ZH": "柯士干村",
   "Name_MY": "Kampung Koskan, Serendah",
   "District_ZH": "乌鲁雪兰莪 ",
   "District_MY": "Hulu Selangor",
   "State_ZH": "雪兰莪",
   "State_MY": "Selangor",
   "Founding_Year": null,
   "latlng": "3.35966°N 101.56191°E",
   "lat": "3.35966",
   "lng": "101.56191"
 },
 {
   "Name_ZH": "榴莲知贝",
   "Name_MY": "Durian Tipus",
   "District_ZH": "日叻务",
   "District_MY": "Jelebu",
   "State_ZH": "森美兰",
   "State_MY": "Negeri Sembilan",
   "Founding_Year": 1950,
   "latlng": "3.11911°N 102.22212°E",
   "lat": "3.11911",
   "lng": "102.22212"
 },
 {
   "Name_ZH": "半芭新村",
   "Name_MY": "Ladang Jelebu",
   "District_ZH": "日叻务",
   "District_MY": "Jelebu",
   "State_ZH": "森美兰",
   "State_MY": "Negeri Sembilan",
   "Founding_Year": 1950,
   "latlng": "2.97497°N 102.05983°E",
   "lat": "2.97497",
   "lng": "102.05983"
 },
 {
   "Name_ZH": "葫芦顶",
   "Name_MY": "Pertang",
   "District_ZH": "日叻务",
   "District_MY": "Jelebu",
   "State_ZH": "森美兰",
   "State_MY": "Negeri Sembilan",
   "Founding_Year": 1950,
   "latlng": "2.95957°N 102.21774°E",
   "lat": "2.95957",
   "lng": "102.21774"
 },
 {
   "Name_ZH": "古打灵新村",
   "Name_MY": "Kampung Petaling",
   "District_ZH": "日叻务",
   "District_MY": "Jelebu",
   "State_ZH": "森美兰",
   "State_MY": "Negeri Sembilan",
   "Founding_Year": 1950,
   "latlng": "2.94837°N 102.05885°E",
   "lat": "2.94837",
   "lng": "102.05885"
 },
 {
   "Name_ZH": "新邦葫芦顶",
   "Name_MY": "Simpang Pertang",
   "District_ZH": "日叻务",
   "District_MY": "Jelebu",
   "State_ZH": "森美兰",
   "State_MY": "Negeri Sembilan",
   "Founding_Year": 1950,
   "latlng": "2.94292°N 102.2604°E",
   "lat": "2.94292",
   "lng": "102.2604"
 },
 {
   "Name_ZH": "双溪文都",
   "Name_MY": "Sungai Muntuh",
   "District_ZH": "日叻务",
   "District_MY": "Jelebu",
   "State_ZH": "森美兰",
   "State_MY": "Negeri Sembilan",
   "Founding_Year": 1950,
   "latlng": "3.0199°N 102.08191°E",
   "lat": "3.0199",
   "lng": "102.08191"
 },
 {
   "Name_ZH": "知知港",
   "Name_MY": "Titi",
   "District_ZH": "日叻务",
   "District_MY": "Jelebu",
   "State_ZH": "森美兰",
   "State_MY": "Negeri Sembilan",
   "Founding_Year": 1950,
   "latlng": "2.99773°N 102.07743°E",
   "lat": "2.99773",
   "lng": "102.07743"
 },
 {
   "Name_ZH": "河沙坝",
   "Name_MY": "Hosapa",
   "District_ZH": "日叻务",
   "District_MY": "Jelebu",
   "State_ZH": "森美兰",
   "State_MY": "Negeri Sembilan",
   "Founding_Year": null,
   "latlng": "2.99482°N 102.07491°E",
   "lat": "2.99482",
   "lng": "102.07491"
 },
 {
   "Name_ZH": "亚逸依淡",
   "Name_MY": "Ayer Hitam",
   "District_ZH": "仁保",
   "District_MY": "Jempol",
   "State_ZH": "森美兰",
   "State_MY": "Negeri Sembilan",
   "Founding_Year": 1961,
   "latlng": "2.92971°N 102.3777°E",
   "lat": "2.92971",
   "lng": "102.3777"
 },
 {
   "Name_ZH": "巴加峇都",
   "Name_MY": "Bakar Batu",
   "District_ZH": "仁保",
   "District_MY": "Jempol",
   "State_ZH": "森美兰",
   "State_MY": "Negeri Sembilan",
   "Founding_Year": 1950,
   "latlng": "2.80619°N 102.40394°E",
   "lat": "2.80619",
   "lng": "102.40394"
 },
 {
   "Name_ZH": "武吉庇劳",
   "Name_MY": "Bukit Pilah",
   "District_ZH": "仁保",
   "District_MY": "Jempol",
   "State_ZH": "森美兰",
   "State_MY": "Negeri Sembilan",
   "Founding_Year": 1950,
   "latlng": "2.70792°N 102.50467°E",
   "lat": "2.70792",
   "lng": "102.50467"
 },
 {
   "Name_ZH": "朱区",
   "Name_MY": "Chu Ward",
   "District_ZH": "仁保",
   "District_MY": "Jempol",
   "State_ZH": "森美兰",
   "State_MY": "Negeri Sembilan",
   "Founding_Year": 1950,
   "latlng": "2.8075°N 102.40331°E",
   "lat": "2.8075",
   "lng": "102.40331"
 },
 {
   "Name_ZH": "马身新村",
   "Name_MY": "Kampung Mahsan",
   "District_ZH": "仁保",
   "District_MY": "Jempol",
   "State_ZH": "森美兰",
   "State_MY": "Negeri Sembilan",
   "Founding_Year": 1950,
   "latlng": "2.83249°N 102.40856°E",
   "lat": "2.83249",
   "lng": "102.40856"
 },
 {
   "Name_ZH": "甘榜英达",
   "Name_MY": "Kampung Indah",
   "District_ZH": "仁保",
   "District_MY": "Jempol",
   "State_ZH": "森美兰",
   "State_MY": "Negeri Sembilan",
   "Founding_Year": 1950,
   "latlng": "2.8122°N 102.40609°E",
   "lat": "2.8122",
   "lng": "102.40609"
 },
 {
   "Name_ZH": "弄边",
   "Name_MY": "Rompin",
   "District_ZH": "仁保",
   "District_MY": "Jempol",
   "State_ZH": "森美兰",
   "State_MY": "Negeri Sembilan",
   "Founding_Year": null,
   "latlng": "2.70601°N 102.50367°E",
   "lat": "2.70601",
   "lng": "102.50367"
 },
 {
   "Name_ZH": "亚依马旺",
   "Name_MY": "Ayer Mawang",
   "District_ZH": "瓜拉庇劳",
   "District_MY": "Kuala Pilah",
   "State_ZH": "森美兰",
   "State_MY": "Negeri Sembilan",
   "Founding_Year": null,
   "latlng": "2.55856°N 102.25708°E",
   "lat": "2.55856",
   "lng": "102.25708"
 },
 {
   "Name_ZH": "武吉古鲁莪新村",
   "Name_MY": "Desa Bukit Gelugor",
   "District_ZH": "瓜拉庇劳",
   "District_MY": "Kuala Pilah",
   "State_ZH": "森美兰",
   "State_MY": "Negeri Sembilan",
   "Founding_Year": 1950,
   "latlng": "2.80199°N 102.31346°E",
   "lat": "2.80199",
   "lng": "102.31346"
 },
 {
   "Name_ZH": "冷宜",
   "Name_MY": "Dangi",
   "District_ZH": "瓜拉庇劳",
   "District_MY": "Kuala Pilah",
   "State_ZH": "森美兰",
   "State_MY": "Negeri Sembilan",
   "Founding_Year": 1950,
   "latlng": "2.64481°N 102.32115°E",
   "lat": "2.64481",
   "lng": "102.32115"
 },
 {
   "Name_ZH": "及必士10哩",
   "Name_MY": "Kepis, Batu 10",
   "District_ZH": "瓜拉庇劳",
   "District_MY": "Kuala Pilah",
   "State_ZH": "森美兰",
   "State_MY": "Negeri Sembilan",
   "Founding_Year": 1950,
   "latlng": "2.70628°N 102.36649°E",
   "lat": "2.70628",
   "lng": "102.36649"
 },
 {
   "Name_ZH": "瓜拉油麻坡",
   "Name_MY": "Kuala Jemapoh",
   "District_ZH": "瓜拉庇劳",
   "District_MY": "Kuala Pilah",
   "State_ZH": "森美兰",
   "State_MY": "Negeri Sembilan",
   "Founding_Year": 1952,
   "latlng": "2.7776°N 102.28358°E\t",
   "lat": "2.7776",
   "lng": "102.28358"
 },
 {
   "Name_ZH": "巴力丁宜",
   "Name_MY": "Parit Tinggi",
   "District_ZH": "瓜拉庇劳",
   "District_MY": "Kuala Pilah",
   "State_ZH": "森美兰",
   "State_MY": "Negeri Sembilan",
   "Founding_Year": 1950,
   "latlng": "2.78738°N 102.22218°E",
   "lat": "2.78738",
   "lng": "102.22218"
 },
 {
   "Name_ZH": "新邦浪谊",
   "Name_MY": "Simpang Dangi",
   "District_ZH": "瓜拉庇劳",
   "District_MY": "Kuala Pilah",
   "State_ZH": "森美兰",
   "State_MY": "Negeri Sembilan",
   "Founding_Year": 1958,
   "latlng": "2.63622°N 102.29066°E",
   "lat": "2.63622",
   "lng": "102.29066"
 },
 {
   "Name_ZH": "丹那美村 A 村",
   "Name_MY": "Desa Tanah Merah Site A",
   "District_ZH": "波德申",
   "District_MY": "Port Dickson",
   "State_ZH": "森美兰",
   "State_MY": "Negeri Sembilan",
   "Founding_Year": 1952,
   "latlng": "2.67861°N 101.7613°E",
   "lat": "2.67861",
   "lng": "101.7613"
 },
 {
   "Name_ZH": "丹那美村 C 村",
   "Name_MY": "Desa Tanah Merah Site C",
   "District_ZH": "波德申",
   "District_MY": "Port Dickson",
   "State_ZH": "森美兰",
   "State_MY": "Negeri Sembilan",
   "Founding_Year": 1952,
   "latlng": "2.61333°N 101.80414°E",
   "lat": "2.61333",
   "lng": "101.80414"
 },
 {
   "Name_ZH": "双溪立百新村",
   "Name_MY": "Desa Sungai Nipah",
   "District_ZH": "波德申",
   "District_MY": "Port Dickson",
   "State_ZH": "森美兰",
   "State_MY": "Negeri Sembilan",
   "Founding_Year": 1953,
   "latlng": "2.62579°N 101.7469°E",
   "lat": "2.62579",
   "lng": "101.7469"
 },
 {
   "Name_ZH": "叻务八英里新村",
   "Name_MY": "Desa Batu 8 Labu",
   "District_ZH": "芙蓉",
   "District_MY": "Seremban",
   "State_ZH": "森美兰",
   "State_MY": "Negeri Sembilan",
   "Founding_Year": 1950,
   "latlng": "2.74129°N 101.85636°E",
   "lat": "2.74129",
   "lng": "101.85636"
 },
 {
   "Name_ZH": "武来岸新村",
   "Name_MY": "Broga",
   "District_ZH": "芙蓉",
   "District_MY": "Seremban",
   "State_ZH": "森美兰",
   "State_MY": "Negeri Sembilan",
   "Founding_Year": 1950,
   "latlng": "2.9358°N 101.91117°E",
   "lat": "2.9358",
   "lng": "101.91117"
 },
 {
   "Name_ZH": "万茂新村",
   "Name_MY": "Desa Mambau",
   "District_ZH": "芙蓉",
   "District_MY": "Seremban",
   "State_ZH": "森美兰",
   "State_MY": "Negeri Sembilan",
   "Founding_Year": 1950,
   "latlng": "2.6686°N 101.91733°E",
   "lat": "2.6686",
   "lng": "101.91733"
 },
 {
   "Name_ZH": "文丁",
   "Name_MY": "Mantin",
   "District_ZH": "芙蓉",
   "District_MY": "Seremban",
   "State_ZH": "森美兰",
   "State_MY": "Negeri Sembilan",
   "Founding_Year": 1952,
   "latlng": "2.82303°N 101.89462°E",
   "lat": "2.82303",
   "lng": "101.89462"
 },
 {
   "Name_ZH": "汝来",
   "Name_MY": "Nilai",
   "District_ZH": "芙蓉",
   "District_MY": "Seremban",
   "State_ZH": "森美兰",
   "State_MY": "Negeri Sembilan",
   "Founding_Year": 1952,
   "latlng": "2.80856°N 101.80225°E",
   "lat": "2.80856",
   "lng": "101.80225"
 },
 {
   "Name_ZH": "巴音",
   "Name_MY": "Pajam",
   "District_ZH": "芙蓉",
   "District_MY": "Seremban",
   "State_ZH": "森美兰",
   "State_MY": "Negeri Sembilan",
   "Founding_Year": 1951,
   "latlng": "2.84311°N 101.84953°E",
   "lat": "2.84311",
   "lng": "101.84953"
 },
 {
   "Name_ZH": "班底",
   "Name_MY": "Pantai",
   "District_ZH": "芙蓉",
   "District_MY": "Seremban",
   "State_ZH": "森美兰",
   "State_MY": "Negeri Sembilan",
   "Founding_Year": 1951,
   "latlng": "2.78781°N 101.99628°E",
   "lat": "2.78781",
   "lng": "101.99628"
 },
 {
   "Name_ZH": "芭蕾新村",
   "Name_MY": "Desa Paroi",
   "District_ZH": "芙蓉",
   "District_MY": "Seremban",
   "State_ZH": "森美兰",
   "State_MY": "Negeri Sembilan",
   "Founding_Year": 1950,
   "latlng": "2.72345°N 102.00026°E",
   "lat": "2.72345",
   "lng": "102.00026"
 },
 {
   "Name_ZH": "拉杭新村",
   "Name_MY": "Desa Rahang",
   "District_ZH": "芙蓉",
   "District_MY": "Seremban",
   "State_ZH": "森美兰",
   "State_MY": "Negeri Sembilan",
   "Founding_Year": 1952,
   "latlng": "2.69564°N 101.96403°E",
   "lat": "2.69564",
   "lng": "101.96403"
 },
 {
   "Name_ZH": "亚沙",
   "Name_MY": "Rasah",
   "District_ZH": "芙蓉",
   "District_MY": "Seremban",
   "State_ZH": "森美兰",
   "State_MY": "Negeri Sembilan",
   "Founding_Year": 1951,
   "latlng": "2.69886°N 101.93247°E",
   "lat": "2.69886",
   "lng": "101.93247"
 },
 {
   "Name_ZH": "小甘蜜",
   "Name_MY": "Sikamat",
   "District_ZH": "芙蓉",
   "District_MY": "Seremban",
   "State_ZH": "森美兰",
   "State_MY": "Negeri Sembilan",
   "Founding_Year": 1950,
   "latlng": "2.74539°N 101.96694°E",
   "lat": "2.74539",
   "lng": "101.96694"
 },
 {
   "Name_ZH": "乌鲁峇玲珑",
   "Name_MY": "Ulu Beranang",
   "District_ZH": "芙蓉",
   "District_MY": "Seremban",
   "State_ZH": "森美兰",
   "State_MY": "Negeri Sembilan",
   "Founding_Year": 1950,
   "latlng": "2.89347°N 101.92842°E",
   "lat": "2.89347",
   "lng": "101.92842"
 },
 {
   "Name_ZH": "亚逸昆宁新村",
   "Name_MY": "Desa Ayer Kuning",
   "District_ZH": "淡边",
   "District_MY": "Tampin",
   "State_ZH": "森美兰",
   "State_MY": "Negeri Sembilan",
   "Founding_Year": 1950,
   "latlng": "2.50786°N 102.47833°E",
   "lat": "2.50786",
   "lng": "102.47833"
 },
 {
   "Name_ZH": "义乐新村",
   "Name_MY": "Desa Gedok",
   "District_ZH": "淡边",
   "District_MY": "Tampin",
   "State_ZH": "森美兰",
   "State_MY": "Negeri Sembilan",
   "Founding_Year": 1950,
   "latlng": "2.54721°N 102.42056°E",
   "lat": "2.54721",
   "lng": "102.42056"
 },
 {
   "Name_ZH": "金马士",
   "Name_MY": "Gemas",
   "District_ZH": "淡边",
   "District_MY": "Tampin",
   "State_ZH": "森美兰",
   "State_MY": "Negeri Sembilan",
   "Founding_Year": 1950,
   "latlng": "2.58542°N 102.6209°E",
   "lat": "2.58542",
   "lng": "102.6209"
 },
 {
   "Name_ZH": "淡边新村",
   "Name_MY": "Gemas",
   "District_ZH": "淡边",
   "District_MY": "Tampin",
   "State_ZH": "森美兰",
   "State_MY": "Negeri Sembilan",
   "Founding_Year": 1950,
   "latlng": "2.47817°N 102.23105°E",
   "lat": "2.47817",
   "lng": "102.23105"
 },
 {
   "Name_ZH": "林鲁",
   "Name_MY": "Lendu (Air Bemban)",
   "District_ZH": "亚罗牙也",
   "District_MY": "Alor Gajah",
   "State_ZH": "马六甲",
   "State_MY": "Melaka",
   "Founding_Year": 1950,
   "latlng": "2.35745°N 102.17105°E",
   "lat": "2.35745",
   "lng": "102.17105"
 },
 {
   "Name_ZH": "马接峇儒",
   "Name_MY": "Machap Baru",
   "District_ZH": "亚罗牙也",
   "District_MY": "Alor Gajah",
   "State_ZH": "马六甲",
   "State_MY": "Melaka",
   "Founding_Year": 1950,
   "latlng": "2.38194°N 102.33068°E",
   "lat": "2.38194",
   "lng": "102.33068"
 },
 {
   "Name_ZH": "马接翁武 （柏美）",
   "Name_MY": " Machap Umbor (Permai)",
   "District_ZH": "亚罗牙也",
   "District_MY": "Alor Gajah",
   "State_ZH": "马六甲",
   "State_MY": "Melaka",
   "Founding_Year": 1950,
   "latlng": "2.38319°N 102.2774°E",
   "lat": "2.38319",
   "lng": "102.2774"
 },
 {
   "Name_ZH": "巴也明光新村",
   "Name_MY": "Kampung Baru Paya Mengkung",
   "District_ZH": "亚罗牙也",
   "District_MY": "Alor Gajah",
   "State_ZH": "马六甲",
   "State_MY": "Melaka",
   "Founding_Year": 1949,
   "latlng": "2.34626°N 102.06725°E",
   "lat": "2.34626",
   "lng": "102.06725"
 },
 {
   "Name_ZH": "打波南宁",
   "Name_MY": "Taboh Naning",
   "District_ZH": "亚罗牙也",
   "District_MY": "Alor Gajah",
   "State_ZH": "马六甲",
   "State_MY": "Melaka",
   "Founding_Year": 1950,
   "latlng": "2.48124°N 102.18699°E",
   "lat": "2.48124",
   "lng": "102.18699"
 },
 {
   "Name_ZH": "武吉亚沙汉",
   "Name_MY": "Bukit Asahan",
   "District_ZH": "野新",
   "District_MY": "Jasin",
   "State_ZH": "马六甲",
   "State_MY": "Melaka",
   "Founding_Year": 1950,
   "latlng": "2.39414°N 102.54432°E",
   "lat": "2.39414",
   "lng": "102.54432"
 },
 {
   "Name_ZH": "武吉加东",
   "Name_MY": "Bulit Katong",
   "District_ZH": "野新",
   "District_MY": "Jasin",
   "State_ZH": "马六甲",
   "State_MY": "Melaka",
   "Founding_Year": 1950,
   "latlng": "2.32213°N 102.45915°E",
   "lat": "2.32213",
   "lng": "102.45915"
 },
 {
   "Name_ZH": "安乐新村",
   "Name_MY": "Kampung On Lok",
   "District_ZH": "野新",
   "District_MY": "Jasin",
   "State_ZH": "马六甲",
   "State_MY": "Melaka",
   "Founding_Year": 1950,
   "latlng": "2.47166°N 102.38373°E",
   "lat": "2.47166",
   "lng": "102.38373"
 },
 {
   "Name_ZH": "巴力葛利灵",
   "Name_MY": "Parit Keliling",
   "District_ZH": "野新",
   "District_MY": "Jasin",
   "State_ZH": "马六甲",
   "State_MY": "Melaka",
   "Founding_Year": 1950,
   "latlng": "2.35977°N 102.50177°E",
   "lat": "2.35977",
   "lng": "102.50177"
 },
 {
   "Name_ZH": "冯鹿峇登新村",
   "Name_MY": "Pondok Batang",
   "District_ZH": "野新",
   "District_MY": "Jasin",
   "State_ZH": "马六甲",
   "State_MY": "Melaka",
   "Founding_Year": 1950,
   "latlng": "2.3854°N 102.50989°E",
   "lat": "2.3854",
   "lng": "102.50989"
 },
 {
   "Name_ZH": "新邦木阁",
   "Name_MY": "Sempang Bekoh",
   "District_ZH": "野新",
   "District_MY": "Jasin",
   "State_ZH": "马六甲",
   "State_MY": "Melaka",
   "Founding_Year": 1950,
   "latlng": "2.35744°N 102.5121°E",
   "lat": "2.35744",
   "lng": "102.5121"
 },
 {
   "Name_ZH": "亚逸马吉",
   "Name_MY": "Air Manggis",
   "District_ZH": "野新",
   "District_MY": "Jasin",
   "State_ZH": "马六甲",
   "State_MY": "Melaka",
   "Founding_Year": null,
   "latlng": "2.28989°N 102.42792°E",
   "lat": "2.28989",
   "lng": "102.42792"
 },
 {
   "Name_ZH": "广西村",
   "Name_MY": "Kampung Kongsi",
   "District_ZH": "野新",
   "District_MY": "Jasin",
   "State_ZH": "马六甲",
   "State_MY": "Melaka",
   "Founding_Year": null,
   "latlng": "2.27572°N 102.41539°E",
   "lat": "2.27572",
   "lng": "102.41539"
 },
 {
   "Name_ZH": "安极乐",
   "Name_MY": "Ayer Keroh ",
   "District_ZH": "马六甲中央区",
   "District_MY": "Melaka Tengah",
   "State_ZH": "马六甲",
   "State_MY": "Melaka",
   "Founding_Year": 1950,
   "latlng": "2.26373°N 102.28365°E",
   "lat": "2.26373",
   "lng": "102.28365"
 },
 {
   "Name_ZH": "亚依沙叻",
   "Name_MY": "Ayer Salak",
   "District_ZH": "马六甲中央区",
   "District_MY": "Melaka Tengah",
   "State_ZH": "马六甲",
   "State_MY": "Melaka",
   "Founding_Year": 1951,
   "latlng": "2.27237°N 102.16731°E\t",
   "lat": "2.27237",
   "lng": "102.16731"
 },
 {
   "Name_ZH": "柏淡乌鲁新村",
   "Name_MY": "Bertam Ulu",
   "District_ZH": "马六甲中央区",
   "District_MY": "Melaka Tengah",
   "State_ZH": "马六甲",
   "State_MY": "Melaka",
   "Founding_Year": 1950,
   "latlng": "2.28885°N 102.19377°E\t",
   "lat": "2.28885",
   "lng": "102.19377"
 },
 {
   "Name_ZH": "武吉波浪 ",
   "Name_MY": "Bukit Beruang",
   "District_ZH": "马六甲中央区",
   "District_MY": "Melaka Tengah",
   "State_ZH": "马六甲",
   "State_MY": "Melaka",
   "Founding_Year": 1953,
   "latlng": "2.24002°N 102.27792°E",
   "lat": "2.24002",
   "lng": "102.27792"
 },
 {
   "Name_ZH": "武吉南眉",
   "Name_MY": "Bukit Rambai",
   "District_ZH": "马六甲中央区",
   "District_MY": "Melaka Tengah",
   "State_ZH": "马六甲",
   "State_MY": "Melaka",
   "Founding_Year": 1951,
   "latlng": "2.25267°N 102.18284°E\t",
   "lat": "2.25267",
   "lng": "102.18284"
 },
 {
   "Name_ZH": "双溪乌浪",
   "Name_MY": "Sungai Udang",
   "District_ZH": "马六甲中央区",
   "District_MY": "Melaka Tengah",
   "State_ZH": "马六甲",
   "State_MY": "Melaka",
   "Founding_Year": 1950,
   "latlng": "2.28414°N 102.13364°E",
   "lat": "2.28414",
   "lng": "102.13364"
 },
 {
   "Name_ZH": "丹绒米雅",
   "Name_MY": "Tanjong Minyak",
   "District_ZH": "马六甲中央区",
   "District_MY": "Melaka Tengah",
   "State_ZH": "马六甲",
   "State_MY": "Melaka",
   "Founding_Year": 1951,
   "latlng": "2.26388°N 102.19923°E",
   "lat": "2.26388",
   "lng": "102.19923"
 },
 {
   "Name_ZH": "丁赖",
   "Name_MY": "Tiang Dua",
   "District_ZH": "马六甲中央区",
   "District_MY": "Melaka Tengah",
   "State_ZH": "马六甲",
   "State_MY": "Melaka",
   "Founding_Year": 1957,
   "latlng": "2.21417°N 102.3613°E",
   "lat": "2.21417",
   "lng": "102.3613"
 },
 {
   "Name_ZH": "丹绒吉灵",
   "Name_MY": "Tanjung Keling",
   "District_ZH": "马六甲中央区",
   "District_MY": "Melaka Tengah",
   "State_ZH": "马六甲",
   "State_MY": "Melaka",
   "Founding_Year": null,
   "latlng": "2.22284°N 102.16484°E",
   "lat": "2.22284",
   "lng": "102.16484"
 },
 {
   "Name_ZH": "亚依淡",
   "Name_MY": "Ayer Hitam",
   "District_ZH": "峇株巴辖",
   "District_MY": "Batu Pahat",
   "State_ZH": "柔佛",
   "State_MY": "Johor",
   "Founding_Year": 1952,
   "latlng": "1.91817°N 103.17952°E",
   "lat": "1.91817",
   "lng": "103.17952"
 },
 {
   "Name_ZH": "新港",
   "Name_MY": "Kangkar Baharu",
   "District_ZH": "峇株巴辖",
   "District_MY": "Batu Pahat",
   "State_ZH": "柔佛",
   "State_MY": "Johor",
   "Founding_Year": 1951,
   "latlng": "2.06371°N 103.12355°E",
   "lat": "2.06371",
   "lng": "103.12355"
 },
 {
   "Name_ZH": "南利",
   "Name_MY": "Lam Lee",
   "District_ZH": "峇株巴辖",
   "District_MY": "Batu Pahat",
   "State_ZH": "柔佛",
   "State_MY": "Johor",
   "Founding_Year": 1952,
   "latlng": "2.09413°N 103.04598°E",
   "lat": "2.09413",
   "lng": "103.04598"
 },
 {
   "Name_ZH": "巴力拉惹",
   "Name_MY": "Parit Raja",
   "District_ZH": "峇株巴辖",
   "District_MY": "Batu Pahat",
   "State_ZH": "柔佛",
   "State_MY": "Johor",
   "Founding_Year": 1951,
   "latlng": "1.8648°N 103.11241°E",
   "lat": "1.8648",
   "lng": "103.11241"
 },
 {
   "Name_ZH": "巴力士隆",
   "Name_MY": "Parit Sulong",
   "District_ZH": "峇株巴辖",
   "District_MY": "Batu Pahat",
   "State_ZH": "柔佛",
   "State_MY": "Johor",
   "Founding_Year": 1951,
   "latlng": "1.8648°N 103.11241°E",
   "lat": "1.8648",
   "lng": "103.11241"
 },
 {
   "Name_ZH": "巴力也尼",
   "Name_MY": "Parit Yaani",
   "District_ZH": "峇株巴辖",
   "District_MY": "Batu Pahat",
   "State_ZH": "柔佛",
   "State_MY": "Johor",
   "Founding_Year": 1951,
   "latlng": "1.97587°N 102.88282°E",
   "lat": "1.97587",
   "lng": "102.88282"
 },
 {
   "Name_ZH": "龙引",
   "Name_MY": "Rengit",
   "District_ZH": "峇株巴辖",
   "District_MY": "Batu Pahat",
   "State_ZH": "柔佛",
   "State_MY": "Johor",
   "Founding_Year": 1952,
   "latlng": "1.95404°N 103.02586°E",
   "lat": "1.95404",
   "lng": "103.02586"
 },
 {
   "Name_ZH": "圣模那",
   "Name_MY": "Semerah",
   "District_ZH": "峇株巴辖",
   "District_MY": "Batu Pahat",
   "State_ZH": "柔佛",
   "State_MY": "Johor",
   "Founding_Year": 1952,
   "latlng": "1.88331°N 102.7825°E",
   "lat": "1.88331",
   "lng": "102.7825"
 },
 {
   "Name_ZH": "新加兰",
   "Name_MY": "Senggarang",
   "District_ZH": "峇株巴辖",
   "District_MY": "Batu Pahat",
   "State_ZH": "柔佛",
   "State_MY": "Johor",
   "Founding_Year": 1952,
   "latlng": "1.74912°N 103.0523°E",
   "lat": "1.74912",
   "lng": "103.0523"
 },
 {
   "Name_ZH": "四加亭",
   "Name_MY": "Seri Gading",
   "District_ZH": "峇株巴辖",
   "District_MY": "Batu Pahat",
   "State_ZH": "柔佛",
   "State_MY": "Johor",
   "Founding_Year": 1950,
   "latlng": "1.85416°N 103.03044°E",
   "lat": "1.85416",
   "lng": "103.03044"
 },
 {
   "Name_ZH": "铁山",
   "Name_MY": "Seri Medan",
   "District_ZH": "峇株巴辖",
   "District_MY": "Batu Pahat",
   "State_ZH": "柔佛",
   "State_MY": "Johor",
   "Founding_Year": 1950,
   "latlng": "1.98371°N 102.95638°E",
   "lat": "1.98371",
   "lng": "102.95638"
 },
 {
   "Name_ZH": "中江 ",
   "Name_MY": "Tongkang Pcchah",
   "District_ZH": "峇株巴辖",
   "District_MY": "Batu Pahat",
   "State_ZH": "柔佛",
   "State_MY": "Johor",
   "Founding_Year": 1954,
   "latlng": "1.90634°N 102.95057°E",
   "lat": "1.90634",
   "lng": "102.95057"
 },
 {
   "Name_ZH": "永平",
   "Name_MY": "Yong Peng",
   "District_ZH": "峇株巴辖",
   "District_MY": "Batu Pahat",
   "State_ZH": "柔佛",
   "State_MY": "Johor",
   "Founding_Year": 1950,
   "latlng": "2.01111°N 103.06657°E",
   "lat": "2.01111",
   "lng": "103.06657"
 },
 {
   "Name_ZH": "港脚",
   "Name_MY": "Kangkar Senanger",
   "District_ZH": "峇株巴辖",
   "District_MY": "Batu Pahat",
   "State_ZH": "柔佛",
   "State_MY": "Johor",
   "Founding_Year": null,
   "latlng": "2.02659°N 102.883°E",
   "lat": "2.02659",
   "lng": "102.883"
 },
 {
   "Name_ZH": "海口",
   "Name_MY": "Minyak Beku",
   "District_ZH": "峇株巴辖",
   "District_MY": "Batu Pahat",
   "State_ZH": "柔佛",
   "State_MY": "Johor",
   "Founding_Year": null,
   "latlng": "1.80138°N 102.90553°E",
   "lat": "1.80138",
   "lng": "102.90553"
 },
 {
   "Name_ZH": "班卒",
   "Name_MY": "Panchor",
   "District_ZH": "峇株巴辖",
   "District_MY": "Batu Pahat",
   "State_ZH": "柔佛",
   "State_MY": "Johor",
   "Founding_Year": null,
   "latlng": "1.86702°N 103.003°E",
   "lat": "1.86702",
   "lng": "103.003"
 },
 {
   "Name_ZH": "巴力务鲁",
   "Name_MY": "Parit Buloh",
   "District_ZH": "峇株巴辖",
   "District_MY": "Batu Pahat",
   "State_ZH": "柔佛",
   "State_MY": "Johor",
   "Founding_Year": null,
   "latlng": "1.88998°N 102.98936°E",
   "lat": "1.88998",
   "lng": "102.98936"
 },
 {
   "Name_ZH": "新立村",
   "Name_MY": "Sin Lik",
   "District_ZH": "峇株巴辖",
   "District_MY": "Batu Pahat",
   "State_ZH": "柔佛",
   "State_MY": "Johor",
   "Founding_Year": null,
   "latlng": "2.07092°N 103.14353°E",
   "lat": "2.07092",
   "lng": "103.14353"
 },
 {
   "Name_ZH": "峇眼/大巴力",
   "Name_MY": "Bagan/Parit Besar",
   "District_ZH": "峇株巴辖",
   "District_MY": "Batu Pahat",
   "State_ZH": "柔佛",
   "State_MY": "Johor",
   "Founding_Year": null,
   "latlng": "1.8479°N 102.85826°E",
   "lat": "1.8479",
   "lng": "102.85826"
 },
 {
   "Name_ZH": "石文丁",
   "Name_MY": "Segenting",
   "District_ZH": "峇株巴辖",
   "District_MY": "Batu Pahat",
   "State_ZH": "柔佛",
   "State_MY": "Johor",
   "Founding_Year": null,
   "latlng": "1.7845°N 102.89324°E",
   "lat": "1.7845",
   "lng": "102.89324"
 },
 {
   "Name_ZH": "亚逸文满",
   "Name_MY": "Ayer Bemban",
   "District_ZH": "新山",
   "District_MY": "Johor Bahru",
   "State_ZH": "柔佛",
   "State_MY": "Johor",
   "Founding_Year": 1950,
   "latlng": "1.69883°N 103.48466°E",
   "lat": "1.69883",
   "lng": "103.48466"
 },
 {
   "Name_ZH": "万孚",
   "Name_MY": "Ban Foo",
   "District_ZH": "新山",
   "District_MY": "Johor Bahru",
   "State_ZH": "柔佛",
   "State_MY": "Johor",
   "Founding_Year": 1950,
   "latlng": "1.56709°N 103.8538°E",
   "lat": "1.56709",
   "lng": "103.8538"
 },
 {
   "Name_ZH": "武吉峇都",
   "Name_MY": "Bukit Batu",
   "District_ZH": "新山",
   "District_MY": "Johor Bahru",
   "State_ZH": "柔佛",
   "State_MY": "Johor",
   "Founding_Year": 1950,
   "latlng": "1.73408°N 103.44379°E",
   "lat": "1.73408",
   "lng": "103.44379"
 },
 {
   "Name_ZH": "振林山",
   "Name_MY": "Gelang Patah",
   "District_ZH": "新山",
   "District_MY": "Johor Bahru",
   "State_ZH": "柔佛",
   "State_MY": "Johor",
   "Founding_Year": 1950,
   "latlng": "1.44942°N 103.58727°E",
   "lat": "1.44942",
   "lng": "103.58727"
 },
 {
   "Name_ZH": "江加埔来",
   "Name_MY": "Kangkar Pulai",
   "District_ZH": "新山",
   "District_MY": "Johor Bahru",
   "State_ZH": "柔佛",
   "State_MY": "Johor",
   "Founding_Year": 1950,
   "latlng": "1.55979°N 103.59284°E",
   "lat": "1.55979",
   "lng": "103.59284"
 },
 {
   "Name_ZH": "陈厝港",
   "Name_MY": "Kangkar Tebrau",
   "District_ZH": "新山",
   "District_MY": "Johor Bahru",
   "State_ZH": "柔佛",
   "State_MY": "Johor",
   "Founding_Year": 1951,
   "latlng": "1.5312°N 103.75577°E",
   "lat": "1.5312",
   "lng": "103.75577"
 },
 {
   "Name_ZH": "加拉巴沙威",
   "Name_MY": "Kelapa Sawit",
   "District_ZH": "新山",
   "District_MY": "Johor Bahru",
   "State_ZH": "柔佛",
   "State_MY": "Johor",
   "Founding_Year": 1950,
   "latlng": "1.67143°N 103.53051°E",
   "lat": "1.67143",
   "lng": "103.53051"
 },
 {
   "Name_ZH": "古来",
   "Name_MY": "Kulai",
   "District_ZH": "新山",
   "District_MY": "Johor Bahru",
   "State_ZH": "柔佛",
   "State_MY": "Johor",
   "Founding_Year": 1950,
   "latlng": "1.6585°N 103.6006°E",
   "lat": "1.6585",
   "lng": "103.6006"
 },
 {
   "Name_ZH": "五间店",
   "Name_MY": "Lima Kedai",
   "District_ZH": "新山",
   "District_MY": "Johor Bahru",
   "State_ZH": "柔佛",
   "State_MY": "Johor",
   "Founding_Year": 1950,
   "latlng": "1.50231°N 103.61698°E",
   "lat": "1.50231",
   "lng": "103.61698"
 },
 {
   "Name_ZH": "马西",
   "Name_MY": "Masai",
   "District_ZH": "新山",
   "District_MY": "Johor Bahru",
   "State_ZH": "柔佛",
   "State_MY": "Johor",
   "Founding_Year": 1952,
   "latlng": "1.49109°N 103.88329°E",
   "lat": "1.49109",
   "lng": "103.88329"
 },
 {
   "Name_ZH": "班兰",
   "Name_MY": "Pandan",
   "District_ZH": "新山",
   "District_MY": "Johor Bahru",
   "State_ZH": "柔佛",
   "State_MY": "Johor",
   "Founding_Year": 1950,
   "latlng": "1.52732°N 103.7667°E",
   "lat": "1.52732",
   "lng": "103.7667"
 },
 {
   "Name_ZH": "避兰东",
   "Name_MY": "Pelentong",
   "District_ZH": "新山",
   "District_MY": "Johor Bahru",
   "State_ZH": "柔佛",
   "State_MY": "Johor",
   "Founding_Year": 1950,
   "latlng": "1.52423°N 103.82266°E",
   "lat": "1.52423",
   "lng": "103.82266"
 },
 {
   "Name_ZH": "沙令",
   "Name_MY": "Saleng",
   "District_ZH": "新山",
   "District_MY": "Johor Bahru",
   "State_ZH": "柔佛",
   "State_MY": "Johor",
   "Founding_Year": 1950,
   "latlng": "1.62975°N 103.63385°E",
   "lat": "1.62975",
   "lng": "103.63385"
 },
 {
   "Name_ZH": "士年纳",
   "Name_MY": "Sedenak",
   "District_ZH": "新山",
   "District_MY": "Johor Bahru",
   "State_ZH": "柔佛",
   "State_MY": "Johor",
   "Founding_Year": 1951,
   "latlng": "1.71063°N 103.52666°E",
   "lat": "1.71063",
   "lng": "103.52666"
 },
 {
   "Name_ZH": "泗隆",
   "Name_MY": "Kampung Seelong",
   "District_ZH": "新山",
   "District_MY": "Johor Bahru",
   "State_ZH": "柔佛",
   "State_MY": "Johor",
   "Founding_Year": 1951,
   "latlng": "1.6301°N 103.69536°E",
   "lat": "1.6301",
   "lng": "103.69536"
 },
 {
   "Name_ZH": "士乃",
   "Name_MY": "Senai",
   "District_ZH": "新山",
   "District_MY": "Johor Bahru",
   "State_ZH": "柔佛",
   "State_MY": "Johor",
   "Founding_Year": 1950,
   "latlng": "1.6012°N 103.64468°E",
   "lat": "1.6012",
   "lng": "103.64468"
 },
 {
   "Name_ZH": "新港",
   "Name_MY": "Sengkang",
   "District_ZH": "新山",
   "District_MY": "Johor Bahru",
   "State_ZH": "柔佛",
   "State_MY": "Johor",
   "Founding_Year": 1950,
   "latlng": "1.68872°N 103.57212°E",
   "lat": "1.68872",
   "lng": "103.57212"
 },
 {
   "Name_ZH": "士姑来",
   "Name_MY": "Sekudai",
   "District_ZH": "新山",
   "District_MY": "Johor Bahru",
   "State_ZH": "柔佛",
   "State_MY": "Johor",
   "Founding_Year": 1950,
   "latlng": "1.52484°N 103.67178°E",
   "lat": "1.52484",
   "lng": "103.67178"
 },
 {
   "Name_ZH": "乌鲁槽",
   "Name_MY": "Ulu Clooh",
   "District_ZH": "新山",
   "District_MY": "Johor Bahru",
   "State_ZH": "柔佛",
   "State_MY": "Johor",
   "Founding_Year": null,
   "latlng": "1.53309°N 103.54556°E",
   "lat": "1.53309",
   "lng": "103.54556"
 },
 {
   "Name_ZH": "乌鲁地南",
   "Name_MY": "Ulu Tiram",
   "District_ZH": "新山",
   "District_MY": "Johor Bahru",
   "State_ZH": "柔佛",
   "State_MY": "Johor",
   "Founding_Year": 1950,
   "latlng": "1.59958°N 103.81768°E",
   "lat": "1.59958",
   "lng": "103.81768"
 },
 {
   "Name_ZH": "甘拔士峇鲁",
   "Name_MY": "Kempas Baru",
   "District_ZH": "新山",
   "District_MY": "Johor Bahru",
   "State_ZH": "柔佛",
   "State_MY": "Johor",
   "Founding_Year": 1951,
   "latlng": "1.52877°N 103.70505°E",
   "lat": "1.52877",
   "lng": "103.70505"
 },
 {
   "Name_ZH": " 翁姑慕申",
   "Name_MY": "Ungku Mohsin",
   "District_ZH": "新山",
   "District_MY": "Johor Bahru",
   "State_ZH": "柔佛",
   "State_MY": "Johor",
   "Founding_Year": null,
   "latlng": "1.51341°N 103.73904°E",
   "lat": "1.51341",
   "lng": "103.73904"
 },
 {
   "Name_ZH": "淡杯",
   "Name_MY": "Tampoi",
   "District_ZH": "新山",
   "District_MY": "Johor Bahru",
   "State_ZH": "柔佛",
   "State_MY": "Johor",
   "Founding_Year": null,
   "latlng": "1.49986°N 103.70283°E",
   "lat": "1.49986",
   "lng": "103.70283"
 },
 {
   "Name_ZH": "占美",
   "Name_MY": "Chamek",
   "District_ZH": "居銮",
   "District_MY": "Kluang",
   "State_ZH": "柔佛",
   "State_MY": "Johor",
   "Founding_Year": 1949,
   "latlng": "2°08′35″N 103°14′19″E",
   "lat": "2.1430555555555557",
   "lng": "103.23861111111111"
 },
 {
   "Name_ZH": "加亨",
   "Name_MY": "Kahang",
   "District_ZH": "居銮",
   "District_MY": "Kluang",
   "State_ZH": "柔佛",
   "State_MY": "Johor",
   "Founding_Year": 1952,
   "latlng": "2°12′47″N 103°32′39″E",
   "lat": "2.2130555555555556",
   "lng": "103.54416666666667"
 },
 {
   "Name_ZH": "甘光佳雅",
   "Name_MY": "Kampung Gaiah",
   "District_ZH": "居銮",
   "District_MY": "Kluang",
   "State_ZH": "柔佛",
   "State_MY": "Johor",
   "Founding_Year": 1952,
   "latlng": "2°06′14″N 103°23′37″E",
   "lat": "2.103888888888889",
   "lng": "103.39361111111111"
 },
 {
   "Name_ZH": "甘光巴野",
   "Name_MY": "Kampung Paya",
   "District_ZH": "居銮",
   "District_MY": "Kluang",
   "State_ZH": "柔佛",
   "State_MY": "Johor",
   "Founding_Year": 1950,
   "latlng": "2°02′32″N 103°20′08″E",
   "lat": "2.042222222222222",
   "lng": "103.33555555555554"
 },
 {
   "Name_ZH": "拉央拉央",
   "Name_MY": "Layang Layang",
   "District_ZH": "居銮",
   "District_MY": "Kluang",
   "State_ZH": "柔佛",
   "State_MY": "Johor",
   "Founding_Year": 1952,
   "latlng": "1°48′46″N 103°28′46″E",
   "lat": "1.8127777777777778",
   "lng": "103.47944444444444"
 },
 {
   "Name_ZH": "吗什",
   "Name_MY": "Machap",
   "District_ZH": "居銮",
   "District_MY": "Kluang",
   "State_ZH": "柔佛",
   "State_MY": "Johor",
   "Founding_Year": 1952,
   "latlng": "1°52′58″N 103°15′46″E",
   "lat": "1.8827777777777779",
   "lng": "103.26277777777777"
 },
 {
   "Name_ZH": "梁站",
   "Name_MY": "Niyor",
   "District_ZH": "居銮",
   "District_MY": "Kluang",
   "State_ZH": "柔佛",
   "State_MY": "Johor",
   "Founding_Year": 1954,
   "latlng": "2°05′41″N 103°16′45″E",
   "lat": "2.0947222222222224",
   "lng": "103.27916666666667"
 },
 {
   "Name_ZH": "巴罗",
   "Name_MY": "Paloh",
   "District_ZH": "居銮",
   "District_MY": "Kluang",
   "State_ZH": "柔佛",
   "State_MY": "Johor",
   "Founding_Year": 1952,
   "latlng": "2°11′21″N 103°11′43″E",
   "lat": "2.1891666666666665",
   "lng": "103.19527777777778"
 },
 {
   "Name_ZH": "令金",
   "Name_MY": "Renggam",
   "District_ZH": "居銮",
   "District_MY": "Kluang",
   "State_ZH": "柔佛",
   "State_MY": "Johor",
   "Founding_Year": 1951,
   "latlng": "1°53′04″N 103°24′01″E",
   "lat": "1.8844444444444444",
   "lng": "103.40027777777779"
 },
 {
   "Name_ZH": "新邦令金",
   "Name_MY": "Simpang Renggam",
   "District_ZH": "居銮",
   "District_MY": "Kluang",
   "State_ZH": "柔佛",
   "State_MY": "Johor",
   "Founding_Year": 1952,
   "latlng": "1°49′30″N 103°18′32″E",
   "lat": "1.825",
   "lng": "103.30888888888889"
 },
 {
   "Name_ZH": "实里拉龙",
   "Name_MY": "Seri Lalang",
   "District_ZH": "居銮",
   "District_MY": "Kluang",
   "State_ZH": "柔佛",
   "State_MY": "Johor",
   "Founding_Year": 1952,
   "latlng": "1°59′38″N 103°15′11″E",
   "lat": "1.993888888888889",
   "lng": "103.25305555555556"
 },
 {
   "Name_ZH": "双溪沙翁",
   "Name_MY": "Sungai Sayong",
   "District_ZH": "居銮",
   "District_MY": "Kluang",
   "State_ZH": "柔佛",
   "State_MY": "Johor",
   "Founding_Year": 1950,
   "latlng": "1°55′21″N 103°22′24″E",
   "lat": "1.9224999999999999",
   "lng": "103.37333333333332"
 },
 {
   "Name_ZH": "巴西高谷",
   "Name_MY": "Pasir Gogok",
   "District_ZH": "哥打丁宜",
   "District_MY": "Kota Tinggi",
   "State_ZH": "柔佛",
   "State_MY": "Johor",
   "Founding_Year": 1952,
   "latlng": "1.41925°N 104.10078°E",
   "lat": "1.41925",
   "lng": "104.10078"
 },
 {
   "Name_ZH": "四湾岛",
   "Name_MY": "Sungai Renggit",
   "District_ZH": "哥打丁宜",
   "District_MY": "Kota Tinggi",
   "State_ZH": "柔佛",
   "State_MY": "Johor",
   "Founding_Year": 1952,
   "latlng": "1.35033°N 104.22213°E",
   "lat": "1.35033",
   "lng": "104.22213"
 },
 {
   "Name_ZH": "南亚",
   "Name_MY": "Telok Sengat",
   "District_ZH": "哥打丁宜",
   "District_MY": "Kota Tinggi",
   "State_ZH": "柔佛",
   "State_MY": "Johor",
   "Founding_Year": 1952,
   "latlng": "1.5621°N 104.0318°E",
   "lat": "1.5621",
   "lng": "104.0318"
 },
 {
   "Name_ZH": "龙望路二条石村",
   "Name_MY": "Batu 2 Jalan Lombong",
   "District_ZH": "哥打丁宜",
   "District_MY": "Kota Tinggi",
   "State_ZH": "柔佛",
   "State_MY": "Johor",
   "Founding_Year": null,
   "latlng": "1.75165°N 103.89106°E",
   "lat": "1.75165",
   "lng": "103.89106"
 },
 {
   "Name_ZH": "瓜拉素里里",
   "Name_MY": "Kuala Sedili",
   "District_ZH": "哥打丁宜",
   "District_MY": "Kota Tinggi",
   "State_ZH": "柔佛",
   "State_MY": "Johor",
   "Founding_Year": null,
   "latlng": "1.92721°N 104.12154°E",
   "lat": "1.92721",
   "lng": "104.12154"
 },
 {
   "Name_ZH": "卢骨支那",
   "Name_MY": "Lukut Cina",
   "District_ZH": "哥打丁宜",
   "District_MY": "Kota Tinggi",
   "State_ZH": "柔佛",
   "State_MY": "Johor",
   "Founding_Year": null,
   "latlng": "1.74447°N 103.91051°E",
   "lat": "1.74447",
   "lng": "103.91051"
 },
 {
   "Name_ZH": "任罗宏（三版头）",
   "Name_MY": "Jermaluang",
   "District_ZH": "丰盛港",
   "District_MY": "Mersing",
   "State_ZH": "柔佛",
   "State_MY": "Johor",
   "Founding_Year": 1949,
   "latlng": "2.2769°N 103.8569°E",
   "lat": "2.2769",
   "lng": "103.8569"
 },
 {
   "Name_ZH": "好旺村",
   "Name_MY": "Kampubg Hubung",
   "District_ZH": "丰盛港",
   "District_MY": "Mersing",
   "State_ZH": "柔佛",
   "State_MY": "Johor",
   "Founding_Year": 1952,
   "latlng": "2.62293°N 103.64679°E",
   "lat": "2.62293",
   "lng": "103.64679"
 },
 {
   "Name_ZH": "小丰盛",
   "Name_MY": "Mersing Kechil",
   "District_ZH": "丰盛港",
   "District_MY": "Mersing",
   "State_ZH": "柔佛",
   "State_MY": "Johor",
   "Founding_Year": 1952,
   "latlng": "2.42404°N 103.83926°E",
   "lat": "2.42404",
   "lng": "103.83926"
 },
 {
   "Name_ZH": "興樓",
   "Name_MY": "Endau",
   "District_ZH": "丰盛港",
   "District_MY": "Mersing",
   "State_ZH": "柔佛",
   "State_MY": "Johor",
   "Founding_Year": null,
   "latlng": "2.65461°N 103.61829°E",
   "lat": "2.65461",
   "lng": "103.61829"
 },
 {
   "Name_ZH": "木阁",
   "Name_MY": "Bekoh",
   "District_ZH": "麻坡",
   "District_MY": "Muar",
   "State_ZH": "柔佛",
   "State_MY": "Johor",
   "Founding_Year": 1950,
   "latlng": "2.34979°N 102.51995°E",
   "lat": "2.34979",
   "lng": "102.51995"
 },
 {
   "Name_ZH": "巴口",
   "Name_MY": "Bakri",
   "District_ZH": "麻坡",
   "District_MY": "Muar",
   "State_ZH": "柔佛",
   "State_MY": "Johor",
   "Founding_Year": 1950,
   "latlng": "2.04249°N 102.65396°E",
   "lat": "2.04249",
   "lng": "102.65396"
 },
 {
   "Name_ZH": "武吉甘蜜",
   "Name_MY": "Bukit Gambir",
   "District_ZH": "麻坡",
   "District_MY": "Muar",
   "State_ZH": "柔佛",
   "State_MY": "Johor",
   "Founding_Year": 1951,
   "latlng": "2.2138°N 102.6559°E",
   "lat": "2.2138",
   "lng": "102.6559"
 },
 {
   "Name_ZH": "武吉港脚",
   "Name_MY": "Bukit Kangkar",
   "District_ZH": "麻坡",
   "District_MY": "Muar",
   "State_ZH": "柔佛",
   "State_MY": "Johor",
   "Founding_Year": 1952,
   "latlng": "2.17464°N 102.55387°E",
   "lat": "2.17464",
   "lng": "102.55387"
 },
 {
   "Name_ZH": "武吉巴西",
   "Name_MY": "Bukit Kepong",
   "District_ZH": "麻坡",
   "District_MY": "Muar",
   "State_ZH": "柔佛",
   "State_MY": "Johor",
   "Founding_Year": 1950,
   "latlng": "2.34558°N 102.83196°E",
   "lat": "2.34558",
   "lng": "102.83196"
 },
 {
   "Name_ZH": "武吉摩",
   "Name_MY": "Bukit Mor",
   "District_ZH": "麻坡",
   "District_MY": "Muar",
   "State_ZH": "柔佛",
   "State_MY": "Johor",
   "Founding_Year": 1950,
   "latlng": "1.97492°N 102.66192°E",
   "lat": "1.97492",
   "lng": "102.66192"
 },
 {
   "Name_ZH": "武吉巴西",
   "Name_MY": "Bukit Pasir",
   "District_ZH": "麻坡",
   "District_MY": "Muar",
   "State_ZH": "柔佛",
   "State_MY": "Johor",
   "Founding_Year": 1952,
   "latlng": "2.09847°N 102.63745°E",
   "lat": "2.09847",
   "lng": "102.63745"
 },
 {
   "Name_ZH": "居本峇鲁",
   "Name_MY": "Kebun Baharu",
   "District_ZH": "麻坡",
   "District_MY": "Muar",
   "State_ZH": "柔佛",
   "State_MY": "Johor",
   "Founding_Year": 1951,
   "latlng": "2.39255°N 102.6846°E",
   "lat": "2.39255",
   "lng": "102.6846"
 },
 {
   "Name_ZH": "坤兰于汝",
   "Name_MY": "Kundang  Ulu",
   "District_ZH": "麻坡",
   "District_MY": "Muar",
   "State_ZH": "柔佛",
   "State_MY": "Johor",
   "Founding_Year": 1951,
   "latlng": "2.23541°N 102.7695°E",
   "lat": "2.23541",
   "lng": "102.7695"
 },
 {
   "Name_ZH": "岭嘉",
   "Name_MY": "Lenga",
   "District_ZH": "麻坡",
   "District_MY": "Muar",
   "State_ZH": "柔佛",
   "State_MY": "Johor",
   "Founding_Year": 1951,
   "latlng": "2.27413°N 102.8153°E",
   "lat": "2.27413",
   "lng": "102.8153"
 },
 {
   "Name_ZH": "巴莪",
   "Name_MY": "Pagoh",
   "District_ZH": "麻坡",
   "District_MY": "Muar",
   "State_ZH": "柔佛",
   "State_MY": "Johor",
   "Founding_Year": 1952,
   "latlng": "2.14912°N 102.77146°E",
   "lat": "2.14912",
   "lng": "102.77146"
 },
 {
   "Name_ZH": "班卒",
   "Name_MY": "Panchor",
   "District_ZH": "麻坡",
   "District_MY": "Muar",
   "State_ZH": "柔佛",
   "State_MY": "Johor",
   "Founding_Year": 1951,
   "latlng": "2.1716°N 102.71244°E",
   "lat": "2.1716",
   "lng": "102.71244"
 },
 {
   "Name_ZH": "砂益",
   "Name_MY": "Sagil",
   "District_ZH": "麻坡",
   "District_MY": "Muar",
   "State_ZH": "柔佛",
   "State_MY": "Johor",
   "Founding_Year": 1950,
   "latlng": "2.30535°N 102.61453°E",
   "lat": "2.30535",
   "lng": "102.61453"
 },
 {
   "Name_ZH": "实廊",
   "Name_MY": "Serom",
   "District_ZH": "麻坡",
   "District_MY": "Muar",
   "State_ZH": "柔佛",
   "State_MY": "Johor",
   "Founding_Year": 1952,
   "latlng": "2.16529°N 102.58651°E",
   "lat": "2.16529",
   "lng": "102.58651"
 },
 {
   "Name_ZH": "利丰港",
   "Name_MY": "Sungai Mati",
   "District_ZH": "麻坡",
   "District_MY": "Muar",
   "State_ZH": "柔佛",
   "State_MY": "Johor",
   "Founding_Year": 1952,
   "latlng": "2.14558°N 102.56254°E",
   "lat": "2.14558",
   "lng": "102.56254"
 },
 {
   "Name_ZH": "东甲",
   "Name_MY": "Tangkak",
   "District_ZH": "麻坡",
   "District_MY": "Muar",
   "State_ZH": "柔佛",
   "State_MY": "Johor",
   "Founding_Year": 1952,
   "latlng": "2.273°N 102.5391°E",
   "lat": "2.273",
   "lng": "102.5391"
 },
 {
   "Name_ZH": "巴口西区",
   "Name_MY": "Bakri Barat",
   "District_ZH": "麻坡",
   "District_MY": "Muar",
   "State_ZH": "柔佛",
   "State_MY": "Johor",
   "Founding_Year": null,
   "latlng": "2.0492°N 102.6657°E",
   "lat": "2.0492",
   "lng": "102.6657"
 },
 {
   "Name_ZH": "六马路",
   "Name_MY": "Jalan Daud",
   "District_ZH": "麻坡",
   "District_MY": "Muar",
   "State_ZH": "柔佛",
   "State_MY": "Johor",
   "Founding_Year": null,
   "latlng": "2.0422°N 102.57339°E",
   "lat": "2.0422",
   "lng": "102.57339"
 },
 {
   "Name_ZH": "巴力峇九",
   "Name_MY": "Parit Bakar",
   "District_ZH": "麻坡",
   "District_MY": "Muar",
   "State_ZH": "柔佛",
   "State_MY": "Johor",
   "Founding_Year": null,
   "latlng": "2.00278°N 102.60542°E",
   "lat": "2.00278",
   "lng": "102.60542"
 },
 {
   "Name_ZH": "沙巴莪",
   "Name_MY": "Sabak Awor",
   "District_ZH": "麻坡",
   "District_MY": "Muar",
   "State_ZH": "柔佛",
   "State_MY": "Johor",
   "Founding_Year": null,
   "latlng": "2.07139°N 102.56341°E",
   "lat": "2.07139",
   "lng": "102.56341"
 },
 {
   "Name_ZH": "二南",
   "Name_MY": "Simpang Jeram",
   "District_ZH": "麻坡",
   "District_MY": "Muar",
   "State_ZH": "柔佛",
   "State_MY": "Johor",
   "Founding_Year": null,
   "latlng": "2.04974°N 102.61384°E",
   "lat": "2.04974",
   "lng": "102.61384"
 },
 {
   "Name_ZH": "北干那那",
   "Name_MY": "Pekan Nanas",
   "District_ZH": "笨珍",
   "District_MY": "Pontian",
   "State_ZH": "柔佛",
   "State_MY": "Johor",
   "Founding_Year": 1952,
   "latlng": "1.5088°N 103.5113°E",
   "lat": "1.5088",
   "lng": "103.5113"
 },
 {
   "Name_ZH": "龟咯山顶",
   "Name_MY": "Permas Kukup",
   "District_ZH": "笨珍",
   "District_MY": "Pontian",
   "State_ZH": "柔佛",
   "State_MY": "Johor",
   "Founding_Year": null,
   "latlng": "1.33446°N 103.45604°E",
   "lat": "1.33446",
   "lng": "103.45604"
 },
 {
   "Name_ZH": "亚逸峇礼",
   "Name_MY": "Ayer Baloi",
   "District_ZH": "笨珍",
   "District_MY": "Pontian",
   "State_ZH": "柔佛",
   "State_MY": "Johor",
   "Founding_Year": null,
   "latlng": "1.58709°N 103.33919°E",
   "lat": "1.58709",
   "lng": "103.33919"
 },
 {
   "Name_ZH": "咸水港",
   "Name_MY": "Ayer Baloi",
   "District_ZH": "笨珍",
   "District_MY": "Pontian",
   "State_ZH": "柔佛",
   "State_MY": "Johor",
   "Founding_Year": null,
   "latlng": "1.33209°N 103.4429°E",
   "lat": "1.33209",
   "lng": "103.4429"
 },
 {
   "Name_ZH": "文律",
   "Name_MY": "Benut",
   "District_ZH": "笨珍",
   "District_MY": "Pontian",
   "State_ZH": "柔佛",
   "State_MY": "Johor",
   "Founding_Year": null,
   "latlng": "1.6438°N 103.2587°E",
   "lat": "1.6438",
   "lng": "103.2587"
 },
 {
   "Name_ZH": "龟咯港脚",
   "Name_MY": "Kukup Laut",
   "District_ZH": "笨珍",
   "District_MY": "Pontian",
   "State_ZH": "柔佛",
   "State_MY": "Johor",
   "Founding_Year": null,
   "latlng": "1.3242°N 103.44259°E",
   "lat": "1.3242",
   "lng": "103.44259"
 },
 {
   "Name_ZH": "72 峇都安南",
   "Name_MY": "Batu Enam",
   "District_ZH": "昔加末",
   "District_MY": "Segamat",
   "State_ZH": "柔佛",
   "State_MY": "Johor",
   "Founding_Year": 1950,
   "latlng": "2.57971°N 102.70890°E",
   "lat": "2.57971",
   "lng": "102.70890"
 },
 {
   "Name_ZH": "73 彼咯",
   "Name_MY": "Bekok",
   "District_ZH": "昔加末",
   "District_MY": "Segamat",
   "State_ZH": "柔佛",
   "State_MY": "Johor",
   "Founding_Year": 1951,
   "latlng": "2.29685°N 103.13199°E",
   "lat": "2.29685",
   "lng": "103.13199"
 },
 {
   "Name_ZH": "74 武吉仕砵（红牌）",
   "Name_MY": "Bukit Siput (Ang Pai)",
   "District_ZH": "昔加末",
   "District_MY": "Segamat",
   "State_ZH": "柔佛",
   "State_MY": "Johor",
   "Founding_Year": 1950,
   "latlng": "2.48392°N 102.84964°E",
   "lat": "2.48392",
   "lng": "102.84964"
 },
 {
   "Name_ZH": "75 巫罗加什",
   "Name_MY": "Buloh Kasap",
   "District_ZH": "昔加末",
   "District_MY": "Segamat",
   "State_ZH": "柔佛",
   "State_MY": "Johor",
   "Founding_Year": 1951,
   "latlng": "2.54978°N 102.76514°E",
   "lat": "2.54978",
   "lng": "102.76514"
 },
 {
   "Name_ZH": "76 三合港",
   "Name_MY": "Chaah",
   "District_ZH": "昔加末",
   "District_MY": "Segamat",
   "State_ZH": "柔佛",
   "State_MY": "Johor",
   "Founding_Year": 1951,
   "latlng": "2.24573°N 103.04162°E",
   "lat": "2.24573",
   "lng": "103.04162"
 },
 {
   "Name_ZH": "77 金马士峇鲁（大港）",
   "Name_MY": "Gemas Baharu",
   "District_ZH": "昔加末",
   "District_MY": "Segamat",
   "State_ZH": "柔佛",
   "State_MY": "Johor",
   "Founding_Year": 1951,
   "latlng": "2.58401°N 102.62857°E",
   "lat": "2.58401",
   "lng": "102.62857"
 },
 {
   "Name_ZH": "78 利民达",
   "Name_MY": "Jementah",
   "District_ZH": "昔加末",
   "District_MY": "Segamat",
   "State_ZH": "柔佛",
   "State_MY": "Johor",
   "Founding_Year": 1952,
   "latlng": "2.44056°N 102.6858°E",
   "lat": "2.44056",
   "lng": "102.6858"
 },
 {
   "Name_ZH": "79 亚罗拉新村",
   "Name_MY": "Kampung Abdulah",
   "District_ZH": "昔加末",
   "District_MY": "Segamat",
   "State_ZH": "柔佛",
   "State_MY": "Johor",
   "Founding_Year": 1951,
   "latlng": "2.50367°N 102.82714°E",
   "lat": "2.50367",
   "lng": "102.82714"
 },
 {
   "Name_ZH": "80 甘榜登雅",
   "Name_MY": "Kampung Tengah",
   "District_ZH": "昔加末",
   "District_MY": "Segamat",
   "State_ZH": "柔佛",
   "State_MY": "Johor",
   "Founding_Year": 1950,
   "latlng": "2.52996°N 102.82714°E",
   "lat": "2.52996",
   "lng": "102.82714"
 },
 {
   "Name_ZH": "81 拉美士",
   "Name_MY": "Labis",
   "District_ZH": "昔加末",
   "District_MY": "Segamat",
   "State_ZH": "柔佛",
   "State_MY": "Johor",
   "Founding_Year": 1952,
   "latlng": "2.38362°N 103.02114°E",
   "lat": "2.38362",
   "lng": "103.02114"
 },
 {
   "Name_ZH": "82 北根里依班拿士（内丁能） ",
   "Name_MY": "Pekan Air Panas",
   "District_ZH": "昔加末",
   "District_MY": "Segamat",
   "State_ZH": "柔佛",
   "State_MY": "Johor",
   "Founding_Year": 1952,
   "latlng": "2.46693°N 103.05623°E",
   "lat": "2.46693",
   "lng": "103.05623"
 },
 {
   "Name_ZH": "83 北根冶美",
   "Name_MY": "Pekan Jai",
   "District_ZH": "昔加末",
   "District_MY": "Segamat",
   "State_ZH": "柔佛",
   "State_MY": "Johor",
   "Founding_Year": 1950,
   "latlng": "2.53323°N 102.80767°E",
   "lat": "2.53323",
   "lng": "102.80767"
 },
 {
   "Name_ZH": "84 双溪加叻",
   "Name_MY": "Sungai Karas",
   "District_ZH": "昔加末",
   "District_MY": "Segamat",
   "State_ZH": "柔佛",
   "State_MY": "Johor",
   "Founding_Year": 1952,
   "latlng": "2.35543°N 103.03839°E",
   "lat": "2.35543",
   "lng": "103.03839"
 },
 {
   "Name_ZH": "广西村",
   "Name_MY": "Kg. Kwongsai",
   "District_ZH": "昔加末",
   "District_MY": "Segamat",
   "State_ZH": "柔佛",
   "State_MY": "Johor",
   "Founding_Year": null,
   "latlng": "2.4783°N 102.92277°E",
   "lat": "2.4783",
   "lng": "102.92277"
 },
 {
   "Name_ZH": "丁能田芭村",
   "Name_MY": "Kg. Sawah Padi Tenang",
   "District_ZH": "昔加末",
   "District_MY": "Segamat",
   "State_ZH": "柔佛",
   "State_MY": "Johor",
   "Founding_Year": null,
   "latlng": "2.47381°N 102.95515°E",
   "lat": "2.47381",
   "lng": "102.95515"
 },
 {
   "Name_ZH": "东猛新村",
   "Name_MY": "Kg. Tambang Batu 7",
   "District_ZH": "昔加末",
   "District_MY": "Segamat",
   "State_ZH": "柔佛",
   "State_MY": "Johor",
   "Founding_Year": null,
   "latlng": "2.63757°N 102.74256°E",
   "lat": "2.63757",
   "lng": "102.74256"
 },
 {
   "Name_ZH": "武吉丁宜新村",
   "Name_MY": "Kampung Baharu Bukit Tinggi",
   "District_ZH": "文冬",
   "District_MY": "Bentong",
   "State_ZH": "彭亨",
   "State_MY": "Pahang",
   "Founding_Year": 1951,
   "latlng": "3.34927°N 101.82142°E",
   "lat": "3.34927",
   "lng": "101.82142"
 },
 {
   "Name_ZH": "暹猛新村",
   "Name_MY": "Kampung Baharu Camang",
   "District_ZH": "文冬",
   "District_MY": "Bentong",
   "State_ZH": "彭亨",
   "State_MY": "Pahang",
   "Founding_Year": 1950,
   "latlng": "3.52875°N 101.90191°E",
   "lat": "3.52875",
   "lng": "101.90191"
 },
 {
   "Name_ZH": "加叻",
   "Name_MY": "Karak",
   "District_ZH": "文冬",
   "District_MY": "Bentong",
   "State_ZH": "彭亨",
   "State_MY": "Pahang",
   "Founding_Year": 1950,
   "latlng": "3.41436°N 102.03551°E",
   "lat": "3.41436",
   "lng": "102.03551"
 },
 {
   "Name_ZH": "吉打里",
   "Name_MY": "Keteri",
   "District_ZH": "文冬",
   "District_MY": "Bentong",
   "State_ZH": "彭亨",
   "State_MY": "Pahang",
   "Founding_Year": 1950,
   "latlng": "3.50661°N 101.91325°E",
   "lat": "3.50661",
   "lng": "101.91325"
 },
 {
   "Name_ZH": "文积",
   "Name_MY": "Mancis",
   "District_ZH": "文冬",
   "District_MY": "Bentong",
   "State_ZH": "彭亨",
   "State_MY": "Pahang",
   "Founding_Year": 1950,
   "latlng": "3.20177°N 102.16214°E",
   "lat": "3.20177",
   "lng": "102.16214"
 },
 {
   "Name_ZH": "玻璃口新村 ",
   "Name_MY": "",
   "District_ZH": "文冬",
   "District_MY": "Bentong",
   "State_ZH": "彭亨",
   "State_MY": "Pahang",
   "Founding_Year": 1950,
   "latlng": "3.51969°N 101.90601°E",
   "lat": "3.51969",
   "lng": "101.90601"
 },
 {
   "Name_ZH": "力巴士新村",
   "Name_MY": "Repas",
   "District_ZH": "文冬",
   "District_MY": "Bentong",
   "State_ZH": "彭亨",
   "State_MY": "Pahang",
   "Founding_Year": 1950,
   "latlng": "3.53077°N 101.90314°E",
   "lat": "3.53077",
   "lng": "101.90314"
 },
 {
   "Name_ZH": "斯里地里望",
   "Name_MY": "Sri Telemong",
   "District_ZH": "文冬",
   "District_MY": "Bentong",
   "State_ZH": "彭亨",
   "State_MY": "Pahang",
   "Founding_Year": 1950,
   "latlng": "3.35727°N 102.06517°E",
   "lat": "3.35727",
   "lng": "102.06517"
 },
 {
   "Name_ZH": "双溪都亚新村",
   "Name_MY": "Sungai Dua",
   "District_ZH": "文冬",
   "District_MY": "Bentong",
   "State_ZH": "彭亨",
   "State_MY": "Pahang",
   "Founding_Year": 1950,
   "latlng": "3.45584°N 101.99467°E",
   "lat": "3.45584",
   "lng": "101.99467"
 },
 {
   "Name_ZH": "双溪加杯",
   "Name_MY": "Sungai Gapoi",
   "District_ZH": "文冬",
   "District_MY": "Bentong",
   "State_ZH": "彭亨",
   "State_MY": "Pahang",
   "Founding_Year": 1950,
   "latlng": "3.27241°N 102.10565°E",
   "lat": "3.27241",
   "lng": "102.10565"
 },
 {
   "Name_ZH": "宋溪本祖令新村",
   "Name_MY": "Sungai Penjuring",
   "District_ZH": "文冬",
   "District_MY": "Bentong",
   "State_ZH": "彭亨",
   "State_MY": "Pahang",
   "Founding_Year": 1950,
   "latlng": "3.61329°N 101.87778°E",
   "lat": "3.61329",
   "lng": "101.87778"
 },
 {
   "Name_ZH": "双溪必得",
   "Name_MY": "Sungai Penjuring",
   "District_ZH": "文冬",
   "District_MY": "Bentong",
   "State_ZH": "彭亨",
   "State_MY": "Pahang",
   "Founding_Year": 1950,
   "latlng": "3.32659°N 102.06116°E",
   "lat": "3.32659",
   "lng": "102.06116"
 },
 {
   "Name_ZH": "地里望",
   "Name_MY": "Telemung",
   "District_ZH": "文冬",
   "District_MY": "Bentong",
   "State_ZH": "彭亨",
   "State_MY": "Pahang",
   "Founding_Year": 1950,
   "latlng": "3.29043°N 102.08802°E",
   "lat": "3.29043",
   "lng": "102.08802"
 },
 {
   "Name_ZH": "旧玻哩口",
   "Name_MY": "Ulu Perting",
   "District_ZH": "文冬",
   "District_MY": "Bentong",
   "State_ZH": "彭亨",
   "State_MY": "Pahang",
   "Founding_Year": 1950,
   "latlng": "3.51452°N 101.90484°E",
   "lat": "3.51452",
   "lng": "101.90484"
 },
 {
   "Name_ZH": "甘榜拉惹",
   "Name_MY": "Kampung Raja",
   "District_ZH": "金马伦",
   "District_MY": "Cameron",
   "State_ZH": "彭亨",
   "State_MY": "Pahang",
   "Founding_Year": 1962,
   "latlng": "3.51452°N 101.90484°E",
   "lat": "3.51452",
   "lng": "101.90484"
 },
 {
   "Name_ZH": "美兰村",
   "Name_MY": "Kea Farm",
   "District_ZH": "金马伦",
   "District_MY": "Cameron",
   "State_ZH": "彭亨",
   "State_MY": "Pahang",
   "Founding_Year": 1950,
   "latlng": "4.50366°N 101.41234°E",
   "lat": "4.50366",
   "lng": "101.41234"
 },
 {
   "Name_ZH": "瓜拉地位",
   "Name_MY": "Kuala Tela",
   "District_ZH": "金马伦",
   "District_MY": "Cameron",
   "State_ZH": "彭亨",
   "State_MY": "Pahang",
   "Founding_Year": 1949,
   "latlng": "4.54794°N 101.41549°E",
   "lat": "4.54794",
   "lng": "101.41549"
 },
 {
   "Name_ZH": "巴登威利",
   "Name_MY": "Bertam Valley",
   "District_ZH": "金马伦",
   "District_MY": "Cameron",
   "State_ZH": "彭亨",
   "State_MY": "Pahang",
   "Founding_Year": 1952,
   "latlng": "4.41501°N 101.39877°E",
   "lat": "4.41501",
   "lng": "101.39877"
 },
 {
   "Name_ZH": "冷力",
   "Name_MY": "Ringlet",
   "District_ZH": "金马伦",
   "District_MY": "Cameron",
   "State_ZH": "彭亨",
   "State_MY": "Pahang",
   "Founding_Year": 1951,
   "latlng": "4.41402°N 101.38409°E",
   "lat": "4.41402",
   "lng": "101.38409"
 },
 {
   "Name_ZH": "直冷甲",
   "Name_MY": "Teringkap",
   "District_ZH": "金马伦",
   "District_MY": "Cameron",
   "State_ZH": "彭亨",
   "State_MY": "Pahang",
   "Founding_Year": 1950,
   "latlng": "4.51567°N 101.42863°E",
   "lat": "4.51567",
   "lng": "101.42863"
 },
 {
   "Name_ZH": "峇都峇来",
   "Name_MY": "Batu Balai",
   "District_ZH": "而连突",
   "District_MY": "Jerantut",
   "State_ZH": "彭亨",
   "State_MY": "Pahang",
   "Founding_Year": 1950,
   "latlng": "3.97888°N 102.17151°E",
   "lat": "3.97888",
   "lng": "102.17151"
 },
 {
   "Name_ZH": "而连宋",
   "Name_MY": "Jeransang",
   "District_ZH": "而连突",
   "District_MY": "Jerantut",
   "State_ZH": "彭亨",
   "State_MY": "Pahang",
   "Founding_Year": 1961,
   "latlng": "3.85996°N 102.36219°E",
   "lat": "3.85996",
   "lng": "102.36219"
 },
 {
   "Name_ZH": "南唛",
   "Name_MY": "Damak",
   "District_ZH": "而连突",
   "District_MY": "Jerantut",
   "State_ZH": "彭亨",
   "State_MY": "Pahang",
   "Founding_Year": 1950,
   "latlng": "3.94947°N 102.21544°E",
   "lat": "3.94947",
   "lng": "102.21544"
 },
 {
   "Name_ZH": "新生港",
   "Name_MY": "Padang Sejana",
   "District_ZH": "而连突",
   "District_MY": "Jerantut",
   "State_ZH": "彭亨",
   "State_MY": "Pahang",
   "Founding_Year": 1970,
   "latlng": "3.91350°N 102.37611°E",
   "lat": "3.91350",
   "lng": "102.37611"
 },
 {
   "Name_ZH": "双溪仁",
   "Name_MY": "Sungai Jan",
   "District_ZH": "而连突",
   "District_MY": "Jerantut",
   "State_ZH": "彭亨",
   "State_MY": "Pahang",
   "Founding_Year": 1950,
   "latlng": "3.94133°N 102.36518°E",
   "lat": "3.94133",
   "lng": "102.36518"
 },
 {
   "Name_ZH": "友联港",
   "Name_MY": "Sungai Lekok",
   "District_ZH": "而连突",
   "District_MY": "Jerantut",
   "State_ZH": "彭亨",
   "State_MY": "Pahang",
   "Founding_Year": 1951,
   "latlng": "3.90144°N 102.33079°E",
   "lat": "3.90144",
   "lng": "102.33079"
 },
 {
   "Name_ZH": "57碑",
   "Name_MY": "Batu 57",
   "District_ZH": "而连突",
   "District_MY": "Jerantut",
   "State_ZH": "彭亨",
   "State_MY": "Pahang",
   "Founding_Year": null,
   "latlng": "3.94205°N 102.39099°E",
   "lat": "3.94205",
   "lng": "102.39099"
 },
 {
   "Name_ZH": "双溪芭乌鲁",
   "Name_MY": "Sungai Par Ulu",
   "District_ZH": "而连突",
   "District_MY": "Jerantut",
   "State_ZH": "彭亨",
   "State_MY": "Pahang",
   "Founding_Year": null,
   "latlng": "3.92747°N 102.32441°E",
   "lat": "3.92747",
   "lng": "102.32441"
 },
 {
   "Name_ZH": "甘孟",
   "Name_MY": "Gambang",
   "District_ZH": "关丹",
   "District_MY": "Kuantan",
   "State_ZH": "彭亨",
   "State_MY": "Pahang",
   "Founding_Year": 1950,
   "latlng": "3.70716°N 103.09947°E",
   "lat": "3.70716",
   "lng": "103.09947"
 },
 {
   "Name_ZH": "斯里德伦敦",
   "Name_MY": "Seri Teruntum (Tanah Puteh)",
   "District_ZH": "关丹",
   "District_MY": "Kuantan",
   "State_ZH": "彭亨",
   "State_MY": "Pahang",
   "Founding_Year": 1954,
   "latlng": "3.80047°N 103.3126°E",
   "lat": "3.80047",
   "lng": "103.3126"
 },
 {
   "Name_ZH": "林明横港",
   "Name_MY": "Seberang Baru Sungai Lembing",
   "District_ZH": "关丹",
   "District_MY": "Kuantan",
   "State_ZH": "彭亨",
   "State_MY": "Pahang",
   "Founding_Year": null,
   "latlng": "3.91003°N 103.02864°E",
   "lat": "3.91003",
   "lng": "103.02864"
 },
 {
   "Name_ZH": "文打",
   "Name_MY": "Benta",
   "District_ZH": "立卑",
   "District_MY": "Lipis",
   "State_ZH": "彭亨",
   "State_MY": "Pahang",
   "Founding_Year": 1951,
   "latlng": "4.01918°N 101.96456°E",
   "lat": "4.01918",
   "lng": "101.96456"
 },
 {
   "Name_ZH": "日利谷",
   "Name_MY": "Jerkuh",
   "District_ZH": "立卑",
   "District_MY": "Lipis",
   "State_ZH": "彭亨",
   "State_MY": "Pahang",
   "Founding_Year": 1951,
   "latlng": "4.03955°N 101.95489°E",
   "lat": "4.03955",
   "lng": "101.95489"
 },
 {
   "Name_ZH": "巴登冬菇",
   "Name_MY": "Padang Tengku",
   "District_ZH": "立卑",
   "District_MY": "Lipis",
   "State_ZH": "彭亨",
   "State_MY": "Pahang",
   "Founding_Year": 1951,
   "latlng": "4.23406°N 101.99158°E",
   "lat": "4.23406",
   "lng": "101.99158"
 },
 {
   "Name_ZH": "槟绒新村",
   "Name_MY": "Penjum",
   "District_ZH": "立卑",
   "District_MY": "Lipis",
   "State_ZH": "彭亨",
   "State_MY": "Pahang",
   "Founding_Year": 1952,
   "latlng": "4.11551°N 102.0054°E",
   "lat": "4.11551",
   "lng": "102.0054"
 },
 {
   "Name_ZH": "斯里再也",
   "Name_MY": "Sri Jaya",
   "District_ZH": "马兰",
   "District_MY": "Maran",
   "State_ZH": "彭亨",
   "State_MY": "Pahang",
   "Founding_Year": 1960,
   "latlng": "3.67334°N 102.87441°E",
   "lat": "3.67334",
   "lng": "102.87441"
 },
 {
   "Name_ZH": "双溪热力",
   "Name_MY": "Sungai Jerik",
   "District_ZH": "马兰",
   "District_MY": "Maran",
   "State_ZH": "彭亨",
   "State_MY": "Pahang",
   "Founding_Year": 1950,
   "latlng": "3.78617°N 102.64288°E",
   "lat": "3.78617",
   "lng": "102.64288"
 },
 {
   "Name_ZH": "武吉公满新村",
   "Name_MY": "Bukit Koman",
   "District_ZH": "劳勿",
   "District_MY": "Raub",
   "State_ZH": "彭亨",
   "State_MY": "Pahang",
   "Founding_Year": 1950,
   "latlng": "3.81776°N 101.85206°E",
   "lat": "3.81776",
   "lng": "101.85206"
 },
 {
   "Name_ZH": "积罗",
   "Name_MY": "Ceruh",
   "District_ZH": "劳勿",
   "District_MY": "Raub",
   "State_ZH": "彭亨",
   "State_MY": "Pahang",
   "Founding_Year": 1950,
   "latlng": "3.90268°N 101.81358°E",
   "lat": "3.90268",
   "lng": "101.81358"
 },
 {
   "Name_ZH": "生利新村",
   "Name_MY": "Sang Lee",
   "District_ZH": "劳勿",
   "District_MY": "Raub",
   "State_ZH": "彭亨",
   "State_MY": "Pahang",
   "Founding_Year": 1950,
   "latlng": "3.65745°N 101.84495°E",
   "lat": "3.65745",
   "lng": "101.84495"
 },
 {
   "Name_ZH": "新巴力新村",
   "Name_MY": "Sempalit",
   "District_ZH": "劳勿",
   "District_MY": "Raub",
   "State_ZH": "彭亨",
   "State_MY": "Pahang",
   "Founding_Year": 1950,
   "latlng": "3.80093°N 101.87148°E",
   "lat": "3.80093",
   "lng": "101.87148"
 },
 {
   "Name_ZH": "双溪只登新村",
   "Name_MY": "Sungai Cetang",
   "District_ZH": "劳勿",
   "District_MY": "Raub",
   "State_ZH": "彭亨",
   "State_MY": "Pahang",
   "Founding_Year": 1951,
   "latlng": "3.71063°N 101.82151°E",
   "lat": "3.71063",
   "lng": "101.82151"
 },
 {
   "Name_ZH": "双溪吉挠",
   "Name_MY": "Sungai Klau",
   "District_ZH": "劳勿",
   "District_MY": "Raub",
   "State_ZH": "彭亨",
   "State_MY": "Pahang",
   "Founding_Year": 1950,
   "latlng": "3.74523°N 101.98034°E\t",
   "lat": "3.74523",
   "lng": "101.98034"
 },
 {
   "Name_ZH": "双溪内新村",
   "Name_MY": "Sungai Lui",
   "District_ZH": "劳勿",
   "District_MY": "Raub",
   "State_ZH": "彭亨",
   "State_MY": "Pahang",
   "Founding_Year": 1950,
   "latlng": "3.81163°N 101.84736°E",
   "lat": "3.81163",
   "lng": "101.84736"
 },
 {
   "Name_ZH": "双溪兰新村",
   "Name_MY": "Sungai Ruan",
   "District_ZH": "劳勿",
   "District_MY": "Raub",
   "State_ZH": "彭亨",
   "State_MY": "Pahang",
   "Founding_Year": 1951,
   "latlng": "3.80758°N 101.93872°E",
   "lat": "3.80758",
   "lng": "101.93872"
 },
 {
   "Name_ZH": "都赖新村",
   "Name_MY": "Teras",
   "District_ZH": "劳勿",
   "District_MY": "Raub",
   "State_ZH": "彭亨",
   "State_MY": "Pahang",
   "Founding_Year": 1951,
   "latlng": "3.74043°N 101.80812°E",
   "lat": "3.74043",
   "lng": "101.80812"
 },
 {
   "Name_ZH": "双溪查力",
   "Name_MY": "Sungai Chalit",
   "District_ZH": "劳勿",
   "District_MY": "Raub",
   "State_ZH": "彭亨",
   "State_MY": "Pahang",
   "Founding_Year": null,
   "latlng": "3.75693°N 102.00699°E",
   "lat": "3.75693",
   "lng": "102.00699"
 },
 {
   "Name_ZH": "加流",
   "Name_MY": "Kerdau",
   "District_ZH": "淡马鲁",
   "District_MY": "Temerloh",
   "State_ZH": "彭亨",
   "State_MY": "Pahang",
   "Founding_Year": 1952,
   "latlng": "3.57433°N 102.36988°E",
   "lat": "3.57433",
   "lng": "102.36988"
 },
 {
   "Name_ZH": "瓜拉吉挠",
   "Name_MY": "Kuala Kerau",
   "District_ZH": "淡马鲁",
   "District_MY": "Temerloh",
   "State_ZH": "彭亨",
   "State_MY": "Pahang",
   "Founding_Year": 1950,
   "latlng": "3.70922°N 102.36865°E",
   "lat": "3.70922",
   "lng": "102.36865"
 },
 {
   "Name_ZH": "兰增",
   "Name_MY": "Lancang",
   "District_ZH": "淡马鲁",
   "District_MY": "Temerloh",
   "State_ZH": "彭亨",
   "State_MY": "Pahang",
   "Founding_Year": 1950,
   "latlng": "3.49461°N 102.19199°E",
   "lat": "3.49461",
   "lng": "102.19199"
 },
 {
   "Name_ZH": "文德甲",
   "Name_MY": "Mentekab",
   "District_ZH": "淡马鲁",
   "District_MY": "Temerloh",
   "State_ZH": "彭亨",
   "State_MY": "Pahang",
   "Founding_Year": 1950,
   "latlng": "3.48757°N 102.35218°E",
   "lat": "3.48757",
   "lng": "102.35218"
 },
 {
   "Name_ZH": "淡马鲁",
   "Name_MY": "Temerloh",
   "District_ZH": "淡马鲁",
   "District_MY": "Temerloh",
   "State_ZH": "彭亨",
   "State_MY": "Pahang",
   "Founding_Year": 1950,
   "latlng": "3.45357°N 102.41798°E",
   "lat": "3.45357",
   "lng": "102.41798"
 },
 {
   "Name_ZH": "布兰莪",
   "Name_MY": "Kampung Belenggu Halt",
   "District_ZH": "淡马鲁",
   "District_MY": "Temerloh",
   "State_ZH": "彭亨",
   "State_MY": "Pahang",
   "Founding_Year": null,
   "latlng": "3.37154°N 102.42847°E",
   "lat": "3.37154",
   "lng": "102.42847"
 },
 {
   "Name_ZH": "五哩村",
   "Name_MY": "Kampung Batu 5",
   "District_ZH": "龙运",
   "District_MY": "Dungun",
   "State_ZH": "丁加奴",
   "State_MY": "Terengganu",
   "Founding_Year": 1950,
   "latlng": "4.71524°N 103.4169°E",
   "lat": "4.71524",
   "lng": "103.4169"
 },
 {
   "Name_ZH": "亚依仁耐",
   "Name_MY": "Air Jernih",
   "District_ZH": "甘马挽",
   "District_MY": "Kemaman",
   "State_ZH": "丁加奴",
   "State_MY": "Terengganu",
   "Founding_Year": 1954,
   "latlng": "4.40840°N 103.39753°E",
   "lat": "4.40840",
   "lng": "103.39753"
 },
 {
   "Name_ZH": "蒲菜",
   "Name_MY": "Pulai Baru",
   "District_ZH": "瓜拉丁加奴",
   "District_MY": "Kuala Terengganu",
   "State_ZH": "丁加奴",
   "State_MY": "Terengganu",
   "Founding_Year": 1953,
   "latlng": "5.37369°N 103.0585°E",
   "lat": "5.37369",
   "lng": "103.0585"
 },
 {
   "Name_ZH": "柏丹",
   "Name_MY": "Bertam",
   "District_ZH": "话望生",
   "District_MY": "Gua Musang",
   "State_ZH": "吉兰丹",
   "State_MY": "Kelantan",
   "Founding_Year": 1952,
   "latlng": "5.14528°N 102.04711°E",
   "lat": "5.14528",
   "lng": "102.04711"
 },
 {
   "Name_ZH": "话望生",
   "Name_MY": "Gua Musang",
   "District_ZH": "话望生",
   "District_MY": "Gua Musang",
   "State_ZH": "吉兰丹",
   "State_MY": "Kelantan",
   "Founding_Year": 1952,
   "latlng": "4.88337°N 101.96349°E",
   "lat": "4.88337",
   "lng": "101.96349"
 },
 {
   "Name_ZH": "峇都巴板",
   "Name_MY": "Batu Papan",
   "District_ZH": "话望生",
   "District_MY": "Gua Musang",
   "State_ZH": "吉兰丹",
   "State_MY": "Kelantan",
   "Founding_Year": null,
   "latlng": "4.84209°N 101.94741°E",
   "lat": "4.84209",
   "lng": "101.94741"
 },
 {
   "Name_ZH": "布赖",
   "Name_MY": "Dusun Pulai",
   "District_ZH": "话望生",
   "District_MY": "Gua Musang",
   "State_ZH": "吉兰丹",
   "State_MY": "Kelantan",
   "Founding_Year": null,
   "latlng": "4.79041°N 101.94389°E\t",
   "lat": "4.79041",
   "lng": "101.94389"
 },
 {
   "Name_ZH": "新金马",
   "Name_MY": "Germang Baru",
   "District_ZH": "日里",
   "District_MY": "Jeli",
   "State_ZH": "吉兰丹",
   "State_MY": "Kelantan",
   "Founding_Year": 1952,
   "latlng": "5.76194°N 101.86505°E",
   "lat": "5.76194",
   "lng": "101.86505"
 },
 {
   "Name_ZH": "日里",
   "Name_MY": "Seberang Jeli",
   "District_ZH": "日里",
   "District_MY": "Jeli",
   "State_ZH": "吉兰丹",
   "State_MY": "Kelantan",
   "Founding_Year": 1952,
   "latlng": "5.69618°N 101.83233°E",
   "lat": "5.69618",
   "lng": "101.83233"
 },
 {
   "Name_ZH": "加莱",
   "Name_MY": "Kalai",
   "District_ZH": "日里",
   "District_MY": "Jeli",
   "State_ZH": "吉兰丹",
   "State_MY": "Kelantan",
   "Founding_Year": 1952,
   "latlng": "5.75057°N 101.74614°E",
   "lat": "5.75057",
   "lng": "101.74614"
 },
 {
   "Name_ZH": "瓜拉巴辣",
   "Name_MY": "Kuala Balah",
   "District_ZH": "日里",
   "District_MY": "Jeli",
   "State_ZH": "吉兰丹",
   "State_MY": "Kelantan",
   "Founding_Year": 1952,
   "latlng": "5.44143°N 101.91077°E",
   "lat": "5.44143",
   "lng": "101.91077"
 },
 {
   "Name_ZH": "古墓峇诛",
   "Name_MY": "Kubur Datu",
   "District_ZH": "日里",
   "District_MY": "Jeli",
   "State_ZH": "吉兰丹",
   "State_MY": "Kelantan",
   "Founding_Year": 1952,
   "latlng": "5.51198°N 101.89281°E",
   "lat": "5.51198",
   "lng": "101.89281"
 },
 {
   "Name_ZH": "叻嘉",
   "Name_MY": "Legeh",
   "District_ZH": "日里",
   "District_MY": "Jeli",
   "State_ZH": "吉兰丹",
   "State_MY": "Kelantan",
   "Founding_Year": 1952,
   "latlng": "5.75020°N 101.89997°E",
   "lat": "5.75020",
   "lng": "101.89997"
 },
 {
   "Name_ZH": "鲁伯布裹",
   "Name_MY": "Lubok Bungor",
   "District_ZH": "日里",
   "District_MY": "Jeli",
   "State_ZH": "吉兰丹",
   "State_MY": "Kelantan",
   "Founding_Year": 1952,
   "latlng": "5.5636°N 101.88454°E",
   "lat": "5.5636",
   "lng": "101.88454"
 },
 {
   "Name_ZH": "芝柏",
   "Name_MY": "Chepa",
   "District_ZH": "哥打巴鲁",
   "District_MY": "Kota Bahru",
   "State_ZH": "吉兰丹",
   "State_MY": "Kelantan",
   "Founding_Year": 1952,
   "latlng": "6.09927°N 102.29492°E",
   "lat": "6.09927",
   "lng": "102.29492"
 },
 {
   "Name_ZH": "直落甘地",
   "Name_MY": "Telok Kandis",
   "District_ZH": "哥打巴鲁",
   "District_MY": "Kota Bahru",
   "State_ZH": "吉兰丹",
   "State_MY": "Kelantan",
   "Founding_Year": 1952,
   "latlng": "6.04738°N 102.21156°E",
   "lat": "6.04738",
   "lng": "102.21156"
 },
 {
   "Name_ZH": "赤脚",
   "Name_MY": "Tokong",
   "District_ZH": "哥打巴鲁",
   "District_MY": "Kota Bahru",
   "State_ZH": "吉兰丹",
   "State_MY": "Kelantan",
   "Founding_Year": 1952,
   "latlng": "5.95008°N 102.20897°E",
   "lat": "5.95008",
   "lng": "102.20897"
 },
 {
   "Name_ZH": "唐人坡",
   "Name_MY": "Kampung Cina",
   "District_ZH": "哥打巴鲁",
   "District_MY": "Kota Bahru",
   "State_ZH": "吉兰丹",
   "State_MY": "Kelantan",
   "Founding_Year": null,
   "latlng": "6.14187°N 102.23515°E",
   "lat": "6.14187",
   "lng": "102.23515"
 },
 {
   "Name_ZH": "暹村",
   "Name_MY": "Pauh Lima",
   "District_ZH": "哥打巴鲁",
   "District_MY": "Kota Bahru",
   "State_ZH": "吉兰丹",
   "State_MY": "Kelantan",
   "Founding_Year": null,
   "latlng": "6.01089°N 102.32734°E",
   "lat": "6.01089",
   "lng": "102.32734"
 },
 {
   "Name_ZH": "奥都理",
   "Name_MY": "Aur Duri",
   "District_ZH": "哥打巴鲁",
   "District_MY": "Kota Bahru",
   "State_ZH": "吉兰丹",
   "State_MY": "Kelantan",
   "Founding_Year": null,
   "latlng": "6.02665°N 102.15811°E",
   "lat": "6.02665",
   "lng": "102.15811"
 },
 {
   "Name_ZH": "失令 ",
   "Name_MY": "Sering ",
   "District_ZH": "哥打巴鲁",
   "District_MY": "Kota Bahru",
   "State_ZH": "吉兰丹",
   "State_MY": "Kelantan",
   "Founding_Year": null,
   "latlng": "6.13999°N 102.32707°E",
   "lat": "6.13999",
   "lng": "102.32707"
 },
 {
   "Name_ZH": "达旺",
   "Name_MY": "Dabong",
   "District_ZH": "瓜拉吉赖",
   "District_MY": "Kuala Krai",
   "State_ZH": "吉兰丹",
   "State_MY": "Kelantan",
   "Founding_Year": 1952,
   "latlng": "5.37686°N 102.00877°E\t",
   "lat": "5.37686",
   "lng": "102.00877"
 },
 {
   "Name_ZH": "古吉",
   "Name_MY": "Guchil",
   "District_ZH": "瓜拉吉赖",
   "District_MY": "Kuala Krai",
   "State_ZH": "吉兰丹",
   "State_MY": "Kelantan",
   "Founding_Year": 1952,
   "latlng": "5.54949°N 102.19857°E",
   "lat": "5.54949",
   "lng": "102.19857"
 },
 {
   "Name_ZH": "卡浪安",
   "Name_MY": "Karangan",
   "District_ZH": "瓜拉吉赖",
   "District_MY": "Kuala Krai",
   "State_ZH": "吉兰丹",
   "State_MY": "Kelantan",
   "Founding_Year": 1952,
   "latlng": "5.31365°N 102.25681°E",
   "lat": "5.31365",
   "lng": "102.25681"
 },
 {
   "Name_ZH": "格姆布",
   "Name_MY": "Kemubu",
   "District_ZH": "瓜拉吉赖",
   "District_MY": "Kuala Krai",
   "State_ZH": "吉兰丹",
   "State_MY": "Kelantan",
   "Founding_Year": 1952,
   "latlng": "5.29898°N 102.01722°E",
   "lat": "5.29898",
   "lng": "102.01722"
 },
 {
   "Name_ZH": "瓜拉格里斯",
   "Name_MY": "Kuala Gris",
   "District_ZH": "瓜拉吉赖",
   "District_MY": "Kuala Krai",
   "State_ZH": "吉兰丹",
   "State_MY": "Kelantan",
   "Founding_Year": 1952,
   "latlng": "5.38922°N 102.06144°E",
   "lat": "5.38922",
   "lng": "102.06144"
 },
 {
   "Name_ZH": "拉罗",
   "Name_MY": "Laloh",
   "District_ZH": "瓜拉吉赖",
   "District_MY": "Kuala Krai",
   "State_ZH": "吉兰丹",
   "State_MY": "Kelantan",
   "Founding_Year": 1951,
   "latlng": "5.30793°N 102.27231°E",
   "lat": "5.30793",
   "lng": "102.27231"
 },
 {
   "Name_ZH": "玛力勿莱 ",
   "Name_MY": "Manek Urai",
   "District_ZH": "瓜拉吉赖",
   "District_MY": "Kuala Krai",
   "State_ZH": "吉兰丹",
   "State_MY": "Kelantan",
   "Founding_Year": 1950,
   "latlng": "5.39031°N 102.23489°E",
   "lat": "5.39031",
   "lng": "102.23489"
 },
 {
   "Name_ZH": "曼佐",
   "Name_MY": "Manjor",
   "District_ZH": "瓜拉吉赖",
   "District_MY": "Kuala Krai",
   "State_ZH": "吉兰丹",
   "State_MY": "Kelantan",
   "Founding_Year": 1952,
   "latlng": "5.33123°N 102.25241°E",
   "lat": "5.33123",
   "lng": "102.25241"
 },
 {
   "Name_ZH": "柏希",
   "Name_MY": "Pahi",
   "District_ZH": "瓜拉吉赖",
   "District_MY": "Kuala Krai",
   "State_ZH": "吉兰丹",
   "State_MY": "Kelantan",
   "Founding_Year": 1951,
   "latlng": "5.47157°N 102.22187°E",
   "lat": "5.47157",
   "lng": "102.22187"
 },
 {
   "Name_ZH": "本伯里安",
   "Name_MY": "Pahi",
   "District_ZH": "瓜拉吉赖",
   "District_MY": "Kuala Krai",
   "State_ZH": "吉兰丹",
   "State_MY": "Kelantan",
   "Founding_Year": 1950,
   "latlng": "5.33531°N 102.24873°E",
   "lat": "5.33531",
   "lng": "102.24873"
 },
 {
   "Name_ZH": "德勒贡",
   "Name_MY": "Telekong",
   "District_ZH": "瓜拉吉赖",
   "District_MY": "Kuala Krai",
   "State_ZH": "吉兰丹",
   "State_MY": "Kelantan",
   "Founding_Year": 1950,
   "latlng": "5.65841°N 102.21233°E",
   "lat": "5.65841",
   "lng": "102.21233"
 },
 {
   "Name_ZH": "峇都钟",
   "Name_MY": "Batu Jong",
   "District_ZH": "瓜拉吉赖",
   "District_MY": "Kuala Krai",
   "State_ZH": "吉兰丹",
   "State_MY": "Kelantan",
   "Founding_Year": null,
   "latlng": "5.5889°N 102.18082°E",
   "lat": "5.5889",
   "lng": "102.18082"
 },
 {
   "Name_ZH": "哥利沙",
   "Name_MY": "Kelisar",
   "District_ZH": "丹娜美拉",
   "District_MY": "Tanah Merah",
   "State_ZH": "吉兰丹",
   "State_MY": "Kelantan",
   "Founding_Year": 1955,
   "latlng": "5.7831°N 101.9883°E",
   "lat": "5.7831",
   "lng": "101.9883"
 },
 {
   "Name_ZH": "日拉督",
   "Name_MY": "Jelatok",
   "District_ZH": "丹娜美拉",
   "District_MY": "Tanah Merah",
   "State_ZH": "吉兰丹",
   "State_MY": "Kelantan",
   "Founding_Year": null,
   "latlng": "5.83353°N 102.15543°E",
   "lat": "5.83353",
   "lng": "102.15543"
 },
 {
   "Name_ZH": "巴西巴宜",
   "Name_MY": "Jelatok",
   "District_ZH": "丹娜美拉",
   "District_MY": "Tanah Merah",
   "State_ZH": "吉兰丹",
   "State_MY": "Kelantan",
   "Founding_Year": null,
   "latlng": "5.7727°N 102.14195°E",
   "lat": "5.7727",
   "lng": "102.14195"
 },
 {
   "Name_ZH": "浮罗拉亚",
   "Name_MY": "Pulau Raya",
   "District_ZH": "丹娜美拉",
   "District_MY": "Tanah Merah",
   "State_ZH": "吉兰丹",
   "State_MY": "Kelantan",
   "Founding_Year": null,
   "latlng": "5.84048°N 102.17178°E\t",
   "lat": "5.84048",
   "lng": "102.17178"
 },
 {
   "Name_ZH": "峇莱",
   "Name_MY": "Balai",
   "District_ZH": "万捷 ",
   "District_MY": "Jajahan Bachok",
   "State_ZH": "吉兰丹",
   "State_MY": "Kelantan",
   "Founding_Year": null,
   "latlng": "6.10889°N 102.37103°E",
   "lat": "6.10889",
   "lng": "102.37103"
 },
 {
   "Name_ZH": "日拉瓦",
   "Name_MY": "Jelawat",
   "District_ZH": "万捷 ",
   "District_MY": "Jajahan Bachok",
   "State_ZH": "吉兰丹",
   "State_MY": "Kelantan",
   "Founding_Year": null,
   "latlng": "6.01184°N 102.37541°E",
   "lat": "6.01184",
   "lng": "102.37541"
 },
 {
   "Name_ZH": "加沙",
   "Name_MY": "Kasar",
   "District_ZH": "巴西马",
   "District_MY": "Jajahan Pasir Mas",
   "State_ZH": "吉兰丹",
   "State_MY": "Kelantan",
   "Founding_Year": null,
   "latlng": "6.04589°N 102.17081°E\t",
   "lat": "6.04589",
   "lng": "102.17081"
 },
 {
   "Name_ZH": "巴西巴力",
   "Name_MY": "Pasir Parit",
   "District_ZH": "巴西马",
   "District_MY": "Jajahan Pasir Mas",
   "State_ZH": "吉兰丹",
   "State_MY": "Kelantan",
   "Founding_Year": null,
   "latlng": "5.91927°N 102.1887°E",
   "lat": "5.91927",
   "lng": "102.1887"
 },
 {
   "Name_ZH": "登龙",
   "Name_MY": "Tendong",
   "District_ZH": "巴西马",
   "District_MY": "Jajahan Pasir Mas",
   "State_ZH": "吉兰丹",
   "State_MY": "Kelantan",
   "Founding_Year": null,
   "latlng": "6.06945°N 102.20673°E",
   "lat": "6.06945",
   "lng": "102.20673"
 },
 {
   "Name_ZH": "西里基",
   "Name_MY": "Seligi",
   "District_ZH": "巴西富",
   "District_MY": "Jajahan Pasir Puteh",
   "State_ZH": "吉兰丹",
   "State_MY": "Kelantan",
   "Founding_Year": null,
   "latlng": "5.84791°N 102.31928°E\t",
   "lat": "5.84791",
   "lng": "102.31928"
 },
 {
   "Name_ZH": "西里新",
   "Name_MY": "Selising ",
   "District_ZH": "巴西富",
   "District_MY": "Jajahan Pasir Puteh",
   "State_ZH": "吉兰丹",
   "State_MY": "Kelantan",
   "Founding_Year": null,
   "latlng": "5.89512°N 102.33293°E",
   "lat": "5.89512",
   "lng": "102.33293"
 },
 {
   "Name_ZH": "实姆乐",
   "Name_MY": "Semerak",
   "District_ZH": "巴西富",
   "District_MY": "Jajahan Pasir Puteh",
   "State_ZH": "吉兰丹",
   "State_MY": "Kelantan",
   "Founding_Year": null,
   "latlng": "5.86947°N 102.50553°E",
   "lat": "5.86947",
   "lng": "102.50553"
 },
 {
   "Name_ZH": "督祖巴",
   "Name_MY": "Kampung Cina Chekok Tok Cuba",
   "District_ZH": "马漳",
   "District_MY": "Jajahan Machang",
   "State_ZH": "吉兰丹",
   "State_MY": "Kelantan",
   "Founding_Year": null,
   "latlng": "5.86544°N 102.20117°E",
   "lat": "5.86544",
   "lng": "102.20117"
 },
 {
   "Name_ZH": "甘榜佐",
   "Name_MY": "Kampung Joh",
   "District_ZH": "马漳",
   "District_MY": "Jajahan Machang",
   "State_ZH": "吉兰丹",
   "State_MY": "Kelantan",
   "Founding_Year": null,
   "latlng": "5.83888°N 102.1793°E",
   "lat": "5.83888",
   "lng": "102.1793"
 },
 {
   "Name_ZH": "玛达爱",
   "Name_MY": "Mata Air",
   "District_ZH": "马漳",
   "District_MY": "Jajahan Machang",
   "State_ZH": "吉兰丹",
   "State_MY": "Kelantan",
   "Founding_Year": null,
   "latlng": "5.87323°N 102.18394°E",
   "lat": "5.87323",
   "lng": "102.18394"
 },
 {
   "Name_ZH": "东马岸",
   "Name_MY": "Temangan",
   "District_ZH": "马漳",
   "District_MY": "Jajahan Machang",
   "State_ZH": "吉兰丹",
   "State_MY": "Kelantan",
   "Founding_Year": null,
   "latlng": "5.70258°N 102.1508°E",
   "lat": "5.70258",
   "lng": "102.1508"
 },
 {
   "Name_ZH": "哥斯拉雅",
   "Name_MY": "Kok Seraya",
   "District_ZH": "道北",
   "District_MY": "Tumpat",
   "State_ZH": "吉兰丹",
   "State_MY": "Kelantan",
   "Founding_Year": null,
   "latlng": "6.16059°N 102.16324°E",
   "lat": "6.16059",
   "lng": "102.16324"
 },
 {
   "Name_ZH": "古林",
   "Name_MY": "Kulim",
   "District_ZH": "道北",
   "District_MY": "Tumpat",
   "State_ZH": "吉兰丹",
   "State_MY": "Kelantan",
   "Founding_Year": null,
   "latlng": "6.11158°N 102.19142°E",
   "lat": "6.11158",
   "lng": "102.19142"
 },
 {
   "Name_ZH": "增江",
   "Name_MY": "Jinjang",
   "District_ZH": "吉隆坡",
   "District_MY": "Kuala Lumpur",
   "State_ZH": "直辖区",
   "State_MY": "Wilayah Persekutuan (Federal Territories)",
   "Founding_Year": 1950,
   "latlng": "3.1885°N 101.7180°E",
   "lat": "3.1885",
   "lng": "101.7180"
 },
 {
   "Name_ZH": "沙叻秀",
   "Name_MY": "Salak Selatan",
   "District_ZH": "吉隆坡",
   "District_MY": "Kuala Lumpur",
   "State_ZH": "直辖区",
   "State_MY": "Wilayah Persekutuan (Federal Territories)",
   "Founding_Year": 1950,
   "latlng": "3.2086°N 101.6617°E",
   "lat": "3.2086",
   "lng": "101.6617"
 }
]